codice esercizio,PROVINCIA,COMUNE,CATEGORIA,DENOMINAZIONE,name,operator,LOCALITA,FRAZIONE,INDIRIZZO 1,INDIRIZZO 2,CAP,TELEFONO,CELLULARE,FAX,EMAIL,SITO,N_CAMERE,N_POSTI_LETTO,N_BAGNI,oh,PERIODO_APERTURA 1,PERIODO_APERTURA 2,PERIODO_APERTURA 3,PERIODO_APERTURA 4,PERIODO_APERTURA 5,PERIODO_APERTURA 6,PERIODO_APERTURA 7,PERIODO_APERTURA 8,lat,lng
48460,GORIZIA,CORMONS,Superior,B&B da Sandruta di Zanuttin Stefano,B&B da Sandruta ,Zanuttin Stefano,-,-,Via Gorizia, 18/3,34071,+39 0481 630887,+39 328 1792456,,dasandruta@yahoo.it,,1,4,1,"Jan 01 - Aug 11, Aug 13 - Dec 31",Jan 01 - Aug 11,Aug 13 - Dec 31,,,,,,,45.9525093,13.4709956
40080,GORIZIA,CORMONS,Superior,B&B Morena di Picech Morena,B&B Morena ,Picech Morena,-,-,Via Bancaria,17,34071,+39 0481 630370,+39 328 8690394,+39 0481 630670,corradomorena@alice.it,,2,4,2,Jan 10 - Dec 20,Jan 10 - Dec 20,,,,,,,,45.9543228,13.4664309
2455,GORIZIA,CORMONS,Superior,La Casa di Alice di Brandolin Anna,La Casa di Alice ,Brandolin Anna,-,-,Via Ara Pacis,22,34071,,+39 335 377994,+39 0481 61743,annabrandolin@tiscali.it,http://www.wel.it/alice,4,8,4,Mar 15 - Dec 15,Mar 15 - Dec 15,,,,,,,,45.9525673,13.4636972
34720,GORIZIA,CORMONS,Standard,Al Piave di Mrmolja Zora,Al Piave ,Mrmolja Zora,-,-,Via Piave, 29/3,34071,+39 0481 60250,+39 329 2128745,+39 0481 60250,,,1,4,1,"Jan 01 - Aug 14, Sep 01 - Dec 14",Jan 01 - Aug 14,Sep 01 - Dec 14,,,,,,,45.9596688,13.4665285
53582,GORIZIA,CORMONS,Comfort,B & B Kozovci di Sirk Adriano,B & B Kozovci ,Sirk Adriano,-,-,Via Subida,67,34071,+39 0481 60531,,+39 0481 61616,info@lasubida.it,http://www.lasubida.it,1,3,1,Jan 01 - Feb 16,Jan 01 - Feb 16,,,,,,,,45.9604427,13.4893099
66901,GORIZIA,CORMONS,Comfort,Sunny S House di Gaeta Ciro,Sunny S House ,Gaeta Ciro,-,-,Via Colombicchio, 4/TER,34071,,+39 335 1590350  338 4577939,,cirogaeta@alice.it,,1,3,1,Jan 01 - Dec 31,Jan 01 - Dec 31,,,,,,,,45.9634693,13.4678455
43640,GORIZIA,DOBERDÒ DEL LAGO,-,Villa Al Bosco di Stepanovic Radmila,Villa Al Bosco ,Stepanovic Radmila,DOBERD  DEL LAGO,JAMIANO,Via Primo maggio, 3/A,34070,,+39 333 7375197,,villaalbosco@yahoo.it,http://www.villa-albosco.it,2,4,2,Jun 01 - Aug 31,Jun 01 - Aug 31,,,,,,,,45.8180987,13.5784349
49461,GORIZIA,DOLEGNA DEL COLLIO,Standard,Casale Santa Rita di Travaglio Rita,Casale Santa Rita ,Travaglio Rita,VENCO ,-,Località Vencò,16,34070,+39 048 1639145,+39 340 0753210,+39 048 1629500,franco.giorgini@libero.it,,1,2,1,May 01 - Sep 30,May 01 - Sep 30,,,,,,,,46.0026965,13.4659899
3340,GORIZIA,DOLEGNA DEL COLLIO,-,Casa Delle Rose di Culot Maurizia,Casa Delle Rose ,Culot Maurizia,-,RUTTARS,Frazione Ruttars,17,34070,+39 347 7515804,,+39 0481 33997,info@casadellerose.it,http://www.casadellerose.it,2,5,1,May 01 - Sep 30,May 01 - Sep 30,,,,,,,,45.9851006,13.4863877
33840,GORIZIA,DOLEGNA DEL COLLIO,-,Il Girasole di Stafuzza Sabrina,Il Girasole ,Stafuzza Sabrina,-,-,Località Vencò,8,34070,+39 0481 61692,+39 338 8997339,,bb-girasole@email.it,,3,7,3,Mar 01 - Jul 15,Mar 01 - Jul 15,,,,,,,,46.0026965,13.4659899
70961,GORIZIA,FARRA D ISONZO,Standard,News Home di Brumat Valentina,News Home ,Brumat Valentina,FARRA D ISONZO,-,Via Dante Alighieri,42,34072,+39 340 4960722,+39 340 4960722,,valebrumat@gmail.com,,2,4,1,Mar 01 - Nov 30,Mar 01 - Nov 30,,,,,,,,45.9035763,13.5200072
2379,GORIZIA,FOGLIANO REDIPUGLIA,-,Xweek di Zonca Marco,Xweek ,Zonca Marco,-,FOGLIANO,Via Cau de Soto, 27/12,34070,,+39 348 2868641,,marco@xweek.it,http://www.xweek.it,2,6,1,"Jan 01 - Aug 31, Sep 16 - Dec 31",Jan 01 - Aug 31,Sep 16 - Dec 31,,,,,,,45.8645006,13.4791463
71282,GORIZIA,GORIZIA,Superior,B&B Teuffenbach di Orzan Francesca,B&B Teuffenbach ,Orzan Francesca,-,-,Località Piuma,30,34170,,+39 346 3010870,,villateuffenbach@gmail.com,,2,4,2,Jan 01 - Dec 31,Jan 01 - Dec 31,,,,,,,,45.9624501,13.6150115
38620,GORIZIA,GORIZIA,Superior,Flumen di Katja Klanjscek,Flumen ,Katja Klanjscek,-,-,Via Brigata Cuneo,20,34170,+39 0481 391877,+39 347 1289944,+39 0481 391877,info@bbflumen.it,http://www.bbflumen.it,3,8,3,"Jan 01 - Jan 09, Jan 21 - Jan 29, Feb 04 - Feb 26, Mar 04 - Jul 29, Aug 05 - Dec 11, Dec 16 - Dec 31",Jan 01 - Jan 09,Jan 21 - Jan 29,Feb 04 - Feb 26,Mar 04 - Jul 29,Aug 05 - Dec 11,Dec 16 - Dec 31,,,45.9519228,13.6050519
42441,GORIZIA,GORIZIA,Comfort,B&B Lucia di Nanut Paolo,B&B Lucia ,Nanut Paolo,-,-,Via del San Michele, 300/D,34170,+39 0481 522963,+39 340 3955606,,paolo.nanut@libero.it,,3,6,2,"Jan 01 - Feb 17, Feb 23 - Dec 31",Jan 01 - Feb 17,Feb 23 - Dec 31,,,,,,,45.924344,13.6032534
62820,GORIZIA,GRADISCA D ISONZO,Standard,Casa Josef di  Bordon Ezio,,Bordon Ezio,GRADISCA D ISONZO,-,via Roma,61,34072,,+39 388 5729449,,,,3,6,1,Jan 01 - Dec 31,Jan 01 - Dec 31,,,,,,,,45.8916845,13.4769946
65300,GORIZIA,GRADISCA D ISONZO,Standard,Eggenberg di Gaudiano Furio,Eggenberg ,Gaudiano Furio,GRADISCA D ISONZO,-,Viale Trieste,40,34072,+39 0481 99899,+39 346 3951465,,furiogaudiano@yahoo.it,,2,5,1,"Jan 01 - Jan 31, Mar 01 - Dec 31",Jan 01 - Jan 31,Mar 01 - Dec 31,,,,,,,45.8844544,13.4929655
48960,GORIZIA,GRADISCA D ISONZO,Standard,La Fortezza di Pugliese Assunta,La Fortezza ,Pugliese Assunta,GRADISCA D ISONZO,-,Viale Trieste,27,34072,+39 0481 483236,+39 338 6227497,,assita46@libero.it,,1,2,1,"Jan 03 - Jan 15, Feb 01 - Sep 30, Nov 01 - Dec 31",Jan 03 - Jan 15,Feb 01 - Sep 30,Nov 01 - Dec 31,,,,,,45.8844544,13.4929655
64603,GORIZIA,GRADO,Standard,Al Bon Vento di Galante Brian,Al Bon Vento ,Galante Brian,-,FOSSALON,Via Cittanova,17,34073,,+39 333 1070983,,albonvento@gmail.com,,3,6,1,Mar 21 - Oct 21,Mar 21 - Oct 21,,,,,,,,45.7344919,13.505934
33400,GORIZIA,GRADO,Standard,Alle Conchiglie di Benolich Maria,Alle Conchiglie ,Benolich Maria,FOSSALON,-,Via Isonzo Vecchio,21,34073,+39 0431 88157,+39 339 5393515,+39 0431 88157,,,2,3,1,Apr 01 - Oct 31,Apr 01 - Oct 31,,,,,,,,45.7301304,13.4944051
69100,GORIZIA,GRADO,Standard,Casa di Mirea di Carmine Gianni,Casa di Mirea ,Carmine Gianni,-,-,Via del Tintoretto,13,34073,,+39 339 4326013,,,,4,7,4,Jan 01 - Dec 31,Jan 01 - Dec 31,,,,,,,,45.6800568,13.3846179
72221,GORIZIA,GRADO,Comfort,Al Sol Levante di Zeper Nereo,Al Sol Levante ,Zeper Nereo,FOSSALON,-,Via Verteneglio,7,34073,+39 0431 88169,,,nereozeper@gmail.com,,2,5,2,Jan 01 - Dec 31,Jan 01 - Dec 31,,,,,,,,45.7291176,13.5290072
67221,GORIZIA,MEDEA,Standard,Bed & Breakfast East Wind di Armone Patrizia,Bed & Breakfast East Wind ,Armone Patrizia,MEDEA,-,Via Scuole,5,,,+39 339 4884613,,,,2,4,1,"Mar 15 - Aug 30, Oct 01 - Dec 31",Mar 15 - Aug 30,Oct 01 - Dec 31,,,,,,,45.9164513,13.4249428
54700,GORIZIA,MONFALCONE,Superior,Gasiso di Argiro  Silvio,,,-,-,Via Sorgente,6,34074,,+39 348 9217017,+39 0,argiro.silvio@libero.it,,3,5,3,Jan 01 - Dec 31,Jan 01 - Dec 31,,,,,,,,,
63841,GORIZIA,MONFALCONE,Standard,Angelo Rossi B & B,,,-,-,Viale San Marco,60,34074,,+39 320 4385525,,b&b@angelorossi.it,,2,3,2,Jan 01 - Dec 31,Jan 01 - Dec 31,,,,,,,,45.8054543,13.533586
72300,GORIZIA,MONFALCONE,Standard,B & B Il Ciliegio di Piazza Laura,B & B Il Ciliegio ,Piazza Laura,-,-,Via Aulo Manlio,41,34074,,+39 340 8320555,,,,2,2,1,Jan 01 - Dec 31,Jan 01 - Dec 31,,,,,,,,45.7997124,13.5287721
49961,GORIZIA,MONFALCONE,Standard,B & B da Leo di Marchione Christian,B & B da Leo ,Marchione Christian,-,-,Via San Nicolò, 11 P.I^,34074,+39 0481 095770,+39 373 8684850,+39 0481 1990230,christian.marchione@libero.it,http://www.bbdaleo.it,2,3,1,Feb 01 - Nov 30,Feb 01 - Nov 30,,,,,,,,45.8118662,13.5149225
52800,GORIZIA,MONFALCONE,Standard,L Ormeggio di Favretto Laura,L Ormeggio ,Favretto Laura,-,-,Via San Gabriele,2,34074,,+39 320 8538875,,bandb.lormeggio2013@tiscali.it,,4,7,3,"Jan 01 - Feb 15, Mar 01 - May 10, May 20 - Jul 31, Aug 01 - Nov 15, Dec 04 - Dec 31",Jan 01 - Feb 15,Mar 01 - May 10,May 20 - Jul 31,Aug 01 - Nov 15,Dec 04 - Dec 31,,,,45.7967843,13.5296441
54000,GORIZIA,MONFALCONE,Standard,La Casa Piccola  di Maggiore Maurizio,La Casa Piccola  ,Maggiore Maurizio,-,-,Via Trieste,128,34074,+39 0481 484210,+39 348 2700815,,lacasapiccola@libero.it,,2,3,1,Jan 01 - Dec 31,Jan 01 - Dec 31,,,,,,,,45.8060848,13.5124052
55780,GORIZIA,RONCHI DEI LEGIONARI,Superior,B&B Borgo San Vito di Deiuri Ivana,B&B Borgo San Vito ,Deiuri Ivana,-,-,Via San Vito,8,34077,+39 340 2882561,+39 340 2882561,,info.borgosanvito@gmail.com,http://www.borgosanvito.it,1,2,1,Jan 01 - Dec 31,Jan 01 - Dec 31,,,,,,,,45.814205,13.4923455
57720,GORIZIA,RONCHI DEI LEGIONARI,Standard,Casa Ersilia di  Beltrame Alessio,,Beltrame Alessio,SELZ,-,Via Monte Cosich,62,34077,,+39 334 6060890,,eziodona@gmail.com,,1,2,1,Jan 01 - Dec 31,Jan 01 - Dec 31,,,,,,,,45.8241332,13.5157652
57700,GORIZIA,RONCHI DEI LEGIONARI,Comfort,Villa Wanda,,,-,-,Via delle Loare,9,34077,,+39 0039 347 8950101,,taniapetroni89@gmail.com,,1,2,1,Apr 01 - Dec 31,Apr 01 - Dec 31,,,,,,,,45.8302608,13.4950644
44000,GORIZIA,RONCHI DEI LEGIONARI,-,Villa Anita di Marizza Paolo,Villa Anita ,Marizza Paolo,SOLESCHIANO,-,Piazza San Tommaso, 10/B,34077,+39 0481 475244,,,anita@villanita-guesthouse.it,http://www.villanita-guesthouse.it,2,4,1,"Apr 01 - Sep 30, Oct 15 - Dec 31",Apr 01 - Sep 30,Oct 15 - Dec 31,,,,,,,45.8371597,13.4856157
48920,GORIZIA,SAGRADO,Superior,B & B S. Martino di Fegino Renato,B & B S. Martino ,Fegino Renato,S. Martino del Carso,-,Via Piantella,3,34078,,+39 335 7866921,,renatofegino@alice.it,,2,4,2,"Jan 01 - Jan 15, Mar 01 - Oct 15, Dec 15 - Dec 31",Jan 01 - Jan 15,Mar 01 - Oct 15,Dec 15 - Dec 31,,,,,,45.8713156,13.5389457
61060,GORIZIA,SAGRADO,Standard,Il Pellegrino  di  Cicutto Eduardo,,Cicutto Eduardo,-,-,Via Dante Alighieri,33,34078,,+39 380 6916345,,cicutto3000@gmsil.com,,2,4,2,Jan 01 - Dec 31,Jan 01 - Dec 31,,,,,,,,45.877396,13.4856612
64920,GORIZIA,SAGRADO,Standard,La Fojarola di Leghissa Giada,La Fojarola ,Leghissa Giada,-,SAN MARTINO DEL CARSO,Via Vicenza,23,34078,+39 0481 969812,+39 339 1547412,,giadaleghissa@yahoo.it,,3,6,2,Jan 01 - Dec 31,Jan 01 - Dec 31,,,,,,,,45.8745855,13.5330084
67060,GORIZIA,SAN PIER D ISONZO,Standard,Casa Sofia di Cossar Daniela,Casa Sofia ,Cossar Daniela,-,-,Via Marcon,34,34070,,+39 331 1663606,,,,3,4,3,Jan 01 - Dec 31,Jan 01 - Dec 31,,,,,,,,,
63481,GORIZIA,SAN PIER D ISONZO,Standard,Happy Family di Lai Flavia,Happy Family ,Lai Flavia,-,-,Via San Zanut,80,34070,,+39 329 8583786,,,,4,6,2,Jan 01 - Dec 31,Jan 01 - Dec 31,,,,,,,,,
64849,GORIZIA,SAVOGNA D ISONZO,Standard,Belvedere di Kovic Igor,Belvedere ,Kovic Igor,-,PECI,Via Verdi,41,,,+39 347 2101375,,igor.kovic65@gmail.com,,3,5,1,Jan 01 - Jan 31,Jan 01 - Jan 31,,,,,,,,,
50162,GORIZIA,SAVOGNA D ISONZO,Comfort,B&B Al Vecchio Glicine di Sambo Edoardo,B&B Al Vecchio Glicine ,Sambo Edoardo,-,GABRIA,Piazza Indipendenza,3,34070,+39 0481 882543,+39 338 7754821,,edysambo@libero.it,,2,4,1,Mar 01 - Oct 31,Mar 01 - Oct 31,,,,,,,,45.886813,13.5815015
48040,GORIZIA,STARANZANO,Standard,Trova Tempo di Stefanetto Lorenza,Trova Tempo ,Stefanetto Lorenza,-,-,Via Grappeta,28,34079,,+39 338 630 5572,+39 0481 483116,lorenzastefanetto@gmail.com,,1,1,1,"Jan 01 - Jan 06, Jan 22 - Sep 07, Sep 22 - Dec 31",Jan 01 - Jan 06,Jan 22 - Sep 07,Sep 22 - Dec 31,,,,,,45.7625892,13.5163845
46740,GORIZIA,TURRIACO,Standard,B & B Isonzo di  Tosorat Graziella,,Tosorat Graziella,-,-,Via San Francesco d'Assisi,5,34070,+39 0481 470364,+39 345 413 7231,+39 0481 470364,info@bbisonzo.it,http://www.bbisonzo.it,4,8,3,"Jan 01 - Jan 08, Mar 01 - Nov 06, Nov 26 - Dec 31",Jan 01 - Jan 08,Mar 01 - Nov 06,Nov 26 - Dec 31,,,,,,,
54200,GORIZIA,TURRIACO,Standard,B & B La Casetta di Bergamasco Tiziano,B & B La Casetta ,Bergamasco Tiziano,-,-,Via San Francesco d'Assisi,7,34070,,+39 342 1952099,,info.bblacasetta@gmail.com,,1,6,1,Jun 10 - Dec 31,Jun 10 - Dec 31,,,,,,,,,
40620,GORIZIA,TURRIACO,Standard,Casa Paschi di Chittaro Caterina,Casa Paschi ,Chittaro Caterina,-,-,Via Marcon,37,34070,+39 0481 767276,+39 347 4612447,,casapaschi@libero.it,http://www.casapaschi.it,3,8,2,Feb 01 - Nov 30,Feb 01 - Nov 30,,,,,,,,,
54980,GORIZIA,VILLESSE,Standard,Da Marina di Marizza Marina,Da Marina ,Marizza Marina,-,-,via Roma,7,34070,,+39 320 5340930,,MARIZZAMARINA@PEC.IT,,2,6,1,Jan 01 - Dec 31,Jan 01 - Dec 31,,,,,,,,45.8597024,13.4379228
64640,PORDENONE,ARBA,Standard,B&B Laurfeld Kaisu,,Laurfeld Kaisu,-,-,Via Umberto I,9,,,+39 345 0233736,,,,1,2,2,Jan 01 - Dec 31,Jan 01 - Dec 31,,,,,,,,,
39640,PORDENONE,AVIANO,Superior,Casa Piazza di Bonomi Alessandra,Casa Piazza ,Bonomi Alessandra,-,-,Via padre Marco,10,33081,,+39 331 3002725,+39 0434 651158,bbcasapiazza@live.it,http://www.bbcasapiazza.it,3,5,3,"Jan 01 - Jan 06, Jan 16 - Apr 01, Apr 10 - Oct 07, Oct 17 - Dec 31",Jan 01 - Jan 06,Jan 16 - Apr 01,Apr 10 - Oct 07,Oct 17 - Dec 31,,,,,46.06907,12.5889411
53660,PORDENONE,AVIANO,Standard,Al Ridovan di Biasutti Gianluigi,Al Ridovan ,Biasutti Gianluigi,AVIANO,MARSURE,Via Wassermann,38,33081,,+39 348 0341121  e 349 7107990,,info@bbalridovan.it,http://www.bbalridovan.it,3,7,1,"Jan 01 - May 14, Jun 01 - Nov 14, Dec 01 - Dec 31",Jan 01 - May 14,Jun 01 - Nov 14,Dec 01 - Dec 31,,,,,,46.0734506,12.625765
46380,PORDENONE,AZZANO DECIMO,Superior,Ca  Marsure,,,-,FAGNIGOLA,Via Chiesa Antica,6,33082,+39 0434 649165,+39 335 7049558,+39 0434 648152,info@camarsure.com,http://www.camarsure.com,3,6,3,Mar 01 - Nov 30,Mar 01 - Nov 30,,,,,,,,45.8493357,12.6874447
72222,PORDENONE,AZZANO DECIMO,Superior,La Barchessa di  Campagnutta Elio,,Campagnutta Elio,-,CORVA,Via San Pietro in Piagno,4,33082,+39 0434 646288,+39 366 176 2464,,acampagnutta@gmail.com,http://www.bblabarchessa.it,4,8,4,"Feb 01 - Jul 31, Sep 01 - Oct 31, Dec 01 - Dec 31",Feb 01 - Jul 31,Sep 01 - Oct 31,Dec 01 - Dec 31,,,,,,45.9030795,12.6366871
49901,PORDENONE,BRUGNERA,Comfort,La Casa Rossa di Casetta Graziella,La Casa Rossa ,Casetta Graziella,BRUGNERA,-,Via Carriade,44,33070,,+39 348 0354898,+39 0434 606771,graziella_casetta@libero.it,,2,4,2,"Jan 01 - Jul 31, Aug 11 - Sep 20, Oct 01 - Dec 31",Jan 01 - Jul 31,Aug 11 - Sep 20,Oct 01 - Dec 31,,,,,,45.9214951,12.542603
2652,PORDENONE,BUDOIA,Standard,Le Glicini di Pitton Armida,Le Glicini ,Pitton Armida,-,-,Via Friuli, 19B,33070,+39 0434 653035,+39 349 5592385,,leglicini@gmail.com,https://www.facebook.com/BedandBreakfastLeGlicini,2,3,1,Mar 08 - Dec 08,Mar 08 - Dec 08,,,,,,,,46.0484486,12.5359762
58760,PORDENONE,BUDOIA,Standard,Residence Maria di Menezes Maria Iracema Silva,,Iracema Silva,-,-,Via Pordenone,31,33070,+39 0434 653480,+39 334 8477122,,tommaso.rosatella@gmail.com,http://www.mariabedandbreakfast.it,3,6,1,Jan 01 - Dec 31,Jan 01 - Dec 31,,,,,,,,46.0273209,12.5593386
68341,PORDENONE,CANEVA,Superior,"B&B ""la Mola "" di Posocco Stefania","B&B ""la Mola "" ",Posocco Stefania,-,STEVENA ,Via dei Figherat,9,33070,,+39 391 7115455,,info@lamolacaneva.it,http://www.lamolacaneva.it,4,8,4,"Jun 28 - Nov 03, Nov 20 - Dec 31",Jun 28 - Nov 03,Nov 20 - Dec 31,,,,,,,45.968671,12.4308827
68340,PORDENONE,CANEVA,Comfort,Villa Carli di Dall Osta Graziella,,Osta Graziella,-,STEVENA ,Piazza del Carmine, 6/A,33070,,+39 331 1143121,,,,2,4,2,"May 20 - Oct 20, Dec 01 - Dec 31",May 20 - Oct 20,Dec 01 - Dec 31,,,,,,,45.9671664,12.4338554
51681,PORDENONE,CASARSA DELLA DELIZIA,Superior,Aganis di Pilosio Ester Maria,,Ester Maria,CASARSA DELLA DELIZIA,-,Via Manaras,12,33072,+39 0434 870931,+39 334 3589030,,ester.pilosio@libero.it,,1,3,1,"Jan 01 - Jan 14, Mar 16 - Nov 14, Dec 16 - Dec 31",Jan 01 - Jan 14,Mar 16 - Nov 14,Dec 16 - Dec 31,,,,,,45.961165,12.8353142
47580,PORDENONE,CASTELNOVO DEL FRIULI,-,B&B Valli Pordenonesi Idi Trevisanutto Donatello,B&B Valli Pordenonesi I,Trevisanutto Donatello,ALMADIS,-,Località Almadis,17,33090,+39 0427 97515,+39 335 7170808,,donatello.trevisanutto@gmail.com,http://www.bedfriuli.it,2,6,1,"Jan 01 - Jan 08, Apr 01 - Sep 15, Dec 20 - Dec 31",Jan 01 - Jan 08,Apr 01 - Sep 15,Dec 20 - Dec 31,,,,,,46.2097297,12.898187
42320,PORDENONE,CAVASSO NUOVO,-,Al Vecchio Pero di Castellan Enrica Maria,,Enrica Maria,CAVASSO NUOVO,-,Via Meduna,1,33092,+39 0427 778452,+39 348 4469650,+39 427778452,mariogasparini2006@libero.it,,3,6,2,Jan 01 - Dec 31,Jan 01 - Dec 31,,,,,,,,46.1991551,12.779864
2493,PORDENONE,CAVASSO NUOVO,-,Casa Maraldi di Pellegrino Enrico,Casa Maraldi ,Pellegrino Enrico,-,ORGNESE,Via Spilimbergo,49,33092,,+39 335 270638  340 3125565,,annapellegrino@lycos.it,http://www.utenti.lycos.it/casamaraldi,3,6,2,Jun 01 - Oct 31,Jun 01 - Oct 31,,,,,,,,46.1884003,12.784255
49060,PORDENONE,CHIONS,Standard,La Cantina di Carraro Gianni,La Cantina ,Carraro Gianni,CHIONS,VILLOTTA,Via Villalta, 33/B,33083,+39 349 6278838,+39 349 6278838,,,,2,6,1,Jan 01 - Nov 30,Jan 01 - Nov 30,,,,,,,,45.853761,12.7414345
33380,PORDENONE,CHIONS,-,B&B Villa Sbrojavacca di Sbrojavacca Carlo,B&B Villa Sbrojavacca ,Sbrojavacca Carlo,VILLOTTA DI CHIONS,VILLOTTA,Via Dante,23,33083,,+39 346 0396661,,bbvilla@artinelbosco.org,http://www.artinelbosco.org\b&bvilla,3,6,3,Mar 21 - Dec 09,Mar 21 - Dec 09,,,,,,,,,
36961,PORDENONE,CORDENONS,Superior,Kip  di Manzato Rebecca,Kip  ,Manzato Rebecca,-,-,Via delle Acque,23,33084,+39 0434 41476,+39 333 2008771,+39 0434 41476,info@bbkip.com,http://www.bbkip.com,3,6,3,"Jan 01 - Jan 11, Jan 16 - Apr 12, Apr 17 - Jul 05, Jul 11 - Oct 11, Oct 16 - Dec 31",Jan 01 - Jan 11,Jan 16 - Apr 12,Apr 17 - Jul 05,Jul 11 - Oct 11,Oct 16 - Dec 31,,,,45.973523,12.6873887
64624,PORDENONE,ERTO E CASSO,Standard,B&B Rosina Angelo Paolo,,Angelo Paolo,-,-,Via Prada,6,33080,,+39 329 0506340,,autotrasportirosina@pec.it,,1,4,1,Jan 01 - Dec 31,Jan 01 - Dec 31,,,,,,,,,
61801,PORDENONE,FANNA,Standard,B&B Castellani di Mion Matteo,B&B Castellani ,Mion Matteo,-,-,Via Castellani,38,33092,,+39 333 1070799,,bb.castellani@gmail.com,http://www.bedbreakfast-castellani.it,2,4,1,Jan 01 - Dec 31,Jan 01 - Dec 31,,,,,,,,46.1840696,12.7441593
45920,PORDENONE,FIUME VENETO,Standard,B & B Ca  Jole di  Goz Silvia,,Goz Silvia,PRATURLONE,PRATURLONE,Via Fratte di Praturlone,56,33080,+39 0434 959871,+39 331 2998960,+39 0434 936234,bbjole@libero.it,http://www.bbjole.it,3,5,3,"Jan 01 - Jan 13, Mar 01 - Aug 11, Sep 01 - Dec 31",Jan 01 - Jan 13,Mar 01 - Aug 11,Sep 01 - Dec 31,,,,,,45.9041485,12.7282979
71840,PORDENONE,FONTANAFREDDA,Comfort,La Fonte di Tandura Alessandra,La Fonte ,Tandura Alessandra,NAVE,-,Via Liruti,108,33074,,+39 335 6637851,+39  320 6395676,,,,4,8,,,,,,,,,,,
62560,PORDENONE,FONTANAFREDDA,Comfort,Villa Bedin di De Lucchi Clara,,Lucchi Clara,-,-,Via Ledrania,10,33074,,+39 3333705289,,claradelucchi@gmail.com,,2,4,2,Jan 01 - Dec 31,Jan 01 - Dec 31,,,,,,,,,
69580,PORDENONE,FRISANCO,Standard,B&B In Fattoria di Simonetto Giulia,B&B In Fattoria ,Simonetto Giulia,FRISANCO,-,Borgo Polazza,,33080,+39 347 5286854,,,fattoriadimonte@gmail.com,,1,3,1,Jan 01 - Dec 31,Jan 01 - Dec 31,,,,,,,,46.2017553,12.7184982
37160,PORDENONE,FRISANCO,-,Villa Spluma di Pes Sabrina,Villa Spluma ,Pes Sabrina,-,POFFABRO,Via Roman,9,33080,+39 0427 78281,+39 338 8316910,,sabri.pes@tiscali.it,,2,5,1,"Apr 20 - May 02, May 19 - Jun 18, Jun 29 - Sep 17",Apr 20 - May 02,May 19 - Jun 18,Jun 29 - Sep 17,,,,,,46.217861,12.7089526
2486,PORDENONE,FRISANCO,-,Voul di Rosa Brustolo Gianna,,Brustolo Gianna,-,POFFABRO,Via Voul, 10/3,33080,,+39 349 5109420,,,,2,4,1,Jul 01 - Sep 30,Jul 01 - Sep 30,,,,,,,,46.2174499,12.7078738
2596,PORDENONE,MEDUNO,-,B&B Alla Stazione di Del Bianco Arigo,,Bianco Arigo,-,CIAGO,Via della Stazione,39,33092,+39 0427 86548,+39 333 3989016,+39 0427 86548,delbiancoarigo@gmail.com,,2,6,2,"Mar 17 - May 21, May 27 - Jul 19, Jul 24 - Oct 02, Oct 07 - Dec 26",Mar 17 - May 21,May 27 - Jul 19,Jul 24 - Oct 02,Oct 07 - Dec 26,,,,,46.2043724,12.8014309
41880,PORDENONE,MEDUNO,-,La Piccola Venezia di Meneghin Paola,La Piccola Venezia ,Meneghin Paola,-,-,Via Mizzeri,27,33093,,+39 347 3904459,,,http://www.friuli.net/paolameneghin,2,4,2,"Jan 15 - Mar 15, Apr 01 - May 31, Jun 15 - Aug 30, Sep 15 - Dec 31",Jan 15 - Mar 15,Apr 01 - May 31,Jun 15 - Aug 30,Sep 15 - Dec 31,,,,,46.2157785,12.7984358
69421,PORDENONE,PASIANO DI PORDENONE,Comfort,La Casa di Lucia di Parcianello Lucia,La Casa di Lucia ,Parcianello Lucia,-,-,Via Brozzette di Pozzo,9,33087,+39 335 303178,,,,,2,4,2,Jan 01 - Dec 31,Jan 01 - Dec 31,,,,,,,,45.8429979,12.6153003
2611,PORDENONE,PINZANO AL TAGLIAMENTO,Standard,Alice di Mingolo Ombretta,Alice ,Mingolo Ombretta,-,-,Via Circonvallazione,19,33094,+39 0432 950647,+39 333 3659335,,,,2,4,1,"Jan 01 - Jan 30, Mar 01 - Apr 30, Jun 01 - Sep 30, Dec 01 - Dec 31",Jan 01 - Jan 30,Mar 01 - Apr 30,Jun 01 - Sep 30,Dec 01 - Dec 31,,,,,46.1820946,12.9472413
38080,PORDENONE,PINZANO AL TAGLIAMENTO,-,B&B Le Muse di Pellegrini Ivo,B&B Le Muse ,Pellegrini Ivo,-,VALERIANO,via Roma,65,33094,+39 0432 950706,+39 392 0353980,,info@sinergypn.com,,2,6,2,Sep 22 - Oct 31,Sep 22 - Oct 31,,,,,,,,46.1729874,12.9262675
47860,PORDENONE,POLCENIGO,Standard,B&B Gorgazzo di Celant Vanda,B&B Gorgazzo ,Celant Vanda,-,GORGAZZO,Via Giuliana,32,33070,+39 0434 748959,+39 348 9195794,,bbgorgazzo@gmail.com,,2,4,1,Feb 01 - Dec 31,Feb 01 - Dec 31,,,,,,,,46.038305,12.4953664
35120,PORDENONE,POLCENIGO,-,Lucia di Ivan Lucia,Lucia ,Ivan Lucia,-,SAN GIOVANNI,Via Nuova,5,33070,,+39 339 7304898,,lucia.ivan23@gmail.com,,2,4,1,"Mar 01 - Jun 30, Jul 10 - Sep 15, Oct 01 - Dec 30",Mar 01 - Jun 30,Jul 10 - Sep 15,Oct 01 - Dec 30,,,,,,46.0277765,12.5140164
2541,PORDENONE,POLCENIGO,-,Palazzo Scolari di Salice Anna,Palazzo Scolari ,Salice Anna,-,-,Via Gorgazzo,2,33070,+39 0434 74100,+39 320 0726080,,palazzo.scolari@gmail.com,http://www.palazzoscolari.it,3,7,3,"Jan 01 - Jan 07, Mar 28 - Nov 04, Dec 20 - Dec 31",Jan 01 - Jan 07,Mar 28 - Nov 04,Dec 20 - Dec 31,,,,,,46.031881,12.5025083
63440,PORDENONE,PORCIA,Standard,Ca Del Cuore di Pasut Franca,Ca Del Cuore ,Pasut Franca,PORCIA,-,Via Muzzile,68,33080,,+39 3473737207,,,,2,4,1,Jan 01 - Dec 31,Jan 01 - Dec 31,,,,,,,,45.9557518,12.6225034
51400,PORDENONE,PORCIA,Standard,Il Tubia ,,,PORCIA,RORAIPICCOLO,Via Piave,2,33080,+39 0434 082243,+39 3471045306,,il.tubia.bb@gmail.com,http://www.iltubia.wordpress.com,2,4,1,Mar 01 - Nov 30,Mar 01 - Nov 30,,,,,,,,45.9509052,12.6341928
52860,PORDENONE,PORDENONE,Superior,Casa di Mary di Rossit Mary Anne,,Mary Anne,-,-,Via Adamello, 7/B,33170,,+39 347 5451283 / 338 4686658,,casadimary@gmail.com,http://www.casadimary.it,2,4,2,"Jan 01 - Feb 10, Mar 03 - Dec 31",Jan 01 - Feb 10,Mar 03 - Dec 31,,,,,,,45.9749098,12.6778578
64540,PORDENONE,PORDENONE,Standard,La Valada Bed & Breakfast,,,-,-,Via Nuova di Corva,87,33170,,+39 388 7888628,,info@lavalada.it,http://www.lavalada.it,2,4,1,"Jan 01 - Jan 03, Mar 03 - Dec 31",Jan 01 - Jan 03,Mar 03 - Dec 31,,,,,,,45.9452126,12.6640868
61760,PORDENONE,PORDENONE,Standard,Bbnaon di Klugmann Maria Elena,,Maria Elena,-,-,Via Brugnera,15,33170,+39 0434 578114,+39 334 3323156,,marilena.klugmann@gmail.com,http://www.bbnaon.com,2,3,2,Jan 01 - Dec 31,Jan 01 - Dec 31,,,,,,,,45.9283103,12.6411949
65480,PORDENONE,PORDENONE,Standard,Bed & Breakfast Non Fumatori - No Smoking Bed & Breakfast,,,PORDENONE,-,Via Beata Domicilla,17,33170,,+39 347 4080072,,santosh_sadeha@yahoo.it,,3,4,1,"Jan 10 - Jul 03, Jul 11 - Dec 30",Jan 10 - Jul 03,Jul 11 - Dec 30,,,,,,,45.9612229,12.668401
58960,PORDENONE,PORDENONE,Standard,Il Campanile di Gabbana Maria Lisa,,Maria Lisa,-,-,Via delle Campanelle,6,33170,"+39 3,93505E+11","+39 3,93505E+11","+39 3,91782E+11",info@ilcampanile.eu,http://www.ilcampanile.eu,2,4,2,Jan 01 - Dec 31,Jan 01 - Dec 31,,,,,,,,,
68500,PORDENONE,PORDENONE,Comfort,B & B Airis di Falomo Enrico,B & B Airis ,Falomo Enrico,PORDENONE,-,Corso Giuseppe Garibaldi,48,33170,,+39 333 6695585,,daria.moro22@gmail.com,,3,5,3,"Jan 07 - Jun 14, Aug 25 - Dec 21",Jan 07 - Jun 14,Aug 25 - Dec 21,,,,,,,45.9619639,12.6555798
48381,PORDENONE,PORDENONE,Comfort,Casa Ai Gelsomini di Tius Silvano,Casa Ai Gelsomini ,Tius Silvano,VICOLO,-,Via Molinari,14,33170,,+39 347 3044566,,lovisan@libero.it,http://casaaigelsomini.it,1,2,1,Feb 15 - Nov 14,Feb 15 - Nov 14,,,,,,,,45.9640763,12.6600293
49380,PORDENONE,PORDENONE,Comfort,Donna Prassede di Zanatta Prassede,Donna Prassede ,Zanatta Prassede,-,-,Via Genova Cavalleria,19,,+39 0434  362150,+39 328  1720088,,prassede27@libero.it,,2,3,1,Feb 15 - Nov 30,Feb 15 - Nov 30,,,,,,,,,
48360,PORDENONE,PORDENONE,Comfort,Giardino In Citta  di da Re Enrichetta,,Re Enrichetta,-,-,Via Montereale,45,33170,+39 0434 366288,+39 347 9142498,+39 0434 366288,info@giardinoincitta.it,http://www.giardinoincitta.it,3,6,3,"Jan 17 - Aug 12, Aug 27 - Dec 31",Jan 17 - Aug 12,Aug 27 - Dec 31,,,,,,,45.9801488,12.6458405
52180,PORDENONE,PORDENONE,Comfort,Girasole di Rosset Tiziana,Girasole ,Rosset Tiziana,-,-,Via della Resistenza,10,33170,,+39 349 2192209,+39 0434 361923,bbpordenone@gmail.com,,3,7,2,Mar 01 - Dec 31,Mar 01 - Dec 31,,,,,,,,45.9687653,12.6470318
50302,PORDENONE,PORDENONE,Comfort,La Gila di Guarini Roberto,La Gila ,Guarini Roberto,-,-,Via Montereale,22,33170,,+39 329 9264965,,info@bblagila.it,http://www.bblagila.it,3,6,2,"Jan 01 - Jan 09, Feb 11 - Jul 31, Aug 31 - Nov 14, Dec 16 - Dec 31",Jan 01 - Jan 09,Feb 11 - Jul 31,Aug 31 - Nov 14,Dec 16 - Dec 31,,,,,45.9801488,12.6458405
34740,PORDENONE,PORDENONE,-,Camera Doppia di Caiazzo Giusy,Camera Doppia ,Caiazzo Giusy,VALLENONCELLO,-,Via Montebelluna,16,33170,,+39 392 9800975,,info@cameradoppia.it,,3,6,3,"Jan 08 - Aug 05, Sep 05 - Dec 23",Jan 08 - Aug 05,Sep 05 - Dec 23,,,,,,,45.9295648,12.6437607
44481,PORDENONE,PORDENONE,-,Civico 22 di  Pauletto Natalia,,Pauletto Natalia,-,-,Via Eraclea,17,33170,,+39 335 6791330,,info@bbcivico22.it,http://www.bbcivico22.it,3,6,3,"Feb 01 - Jul 31, Sep 01 - Dec 31",Feb 01 - Jul 31,Sep 01 - Dec 31,,,,,,,45.9648599,12.6603852
40584,PORDENONE,PORDENONE,-,E.B. Camere In Villa di Martin Bruno,E.B. Camere In Villa ,Martin Bruno,-,-,Via San Quirino,60,33170,+39 0434 364305,,,bedandbreakfast-pn@hotmail.it,,3,6,2,"Jan 01 - Sep 30, Nov 01 - Dec 31",Jan 01 - Sep 30,Nov 01 - Dec 31,,,,,,,45.9673237,12.6579358
40582,PORDENONE,PORDENONE,-,Il Vicolo Camere In Villa di Martin Matteo,Il Vicolo Camere In Villa ,Martin Matteo,-,-,Via Roggiuzzole,5,33170,,+39 345 6089089,,bedandbreakfast-pn@hotmail.it,,1,2,1,"Jan 01 - Sep 30, Nov 01 - Dec 31",Jan 01 - Sep 30,Nov 01 - Dec 31,,,,,,,45.9658318,12.6563683
40583,PORDENONE,PORDENONE,-,Roggiuzzole 5 Camere In Villa di Martin Gian Maria,,Gian Maria,-,-,Via Roggiuzzole,5,33170,,+39 348 3001827,,bedandbreakfast-pn@hotmail.it,,2,4,1,"Jan 01 - Sep 30, Nov 01 - Dec 31",Jan 01 - Sep 30,Nov 01 - Dec 31,,,,,,,45.9658318,12.6563683
56800,PORDENONE,SACILE,Superior,Casa Carrer di Carrer Gilberto,Casa Carrer ,Carrer Gilberto,-,SAN GIOVANNI DI LIVENZA,Strada Valle Brugnera,7,,+39 0434 767927,,,info@casacarrer.it,,4,8,4,"Feb 04 - Feb 17, Mar 11 - Nov 07, Dec 07 - Dec 31",Feb 04 - Feb 17,Mar 11 - Nov 07,Dec 07 - Dec 31,,,,,,45.9162158,12.524379
35280,PORDENONE,SACILE,Standard,Ca  Livenza di Vicenzot Carla,Ca  Livenza ,Vicenzot Carla,-,-,Via Ronche,72,33077,+39 0434 734853,+39 338 5032213  333 3127116,,calivenza@libero.it,http://www.calivenza.it,3,6,3,"Jan 01 - Jan 03, Jan 11 - Mar 14, Mar 19 - Oct 03, Oct 08 - Dec 31",Jan 01 - Jan 03,Jan 11 - Mar 14,Mar 19 - Oct 03,Oct 08 - Dec 31,,,,,45.9654587,12.4901516
64520,PORDENONE,SAN GIORGIO DELLA RICHINVELDA,Superior,Antico Borgo Leone,,Borgo Leone,-,DOMANINS,Via Borgo Leone, 35/1,,+39 3404963701,+39 3404963701,+39 0427 94663,dbgiovanni@hotmail.it,,2,4,2,"Mar 01 - Sep 21, Oct 21 - Dec 21",Mar 01 - Sep 21,Oct 21 - Dec 21,,,,,,,46.0199094,12.8271188
69620,PORDENONE,SAN QUIRINO,Superior,Ai Templari di Rosset Ivana,Ai Templari ,Rosset Ivana,-,-,Via dei Templari,16,33080,+39 0434 366464,+39 347 5830514,,info@aitemplari.com,,1,2,1,Jan 01 - Dec 31,Jan 01 - Dec 31,,,,,,,,45.997621,12.6566158
52380,PORDENONE,SAN QUIRINO,Superior,Podere 35 di Arca Graziella,Podere 35 ,Arca Graziella,VILLOTTE,-,Via Pola,2,33080,+39 0434 919470,+39 334 7352045,,regra1@virgilio.it,,1,2,1,Feb 12 - Nov 09,Feb 12 - Nov 09,,,,,,,,46.0265492,12.6441021
66680,PORDENONE,SAN VITO AL TAGLIAMENTO,Comfort,Chiaro di Luna di Trevisan Alessandro,Chiaro di Luna ,Trevisan Alessandro,-,-,Località Santa Sabina,10,33078,,+39 338 8531926  334 2615271,,info.bebchiarodiluna@gmail.com,,3,4,3,"Jan 01 - Jun 30, Sep 01 - Dec 31",Jan 01 - Jun 30,Sep 01 - Dec 31,,,,,,,45.8941312,12.8857506
66841,PORDENONE,SEQUALS,Standard,Bed And Breakfast da Paolo di Zara Paolo,Bed And Breakfast da Paolo ,Zara Paolo,-,-,Via del Capitel,4,33090,+39 042 793587,,,sassodoto@pec.coldiretti.it,,2,4,2,Jan 01 - Dec 31,Jan 01 - Dec 31,,,,,,,,46.1774149,12.8165757
2467,PORDENONE,SEQUALS,-,Casarin Lucia,,,-,-,Via Cristofori,10,33090,+39 042793795,,,luciaelleci@yahoo.it,,2,5,1,"Jan 01 - Jan 31, Mar 01 - Sep 30, Dec 01 - Dec 31",Jan 01 - Jan 31,Mar 01 - Sep 30,Dec 01 - Dec 31,,,,,,,
59040,PORDENONE,SESTO AL REGHENA,Standard,Allaolla di Nonis Misha,Allaolla ,Nonis Misha,-,BAGNAROLA,Via Monte Santo, 40B,33079,,+39 0039 3289778321,,info@allaolla.it,http://www.allaolla.it,1,6,2,Jan 08 - Dec 06,Jan 08 - Dec 06,,,,,,,,45.866808,12.8601706
33022,PORDENONE,SESTO AL REGHENA,-,Vignal di Scacco Roberta,Vignal ,Scacco Roberta,-,Bagnarola,Via Mielma,51,33078,,+39 328 4067691,,info@vignal.it,http://www.vignal.it,3,6,3,"Jan 04 - Feb 09, Feb 14 - Jul 31, Aug 25 - Dec 22",Jan 04 - Feb 09,Feb 14 - Jul 31,Aug 25 - Dec 22,,,,,,45.8665097,12.8423017
63061,PORDENONE,SPILIMBERGO,Superior,Cuore di Lavanda di Micheli Stefania,Cuore di Lavanda ,Micheli Stefania,-,GAIO,Via Damiano Chiesa,6,33097,,+39 392 2115603,,cuoredilavanda@gmail.com,http://www.cuoredilavanda.it,3,6,3,"Jan 01 - Jan 03, Feb 24 - Mar 06, Mar 24 - Dec 31",Jan 01 - Jan 03,Feb 24 - Mar 06,Mar 24 - Dec 31,,,,,,46.1425815,12.90569
40621,PORDENONE,SPILIMBERGO,Superior,Relais La Torre di De Marchi Patrizia,,Marchi Patrizia,-,-,Corso Roma,28,33097,,+39 339 2697717,,info@relaislatorre.com,http://www.relaislatorre.com,3,8,3,"Jan 01 - Jan 09, Jan 20 - Jan 24, Jan 30 - Feb 14, Feb 22 - Mar 02, Mar 12 - Mar 23, Mar 30 - Sep 19, Sep 28 - Oct 15",Jan 01 - Jan 09,Jan 20 - Jan 24,Jan 30 - Feb 14,Feb 22 - Mar 02,Mar 12 - Mar 23,Mar 30 - Sep 19,Sep 28 - Oct 15,Oct 26 - Nov 05,46.1108071,12.9036259
45120,PORDENONE,SPILIMBERGO,-,B&B  Borgo Dala Mora di Chivilo  Damiano,,,SPILIMBERGO,TAURIANO,Vicolo Stretto,1,33097,+39 0427 950970,+39 339 1449410,,borgomora@borgodalamora.it,http://www.borgodalamora.it,1,3,1,Apr 01 - Dec 31,Apr 01 - Dec 31,,,,,,,,46.1062579,12.8635246
2397,PORDENONE,TRAVESIO,-,I Girasoli di Ballarin Tamara,I Girasoli ,Ballarin Tamara,-,MOLEVANA,Via Garibaldi,22,33090,+39 0427 90493,+39 334 3180668,+39 0427 90493,info@igirasoli.org,http://www.igirasoli.org,3,8,3,"Jan 01 - Jan 07, Mar 23 - Dec 31",Jan 01 - Jan 07,Mar 23 - Dec 31,,,,,,,,
66881,PORDENONE,VALVASONE ARZENE,Superior,B & B Maiaroff di Truant Adriano,B & B Maiaroff ,Truant Adriano,VALVASONE,-,Via Maiaroff,21,33098,+39 0434 898844,+39 337 545771,,adrianotruant@gmail.com,,2,6,2,Feb 01 - Sep 30,Feb 01 - Sep 30,,,,,,,,45.9941104,12.8522453
66880,PORDENONE,VALVASONE ARZENE,Superior,Casa Menini B&B di Menini Umberto,Casa Menini B&B ,Menini Umberto,VALVASONE,-,Via Cesare Battisti,4,33098,+39 0434 89021,+39 340 5993136,+39 0434 899970,info@casamenini.it,http://www.casamenini.it,3,8,3,Apr 01 - Dec 31,Apr 01 - Dec 31,,,,,,,,,
50361,PORDENONE,VALVASONE ARZENE,Superior,Giardino In Corte di Stoinoff Sofia,Giardino In Corte ,Stoinoff Sofia,-,-,Via Bando,2,33098,,+39 3385899420,,bbgiardinoincorte@gmail.com,http://www.bbgiardinoincorte.com,4,7,3,Apr 21 - Sep 30,Apr 21 - Sep 30,,,,,,,,45.9998871,12.8616255
35920,PORDENONE,VALVASONE ARZENE,Superior,La Contrada di Paron Aldo,La Contrada ,Paron Aldo,-,-,Vicolo monte Santo,1,33098,+39 0434 89142,+39 339 3763747,,aldovalv@alice.it,,3,6,3,Mar 01 - Nov 30,Mar 01 - Nov 30,,,,,,,,45.996442,12.8615402
2479,PORDENONE,VALVASONE ARZENE,Comfort,Rovere Dalla Riva di Rovere Ivano,Rovere Dalla Riva ,Rovere Ivano,-,-,Via Alpi,30,33090,+39 0434 899401,+39 338 8003666,+39 0434 899401,,,3,6,3,"Jan 01 - Jan 06, Apr 01 - Dec 31",Jan 01 - Jan 06,Apr 01 - Dec 31,,,,,,,46.0009198,12.8471355
37240,PORDENONE,VITO D ASIO,-,Dirce di Danieletto Elisabetta,Dirce ,Danieletto Elisabetta,-,PIELUNGO,Via 4 novembre,39,33090,,+39 338 3945892,,elisabetta.danieletto@poste.it,,2,4,1,Jun 01 - Sep 30,Jun 01 - Sep 30,,,,,,,,,
35460,PORDENONE,VIVARO,-,All Alba Dei Magredi di Trevisanutto Gelindo,All Alba Dei Magredi ,Trevisanutto Gelindo,-,BASALDELLA,Via Spilimbergo,2,33099,,+39 335 7170805,+39 0427 97515,gelindo.gelindo@libero.it,,2,6,1,"Jan 01 - Jan 30, Mar 01 - Apr 30, Jun 01 - Sep 30, Oct 01 - Dec 31",Jan 01 - Jan 30,Mar 01 - Apr 30,Jun 01 - Sep 30,Oct 01 - Dec 31,,,,,46.0861572,12.7901825
41360,PORDENONE,VIVARO,-,Bepu Pegna di Trevisanutto Chiara,Bepu Pegna ,Trevisanutto Chiara,-,-,Via Vittorio Emanuele,64,33099,,+39 335 7170807,,chiara.trevisanutto@gmail.com,,1,2,1,"Jan 01 - Jan 07, Apr 01 - Apr 30, Jul 01 - Aug 30, Sep 01 - Sep 30, Oct 01 - Nov 09, Dec 15 - Dec 31",Jan 01 - Jan 07,Apr 01 - Apr 30,Jul 01 - Aug 30,Sep 01 - Sep 30,Oct 01 - Nov 09,Dec 15 - Dec 31,,,46.0740621,12.779446764749
67483,PORDENONE,ZOPPOLA,Standard,B&B Il Vecchio Glicine,,Vecchio Glicine,-,-,Via Saciletti,17,33080,,+39 338 2293551,,orianafavretti@alice.it,,2,5,2,Jan 01 - Dec 31,Jan 01 - Dec 31,,,,,,,,45.9676469,12.7645761
42902,TRIESTE,DUINO-AURISINA,Superior,Castello di Lanz Veronique,Castello ,Lanz Veronique,-,DUINO,Via Duino, 35/A,34011,+39 040 208120,,+39 040 2071398,visite@castellodiduino.it,,2,5,2,Mar 01 - Nov 24,Mar 01 - Nov 24,,,,,,,,45.7767586,13.6059489
50120,TRIESTE,DUINO-AURISINA,Superior,Duino Stella Maris di Valenti Alba,Duino Stella Maris ,Valenti Alba,-,DUINO,Via Duino, 78/D,34011,,+39 347 2311979,,MIKIsub@gmail.com,http://www.duinostellamaris.it,3,5,3,"Jan 01 - Jan 10, Mar 05 - Nov 30, Dec 05 - Dec 31",Jan 01 - Jan 10,Mar 05 - Nov 30,Dec 05 - Dec 31,,,,,,45.7767586,13.6059489
50020,TRIESTE,DUINO-AURISINA,Standard,Da Rosy di Mrvcic Nicholas,Da Rosy ,Mrvcic Nicholas,-,SISTIANA,Via Sistiana, 59/L,34011,+39 333 3458435,+39 333 3458435,+39 040 299176,darosybb@gmail.com,http://www.darosy.it,4,8,2,"Jan 01 - Jan 13, Jan 18 - Dec 31",Jan 01 - Jan 13,Jan 18 - Dec 31,,,,,,,45.7726431,13.6466727
47340,TRIESTE,DUINO-AURISINA,Standard,Le Falesie di Bosio Chiara,Le Falesie ,Bosio Chiara,-,SISTIANA,Via Sistiana, 29/A,34011,,+39 380 7023047,,bb@lefalesie.it,http://www.lefalesie.it,2,4,1,Jan 01 - Dec 31,Jan 01 - Dec 31,,,,,,,,45.7726431,13.6466727
41900,TRIESTE,DUINO-AURISINA,Standard,Oltremare di Jerman Walter,Oltremare ,Jerman Walter,-,SISTIANA,Via Sistiana, 34/E,34011,,+39 338 9378246,,info@oltremaresistiana.it,http://www.oltremaresistiana.it,3,6,2,"Jan 01 - Nov 01, Dec 01 - Dec 31",Jan 01 - Nov 01,Dec 01 - Dec 31,,,,,,,45.7726431,13.6466727
40820,TRIESTE,DUINO-AURISINA,Standard,Pane E Tulipani di Tavcar Goran,Pane E Tulipani ,Tavcar Goran,-,DUINO,Via Duino, 75/Z,34011,,+39 329 7213197,,pantulipani@gmail.com,http://www.pantulipani.splinder.com,3,6,2,"Mar 01 - Mar 30, May 01 - May 30, Jun 01 - Jun 30, Jul 01 - Jul 31, Aug 01 - Aug 30, Sep 01 - Oct 30",Mar 01 - Mar 30,May 01 - May 30,Jun 01 - Jun 30,Jul 01 - Jul 31,Aug 01 - Aug 30,Sep 01 - Oct 30,,,45.7767586,13.6059489
52460,TRIESTE,DUINO-AURISINA,Standard,Porto Del Bivio di Marchesich Federica,Porto Del Bivio ,Marchesich Federica,-,DUINO,Via Duino, 75/V,34011,,+39 339 2864170,,FEDERICA.MARCHESICH65@gmail.com,,2,4,1,Mar 21 - Dec 31,Mar 21 - Dec 31,,,,,,,,45.7767586,13.6059489
40821,TRIESTE,DUINO-AURISINA,Standard,Strupetou di Bernasconi Paola,Strupetou ,Bernasconi Paola,-,MALCHINA,Via Chialina,16,34011,+39 040 2907126,+39 347 7950723,,info@strupetou.it,http://www.strupetou.it,2,6,1,Mar 27 - Nov 03,Mar 27 - Nov 03,,,,,,,,,
63480,TRIESTE,MUGGIA,Standard,B&B Alle Violette di  Felice Maura,,Felice Maura,-,-,Località Pontario,31,34015,,+39 333 1652009,,curetanona@gmail.com,,2,5,1,"Apr 01 - Jul 11, Jul 25 - Dec 01",Apr 01 - Jul 11,Jul 25 - Dec 01,,,,,,,,
59800,TRIESTE,MUGGIA,Standard,B&B Silvia di Leuz Silvia,B&B Silvia ,Leuz Silvia,-,-,Via San Bartolomeo, 22/F,34015,,+39 335 1247805,,silvialeuz@gmail.com,,4,8,2,"Jan 01 - Jan 14, Jan 23 - Oct 24, Nov 02 - Dec 31",Jan 01 - Jan 14,Jan 23 - Oct 24,Nov 02 - Dec 31,,,,,,,
63160,TRIESTE,MUGGIA,Standard,Uphill di Milic Olivera,Uphill ,Milic Olivera,-,-,Salita Muggia Vecchia,4,34015,,+39 329 0634922,,milic.olivera@gmail.com,,3,7,1,Mar 01 - Oct 31,Mar 01 - Oct 31,,,,,,,,45.5996484,13.7534357
43882,TRIESTE,MUGGIA,-,B&B Le Vele di Zuppet Serafino,B&B Le Vele ,Zuppet Serafino,-,-,Lungomare Venezia,7,34015,+39 040 330747,+39 349 3999242,,,http://www.inognidove.com,2,5,2,Apr 15 - Dec 15,Apr 15 - Dec 15,,,,,,,,45.6061827,13.7636421
64440,TRIESTE,SAN DORLIGO DELLA VALLE - DOLINA,Superior,B&B Sotto Il Volto di Zannier Ruggero,B&B Sotto Il Volto ,Zannier Ruggero,BAGNOLI DELLA ROSANDRA,-,Strada della Rosandra,114,34018,+39 3389077539,+39 3480060824,,alexiapillepich@gmail.com,,1,4,1,Feb 01 - Oct 30,Feb 01 - Oct 30,,,,,,,,45.6186714,13.864808
58900,TRIESTE,SAN DORLIGO DELLA VALLE - DOLINA,Superior,B&B Torrente Rosandra di Pozzer Andrea,B&B Torrente Rosandra ,Pozzer Andrea,BAGNOLI SUPERIORE,-,Vicolo Superiore,152,34018,+39 040 8327132,+39 3661460868,,andreapozzer@hotmail.com,,2,5,2,"Jan 01 - Jan 11, Feb 14 - May 18, May 30 - Dec 31",Jan 01 - Jan 11,Feb 14 - May 18,May 30 - Dec 31,,,,,,,
55621,TRIESTE,SAN DORLIGO DELLA VALLE - DOLINA,Standard,Rosandra di  Codaglio Michele,,Codaglio Michele,BAGNOLI DELLA ROSANDRA,-,Strada della Rosandra,135,34018,+39 040 281954,+39 328 1749827,,BBROSANDRA@GMAIL.COM,,1,3,1,"Jan 01 - Jan 15, Jan 30 - Dec 31",Jan 01 - Jan 15,Jan 30 - Dec 31,,,,,,,45.6186714,13.864808
64023,TRIESTE,SAN DORLIGO DELLA VALLE - DOLINA,Comfort,B&B Mikeze E Jakeze di  Cavalli Cinzia,,Cavalli Cinzia,-,-,Via Franconia,388,34018,,+39 3274582281,,bbmikezejakeze@hotmail.com,http://www.bbmikezejakeze.it,2,5,2,Mar 01 - Dec 31,Mar 01 - Dec 31,,,,,,,,,
69060,TRIESTE,TRIESTE,Superior,Addicted To Paradise di Elena Allegranti,Addicted To Paradise ,Elena Allegranti,TRIESTE,-,Via Cellini,2,34132,+39 339 6426799,+39 339 6426799,,eleenuccia@hotmail.it,,1,2,1,Nov 23 - Dec 31,Nov 23 - Dec 31,,,,,,,,,
56760,TRIESTE,TRIESTE,Superior,Al Ciclamino  di Maria Luisa Viezzoli,,Luisa Viezzoli,TRIESTE,-,Via Costalunga,69,34149,+39 040 814668,+39 333 9491595,,luisaviezzoli@yahoo.it,,1,3,1,"Jan 11 - Jan 29, Feb 08 - Dec 31",Jan 11 - Jan 29,Feb 08 - Dec 31,,,,,,,45.6308855,13.7977219
49080,TRIESTE,TRIESTE,Superior,Al Tramonto di Giambirtone Rosalba,Al Tramonto ,Giambirtone Rosalba,-,-,Salita di Contovello, 69/2,,+39 040 412086,+39 334 3672222,,info@triestealtramonto.it,http://WWW.TRIESTEALTRAMONTO.IT,2,5,2,"Mar 15 - Jun 11, Jun 21 - Nov 05, Dec 07 - Dec 31",Mar 15 - Jun 11,Jun 21 - Nov 05,Dec 07 - Dec 31,,,,,,45.6968282,13.7395284
47742,TRIESTE,TRIESTE,Superior,All Ancora Blu  di Olivo Dorina,All Ancora Blu  ,Olivo Dorina,-,-,Via Commerciale, 148/5,,,+39 33 16319594,+39 040 43136,gavazzisa@tin.it,http://www.bebancorablu.it,1,3,1,Sep 01 - Dec 31,Sep 01 - Dec 31,,,,,,,,45.664174,13.7805949
71220,TRIESTE,TRIESTE,Superior,Alla Casa Sconta di  Alberto Liviani,,Alberto Liviani,-,-,Via dei Moreri,86,34135,+39 334 3327148,+39 334 3327148,,info@casasconta.it,http://WWW.CASASCONTA.IT,4,8,4,Jun 15 - Dec 31,Jun 15 - Dec 31,,,,,,,,45.6694602,13.775085
52240,TRIESTE,TRIESTE,Superior,Alla Casetta di Pietrobelli Elisabetta,Alla Casetta ,Pietrobelli Elisabetta,TREBICIANO,-,Località Cianal,217,34149,+39 040 214651,+39 333 2942744,,info@allacasetta.it,http://www.allacasetta.it,2,7,2,"Jan 01 - Oct 15, Dec 01 - Dec 31",Jan 01 - Oct 15,Dec 01 - Dec 31,,,,,,,,
51721,TRIESTE,TRIESTE,Superior,Amelie di Bufo Leonardo,Amelie ,Bufo Leonardo,-,-,Via San Francesco,23,34133,,+39 345 2973930,,info@amelietrieste.it,http://www.amelietrieste.it,3,7,3,"Jan 01 - Jan 03, Jan 11 - Jan 31, Feb 08 - Dec 31",Jan 01 - Jan 03,Jan 11 - Jan 31,Feb 08 - Dec 31,,,,,,,
51720,TRIESTE,TRIESTE,Superior,Atelier Lidia Polla di Bilucaglia Laura,Atelier Lidia Polla ,Bilucaglia Laura,-,-,Via del Coroneo,1,34100,,+39 334 7150231,+39 40633650,atelierlidiapolla@gmail.com,http://www.atelierlidiapolla.com,2,7,2,"Jan 01 - Jan 17, Jan 25 - Feb 07, Feb 15 - Dec 31",Jan 01 - Jan 17,Jan 25 - Feb 07,Feb 15 - Dec 31,,,,,,45.6565988,13.783054
70721,TRIESTE,TRIESTE,Superior,Bellavista di Conconello di Barbara Ferluga,Bellavista di Conconello ,Barbara Ferluga,CONCONELLO,-,Via Bellavista, 25/2,34151,,+39 334 5782965,,barbara.ferluga@gmail.com,,2,5,2,"Apr 15 - Nov 10, Dec 01 - Dec 31",Apr 15 - Nov 10,Dec 01 - Dec 31,,,,,,,-33.4309888,-70.6485434
54843,TRIESTE,TRIESTE,Superior,Casa Dodic di Lorenzi Viviana,Casa Dodic ,Lorenzi Viviana,-,-,Strada per Basovizza,20,34128,+39 040 567489,+39 331 1272029,,casadodic@yahoo.it,,3,7,3,"Jan 01 - Jan 17, Jan 25 - Oct 16, Dec 30 - Dec 31",Jan 01 - Jan 17,Jan 25 - Oct 16,Dec 30 - Dec 31,,,,,,45.6368178,13.8379242
62076,TRIESTE,TRIESTE,Superior,Chip And Chop di Marussi Flavia,Chip And Chop ,Marussi Flavia,TRIESTE,-,Via del Botro,19,34100,+39 040 814331,+39 329 6727241,+39 040 814331,chipandchopbnb@gmail.com,,1,4,1,"Jan 01 - Mar 30, Apr 09 - Aug 30, Sep 10 - Nov 03",Jan 01 - Mar 30,Apr 09 - Aug 30,Sep 10 - Nov 03,,,,,,45.6327137,13.823006
37960,TRIESTE,TRIESTE,Superior,Crispi di Bianco Iolanda,Crispi ,Bianco Iolanda,-,-,Via Crisaze,43,34100,+39 040 3721128,+39 346 9665499,+39 040 3721128,bbcrispitrieste@live.it,,2,7,2,"Jan 01 - Jan 15, Feb 01 - May 15, May 25 - Dec 31",Jan 01 - Jan 15,Feb 01 - May 15,May 25 - Dec 31,,,,,,,
60220,TRIESTE,TRIESTE,Superior,Elisabetta di Elisabetta Acampora,Elisabetta ,Elisabetta Acampora,TRIESTE,-,Via Vettor Carpaccio,8,34143,+39 040 306226,+39 347 1886574,,bettinamail@yahoo.it,,1,2,1,"Jan 01 - Feb 13, Mar 02 - Dec 31",Jan 01 - Feb 13,Mar 02 - Dec 31,,,,,,,45.643932,13.769407
67683,TRIESTE,TRIESTE,Superior,Golden Rooms,,,TRIESTE,-,Viale Miramare,27,34135,+39 040 411620,+39 380 3121665,,goldenrooms.ts@gmail.com,https://www.facebook.com/goldenroomsts/,3,8,3,"Jul 01 - Nov 28, Dec 05 - Dec 31",Jul 01 - Nov 28,Dec 05 - Dec 31,,,,,,,45.6751048,13.7557547
56920,TRIESTE,TRIESTE,Superior,House 5 di Valentina Ruspio,House 5 ,Valentina Ruspio,TRIESTE,-,Via Giulia,5,34126,+39 040 0644872,+39 3429024030,,info@house5.it,http://www.house5.it,4,8,4,"Jan 01 - Jan 22, Jan 25 - Feb 26, Mar 01 - Dec 24, Dec 26 - Dec 31",Jan 01 - Jan 22,Jan 25 - Feb 26,Mar 01 - Dec 24,Dec 26 - Dec 31,,,,,45.6539867,13.7868766
44500,TRIESTE,TRIESTE,Superior,La Casa Dei Bassotti di Rondini Marina,La Casa Dei Bassotti ,Rondini Marina,TRIESTE,-,Via del Lazzaretto Vecchio,12,,+39 040 3220618,+39 340 5706930,,marina.peppino@hotmail.it,,1,2,1,"Mar 01 - Nov 02, Dec 07 - Dec 31",Mar 01 - Nov 02,Dec 07 - Dec 31,,,,,,,45.6456461,13.7607859
63800,TRIESTE,TRIESTE,Superior,La Cascina Nel Frutteto di  Ursula Nussdorfer,,Ursula Nussdorfer,TRIESTE,-,Via Giorgio Nicolich,4,34149,+39 333 2072876,+39 333 2072876,,unussdorfer@gmail.com,,2,4,2,"Jan 01 - Feb 04, Feb 07 - Nov 06, Nov 16 - Dec 31",Jan 01 - Feb 04,Feb 07 - Nov 06,Nov 16 - Dec 31,,,,,,45.6346561,13.8206123
42541,TRIESTE,TRIESTE,Superior,La Culla di Trieste di Giannotta Alida,La Culla di Trieste ,Giannotta Alida,-,-,Via Carlo De Marchesetti, 12/8,34100,+39 040 910579,+39 392 9649688,,daisy.2008@libero.it,http://www.laculladitrieste.it,3,6,3,"Jan 07 - Jul 01, Jul 15 - Dec 30",Jan 07 - Jul 01,Jul 15 - Dec 30,,,,,,,45.6368058,13.8308108
49404,TRIESTE,TRIESTE,Superior,La Nuvola Bianca di Zotti Monica,La Nuvola Bianca ,Zotti Monica,CONCONELLO,-,Via dei Bidischini, 2/3,34100,+39 348 3064809,+39 348 3064809,+39 040 574335,lanuvola@istrieste.it,http://www.lanuvolabianca.it,1,5,1,"Jan 01 - Jun 15, Jul 01 - Nov 10, Dec 01 - Dec 31",Jan 01 - Jun 15,Jul 01 - Nov 10,Dec 01 - Dec 31,,,,,,45.6711224,13.7933121
71760,TRIESTE,TRIESTE,Superior,La Stanza Mansarda Delle Meraviglie di Susanna Salvador,La Stanza Mansarda Delle Meraviglie ,Susanna Salvador,-,-,Via Tolmezzo,5,34100,+39 040 417838,+39 331 8975704,,susannasalvador2016@gmail.com,,1,4,1,May 16 - Dec 11,May 16 - Dec 11,,,,,,,,45.6674852,13.7637675
66980,TRIESTE,TRIESTE,Superior,Le Cupole di Trieste di Sarah Rosani,Le Cupole di Trieste ,Sarah Rosani,-,-,Piazza Sant'Antonio,6,34100,+39 328 9040130,+39 328 9040130,,sarah.rosani@gmail.com,,3,8,3,May 16 - Dec 31,May 16 - Dec 31,,,,,,,,,
71121,TRIESTE,TRIESTE,Superior,Magnolia di Renato Ressa,Magnolia ,Renato Ressa,TRIESTE,-,Viale Miramare, 229/1,34136,+39 040 44718,+39 335 6034551,,renato.ressa@libero.it,,2,3,2,May 02 - Dec 31,May 02 - Dec 31,,,,,,,,45.6751048,13.7557547
69643,TRIESTE,TRIESTE,Superior,Orme di Bora di  Daniela Frisori,,Daniela Frisori,-,-,Via Ulderico Moro, 4/1,,+39 040 421301,+39 334 8402942,,info@ormedibora.com,http://www.ormedibora.com,1,3,1,Jan 01 - Dec 31,Jan 01 - Dec 31,,,,,,,,45.6833023,13.7593769
69980,TRIESTE,TRIESTE,Superior,Pepeu di Andrea Milio,Pepeu ,Andrea Milio,TRIESTE,-,Via della Madonna del Mare,2,34124,+39 040 4702814,+39 348 7191990,,andreamilio@yahoo.it,,1,2,1,"Mar 04 - May 12, May 22 - Jun 01, Jun 19 - Sep 15, Oct 02 - Dec 31",Mar 04 - May 12,May 22 - Jun 01,Jun 19 - Sep 15,Oct 02 - Dec 31,,,,,45.6467212,13.7682575
39360,TRIESTE,TRIESTE,Superior,Petra di Minca Giorgio,Petra ,Minca Giorgio,Trieste,-,Via Mazzini,44,34122,,+39 333 5753017,,bbpetra.trieste@yahoo.it,http://www.bedandbreakfastpetra.com,3,5,3,"Jan 01 - Jan 06, Jan 22 - Feb 14, Mar 05 - Mar 28, Apr 10 - Oct 09, Oct 29 - Nov 20, Dec 01 - Dec 31",Jan 01 - Jan 06,Jan 22 - Feb 14,Mar 05 - Mar 28,Apr 10 - Oct 09,Oct 29 - Nov 20,Dec 01 - Dec 31,,,45.650928,13.7727148
52921,TRIESTE,TRIESTE,Superior,Roses & Berries di Van Der Salm Cecile,,Salm Cecile,TREBICIANO,-,Località Cianal,38,34100,,+39 346 0389838,,cecilevandersalm@gmail.com,http://www.randbtrieste.wordpress.com,1,2,1,"Jan 01 - Feb 23, Feb 28 - Nov 20, Nov 28 - Dec 31",Jan 01 - Feb 23,Feb 28 - Nov 20,Nov 28 - Dec 31,,,,,,,
55280,TRIESTE,TRIESTE,Superior,Sotto Il Faro di  Stjepan Babic,,Stjepan Babic,BARCOLA,-,Via del Boveto,18,34136,+39 040 412586,+39 331 8144979,,sottoilfaro@gmail.com,http://www.sottoilfaro.com,3,6,3,"Jan 01 - Feb 24, Mar 17 - Nov 06, Nov 18 - Dec 31",Jan 01 - Feb 24,Mar 17 - Nov 06,Nov 18 - Dec 31,,,,,,45.6779485,13.7546381
59320,TRIESTE,TRIESTE,Superior,Suite 45 di Veronese Manilla,Suite 45 ,Veronese Manilla,TRIESTE,-,Via Commerciale,45,34135,+39 040 415282,+39 347 7892455,,suite45trieste@libero.it,,1,2,1,"Jan 01 - Jan 06, Jan 15 - Nov 06, Nov 18 - Dec 31",Jan 01 - Jan 06,Jan 15 - Nov 06,Nov 18 - Dec 31,,,,,,45.664174,13.7805949
46180,TRIESTE,TRIESTE,Superior,Tre Rose di Battelini Aisha,Tre Rose ,Battelini Aisha,-,-,Via Tommaso Grossi,16,,+39 040 302564,+39 3466215453,,info@trerosetrieste.it,http://www.trerosetrieste.it,1,4,1,"Jan 01 - Jan 10, Jan 15 - Jan 18, Jan 22 - Jan 24, Jan 29 - Jan 31, Feb 05 - Feb 07, Feb 11 - Dec 31",Jan 01 - Jan 10,Jan 15 - Jan 18,Jan 22 - Jan 24,Jan 29 - Jan 31,Feb 05 - Feb 07,Feb 11 - Dec 31,,,45.6474155,13.7751745
51420,TRIESTE,TRIESTE,Superior,Trieste Plus di Savanelli Stefano,Trieste Plus ,Savanelli Stefano,TRIESTE,-,Via Udine,12,34132,+39 340 2360894,+39 340 2360894,,info@triesteplus.com,http://WWW.TRIESTEPLUS.COM,4,7,4,"Jan 01 - Feb 15, Feb 22 - Nov 20, Nov 28 - Dec 31",Jan 01 - Feb 15,Feb 22 - Nov 20,Nov 28 - Dec 31,,,,,,45.6564829,13.774695
47260,TRIESTE,TRIESTE,Superior,Villa Albori di Piazzi Martina,Villa Albori ,Piazzi Martina,OPICINA,-,via Nazionale,41,34151,+39 040 420341,+39 393 9876562,,info@villalbori.it,http://www.villaalbori.it,3,7,3,"Jan 01 - Jan 09, Jan 16 - Feb 10, Feb 17 - Oct 11, Oct 18 - Dec 31",Jan 01 - Jan 09,Jan 16 - Feb 10,Feb 17 - Oct 11,Oct 18 - Dec 31,,,,,45.6851546,13.7853762
44180,TRIESTE,TRIESTE,Superior,Villa Fausta di Tracanelli Sergio,Villa Fausta ,Tracanelli Sergio,-,-,Salita di Gretta,5,34136,+39 040 415252,,+39 040 415252,mail@villafausta-trieste.com,http://www.villafausta-trieste.com,3,8,3,"Jan 01 - Jan 10, Jan 15 - Dec 21, Dec 28 - Dec 31",Jan 01 - Jan 10,Jan 15 - Dec 21,Dec 28 - Dec 31,,,,,,45.6648109,13.7693657
67040,TRIESTE,TRIESTE,Superior,Villa Laly di  Rachele Mase ,,,OPICINA,-,Via di Conconello,67,34151,+39 349 28888708,+39 389 5733125,,l.cicia@icloud.com,,2,5,2,"May 09 - Nov 29, Dec 07 - Dec 31",May 09 - Nov 29,Dec 07 - Dec 31,,,,,,,45.6850389,13.7914561
71643,TRIESTE,TRIESTE,Superior,Villa Moore di Marta Finzi,Villa Moore ,Marta Finzi,-,-,Via Riccardo Bazzoni,15,34124,+39 338 5640049,+39 338 5640049,,martafinzi@yahoo.it,,1,4,1,Jul 21 - Dec 31,Jul 21 - Dec 31,,,,,,,,45.6446182,13.7706252
62680,TRIESTE,TRIESTE,Superior,Villa Sisko di Ngrid Siskovic,Villa Sisko ,Ngrid Siskovic,BARCOLA,-,Via del Boveto,41,34136,+39 040 2608572,+39 331 6793456,+39 040 300298,villasisko@libero.it,,1,5,1,"Jan 01 - Feb 21, Feb 29 - Nov 20, Nov 28 - Dec 31",Jan 01 - Feb 21,Feb 29 - Nov 20,Nov 28 - Dec 31,,,,,,45.6779485,13.7546381
52640,TRIESTE,TRIESTE,Superior,Zenzero&cannella di M. Asuncion Gonzalez Herrera,,Gonzalez Herrera,TRIESTE,-,Largo della Barriera Vecchia,15,34100,+39 345 5673624,,,info@zenzerocannella.it,http://www.zenzerocannella.it,3,6,3,"Jan 01 - Jan 09, Feb 08 - Dec 31",Jan 01 - Jan 09,Feb 08 - Dec 31,,,,,,,45.6477291,13.7793377
46440,TRIESTE,TRIESTE,Superior,?tirenca di Palcich Anna,?tirenca ,Palcich Anna,PADRICIANO 260,-,sentiero padriciano,260,34100,+39 040 226554,+39 335 8354806,,info@stirenca.it,http://www.stirenca.it,3,7,2,Mar 18 - Dec 01,Mar 18 - Dec 01,,,,,,,,45.6553096,13.8361374
68200,TRIESTE,TRIESTE,Standard,03.Stanze di  Giovanna Marson,,Giovanna Marson,-,-,Viale Miramare,27,34135,+39 349 5871633,+39 349 871633,,ggiuliam@gmail.com,,2,4,2,Jul 26 - Dec 31,Jul 26 - Dec 31,,,,,,,,45.6751048,13.7557547
68800,TRIESTE,TRIESTE,Standard,A Casa di Fra di Francesca Gandolfo,A Casa di Fra ,Francesca Gandolfo,-,-,Via Giacomo Ciamician,20,34124,+39 3396009054,+39 339 6009054,,francescagandolfo@hotmail.it,,1,1,1,"Jan 01 - Jul 14, Aug 01 - Dec 23",Jan 01 - Jul 14,Aug 01 - Dec 23,,,,,,,45.6458118,13.7654118
70120,TRIESTE,TRIESTE,Standard,Ai Pucci di Corrado Russignani,Ai Pucci ,Corrado Russignani,-,-,Strada di Fiume,382,34100,,+39 327 8346125,,daisy.2008@libero.it,,1,2,1,"Mar 20 - Jun 30, Jul 10 - Dec 31",Mar 20 - Jun 30,Jul 10 - Dec 31,,,,,,,45.6369581,13.8174912
47741,TRIESTE,TRIESTE,Standard,Al Cedas di De Lindegg Maria,,Lindegg Maria,-,-,Viale Miramare, 281/2,,+39 040 410936,+39 347 9461621,+39 040 410396,mitta13@virgilio.it,,2,3,2,Apr 10 - Oct 31,Apr 10 - Oct 31,,,,,,,,45.6751048,13.7557547
53880,TRIESTE,TRIESTE,Standard,Al Cucherle di Bonelli Daniela,Al Cucherle ,Bonelli Daniela,TRIESTE,-,Via di Torre Bianca,21,34100,+39 348 4302556,+39 348 4302556,,alcucherle@gmail.com,http://www.bedandbreakfast-alcucherle-trieste.com,3,8,1,"Jan 01 - Feb 15, Feb 23 - Nov 20, Nov 27 - Dec 31",Jan 01 - Feb 15,Feb 23 - Nov 20,Nov 27 - Dec 31,,,,,,45.6528505,13.7737789
62502,TRIESTE,TRIESTE,Standard,Al Giardino Pubblico di Claudio Puja,Al Giardino Pubblico ,Claudio Puja,TRIESTE,-,Via Cologna,2,34100,,+39 331 7544936,,sunclaud@yahoo.it,,3,5,2,"Jan 09 - Jan 30, Feb 20 - Dec 22",Jan 09 - Jan 30,Feb 20 - Dec 22,,,,,,,45.6770925,13.7534166
46400,TRIESTE,TRIESTE,Standard,Al Laghetto di Carli Vaslij,Al Laghetto ,Carli Vaslij,BASOVIZZA,-,Via di Basovizza,20,,,+39 338 9043445  339 8184619,,info@beblaghetto.it,http://www.beblaghetto.it,3,6,1,Mar 01 - Dec 31,Mar 01 - Dec 31,,,,,,,,45.6836621,13.7994398
63741,TRIESTE,TRIESTE,Standard,Al Mitico Eremita di Sira Purini,Al Mitico Eremita ,Sira Purini,TRIESTE,-,Via fra' Pace da Vedano,8,34142,+39 338 5967362,+39 338 5967362,,mitico.eremita@gmail.com,,2,4,1,"Jan 01 - Jan 25, Jan 31 - Feb 29, Mar 06 - Dec 31",Jan 01 - Jan 25,Jan 31 - Feb 29,Mar 06 - Dec 31,,,,,,,
72101,TRIESTE,TRIESTE,Standard,Al Torzolon di Alessandro Zambon,Al Torzolon ,Alessandro Zambon,TRIESTE,-,Via Carbonara,4,34100,+39 349 8357784,+39 349 8357784,,cipled82@gmail.com,,1,2,1,"Aug 01 - Nov 10, Dec 01 - Dec 31",Aug 01 - Nov 10,Dec 01 - Dec 31,,,,,,,45.6402831,13.7778936
60460,TRIESTE,TRIESTE,Standard,Al Tram di Vidman Natalia,Al Tram ,Vidman Natalia,TRIESTE,-,Via XXX Ottobre,13,34122,,+39 347 6491495,,bbaltram@gmail.com,,3,4,1,"Jan 01 - Jan 31, Feb 15 - Feb 29, Mar 15 - Dec 31",Jan 01 - Jan 31,Feb 15 - Feb 29,Mar 15 - Dec 31,,,,,,45.6521561,13.7746406
51080,TRIESTE,TRIESTE,Standard,Ametista di Parise Gouvea Princy,,Gouvea Princy,TRIESTE,-,Piazza Libertà,6,34132,,+39 345 3152686,,ametistatrieste@hotmail.com,,3,8,1,"Jan 01 - Jan 05, Feb 04 - Feb 16, Mar 15 - Mar 30, Apr 15 - Oct 23, Nov 15 - Dec 31",Jan 01 - Jan 05,Feb 04 - Feb 16,Mar 15 - Mar 30,Apr 15 - Oct 23,Nov 15 - Dec 31,,,,,
54500,TRIESTE,TRIESTE,Standard,Angelo di Angelo Gaiangos,Angelo ,Angelo Gaiangos,TRIESTE,-,Via Cesare Battisti,23,34125,+39 040  2464982,+39 347 5710205,,bbangelotrieste@gmail.com,,3,7,1,"Jan 01 - Jan 06, Jan 21 - Jan 31, Feb 16 - Dec 31",Jan 01 - Jan 06,Jan 21 - Jan 31,Feb 16 - Dec 31,,,,,,45.652648,13.780283
58260,TRIESTE,TRIESTE,Standard,Antico Borgo Teresiano di  Alessandro Conte,,Alessandro Conte,TRIESTE,-,Via San Lazzaro,20,34100,+39 340 2361780,+39 340 2361780,,info@anticoborgoteresiano.it,http://WWW.ANTICOBORGOTERESIANO.IT,3,8,2,"Jan 01 - Jan 11, Feb 02 - Feb 20, Mar 01 - Dec 31",Jan 01 - Jan 11,Feb 02 - Feb 20,Mar 01 - Dec 31,,,,,,45.6526022,13.7763036
66520,TRIESTE,TRIESTE,Standard,Apartment Elisabeth di Frizzi Ingrid,Apartment Elisabeth ,Frizzi Ingrid,TRIESTE,-,Vicolo dei Gattorno,2,34100,,+39 338 9270803,,elisabethf116@gmail.com,,2,5,1,Mar 18 - Dec 31,Mar 18 - Dec 31,,,,,,,,45.660717,13.7744426
67482,TRIESTE,TRIESTE,Standard,Art&breakfast Atelier di Giorgio Schumann,Art&breakfast Atelier ,Giorgio Schumann,-,-,Salita alla Madonna di Gretta,19,,+39 040 416243,+39 339 6379366,,giorgio.schumann@alice.it,,2,3,1,Jul 15 - Nov 15,Jul 15 - Nov 15,,,,,,,,45.6682459,13.7623685
65200,TRIESTE,TRIESTE,Standard,Atema di Manuela Tommasini,Atema ,Manuela Tommasini,TRIESTE,-,Via Amerigo Vespucci, 4/1,34100,+39 346 3025822,+39 346 3025822,,tommasinimanuela@live.com,,1,2,1,"Jan 01 - Feb 07, Feb 15 - Jun 25, Jul 02 - Dec 31",Jan 01 - Feb 07,Feb 15 - Jun 25,Jul 02 - Dec 31,,,,,,45.6419284,13.7783373
52600,TRIESTE,TRIESTE,Standard,Barcolana Gold di Viva Donatella,Barcolana Gold ,Viva Donatella,TRIESTE,-,Via Armando Diaz,19,34100,,+39 338 1584365,,barcolanagold@gmail.com,,2,6,1,"Jan 01 - Jan 30, Feb 02 - Feb 28, Mar 03 - Mar 28, Apr 01 - Apr 30, May 01 - May 23, May 26 - Jun 30, Jul 01 - Jul 30",Jan 01 - Jan 30,Feb 02 - Feb 28,Mar 03 - Mar 28,Apr 01 - Apr 30,May 01 - May 23,May 26 - Jun 30,Jul 01 - Jul 30,Aug 01 - Dec 31,45.6478105,13.7647034
72067,TRIESTE,TRIESTE,Standard,Bloom S Room di  Mariangela Vella,,Mariangela Vella,-,-,Via Paolo Diacono,5,34137,+39 388 8690423,+39 388 8690423,,bloomsroom2017@gmail.com,,1,2,1,"Aug 11 - Nov 12, Nov 20 - Dec 31",Aug 11 - Nov 12,Nov 20 - Dec 31,,,,,,,45.6443664,13.7778265
63900,TRIESTE,TRIESTE,Standard,Blu&blu di Alessandra Prinz,Blu&blu ,Alessandra Prinz,TRIESTE,-,Via Giulia,5,34126,+39 349 3448631,+39 349 3448631,,prinzalessandra@gmail.com,,4,8,2,"Jan 01 - Jan 23, Feb 01 - Feb 20, Mar 01 - Nov 19, Nov 26 - Dec 31",Jan 01 - Jan 23,Feb 01 - Feb 20,Mar 01 - Nov 19,Nov 26 - Dec 31,,,,,45.6539867,13.7868766
47080,TRIESTE,TRIESTE,Standard,Brass di Romich Giovanni,Brass ,Romich Giovanni,-,-,Via San Maurizio,5,34100,+39 040 639517,+39 366 4068685,,brass@bedandbreakfast-trieste.com,http://www.bedandbreakfast-trieste.com,4,8,2,"Jan 01 - Jan 08, Jan 09 - Feb 22, Mar 02 - Nov 22, Nov 23 - Dec 31",Jan 01 - Jan 08,Jan 09 - Feb 22,Mar 02 - Nov 22,Nov 23 - Dec 31,,,,,45.6496139,13.7801743
71803,TRIESTE,TRIESTE,Standard,Caccia di Iulia Daniela Negrui,,Daniela Negrui,-,-,Via Acacie,10,34129,+39 327 3696434,+39 327 3696434,,daniela.negrui@gmail.com,,1,2,1,"Jul 01 - Nov 05, Dec 01 - Dec 31",Jul 01 - Nov 05,Dec 01 - Dec 31,,,,,,,,
66800,TRIESTE,TRIESTE,Standard,Carsia B&B di Zef Gurasiu,Carsia B&B ,Zef Gurasiu,OPICINA,-,Via Carsia, 34/7,34151,+39 348 3145904,+39 348 3145904,,guraziuzef@gmail.com,,3,4,1,"May 02 - Nov 15, Dec 01 - Dec 31",May 02 - Nov 15,Dec 01 - Dec 31,,,,,,,45.6874666,13.7757213
69644,TRIESTE,TRIESTE,Standard,Casa Liberty di Franca Stefani,Casa Liberty ,Franca Stefani,-,-,Via Commerciale,40,34135,+39 040 2410211,+39 339 5466652,,franca.natur@gmail.com,,1,2,1,"Jan 21 - Feb 10, Feb 27 - Jul 03, Jul 16 - Dec 15",Jan 21 - Feb 10,Feb 27 - Jul 03,Jul 16 - Dec 15,,,,,,45.664174,13.7805949
68620,TRIESTE,TRIESTE,Standard,Casa Murat di Dante Grassi,Casa Murat ,Dante Grassi,TRIESTE,-,Via Muratte,6,34023,+39 340 0645810,+39 340 0645810,,dantecostante45@gmail.com,,1,2,1,"Sep 27 - Oct 19, Nov 18 - Dec 31",Sep 27 - Oct 19,Nov 18 - Dec 31,,,,,,,,
71642,TRIESTE,TRIESTE,Standard,Casaldina di Alessandro Gilardoni,Casaldina ,Alessandro Gilardoni,-,-,Via Imbriani,1,34122,+39 347 2529617,+39 347 2529617,,agilar61@gmail.com,,1,3,1,Jul 17 - Dec 31,Jul 17 - Dec 31,,,,,,,,,
62260,TRIESTE,TRIESTE,Standard,Cassio di Beatrice Vecchiet,Cassio ,Beatrice Vecchiet,TRIESTE,-,Via dell'Eremo, 241/3,34142,+39 347 9257093,+39 347 9257093,,cassioinfo@bebcassio.com,,2,4,1,"Jan 01 - Jan 14, Jan 18 - Jan 21, Jan 25 - Jan 28, Feb 01 - Apr 13, Apr 18 - Nov 17, Nov 21 - Dec 31",Jan 01 - Jan 14,Jan 18 - Jan 21,Jan 25 - Jan 28,Feb 01 - Apr 13,Apr 18 - Nov 17,Nov 21 - Dec 31,,,,
41481,TRIESTE,TRIESTE,Standard,Cattinara di Sav Marjanca,Cattinara ,Sav Marjanca,TRIESTE,-,Strada di Fiume,555,34100,+39 040 910557,+39 338 1509385,,,,3,6,1,"Jan 01 - Aug 20, Sep 01 - Dec 20",Jan 01 - Aug 20,Sep 01 - Dec 20,,,,,,,45.6369581,13.8174912
66280,TRIESTE,TRIESTE,Standard,Cerino di Silvia Cerino,Cerino ,Silvia Cerino,TRIESTE,-,Via Filippo Corridoni,12,34131,,+39 347 7309629,,cerisil@libero.it,,2,6,1,Mar 01 - Dec 31,Mar 01 - Dec 31,,,,,,,,45.6457673,13.7792347
52560,TRIESTE,TRIESTE,Standard,Chiara di Lorenzo Meula,Chiara ,Lorenzo Meula,TRIESTE,-,Via al Cisternone,9,34100,,+39 339 6801149,,chiarabeb@libero.it,,3,6,2,Jan 11 - Dec 22,Jan 11 - Dec 22,,,,,,,,45.6682535,13.7688428
56840,TRIESTE,TRIESTE,Standard,Colors di Michela Coslan,Colors ,Michela Coslan,TRIESTE,-,Via Vittoria Colonna,4,34124,+39 040 311716,+39 347 9827914,,marco.nordio@gmail.com,,2,4,1,Jan 15 - Dec 15,Jan 15 - Dec 15,,,,,,,,45.6467985,13.7668363
72420,TRIESTE,TRIESTE,Standard,Da Noi di Margherita Fonda,Da Noi ,Margherita Fonda,TRIESTE,-,Via Cadorna,13,34124,+39 348 2423988,+39 348 2423988,,punticinzia@libero.it,,3,8,1,Aug 01 - Dec 31,Aug 01 - Dec 31,,,,,,,,,
70622,TRIESTE,TRIESTE,Standard,Da Selene di Selene Simonic,Da Selene ,Selene Simonic,TRIESTE,-,Scala al Monticello,4,34126,+39 346 9566860,+39 346 9566860,,,,1,2,1,"Apr 30 - Aug 31, Oct 01 - Dec 31",Apr 30 - Aug 31,Oct 01 - Dec 31,,,,,,,45.6556639,13.7951283
72102,TRIESTE,TRIESTE,Standard,Da Thais Un Piacevole Relax di Thais Virginia Castellanos Escandon,,Castellanos Escandon,TRIESTE,-,Via Carlo Antoni,24,34128,+39 040 572932,+39 331 3150125,,virginia777.tc@gmail.com,,3,5,1,Aug 02 - Dec 20,Aug 02 - Dec 20,,,,,,,,45.6532018,13.8051624
69982,TRIESTE,TRIESTE,Standard,Dai Muli di Alessandra Chiurco,Dai Muli ,Alessandra Chiurco,-,-,Via Trento,15,34132,,+39 331 1257035,,alessandrachiurco@gmail.com,,4,8,2,"Mar 13 - Dec 11, Dec 20 - Dec 31",Mar 13 - Dec 11,Dec 20 - Dec 31,,,,,,,45.6551294,13.7724984
67360,TRIESTE,TRIESTE,Standard,Dream 22 di Elvio Tonsi,Dream 22 ,Elvio Tonsi,TRIESTE,-,Via San Primo,24,34126,+39 040 569946,+39 345 4143530,,elvio.tonsi@gmail.com,,2,6,1,"Jun 15 - Oct 31, Nov 15 - Dec 31",Jun 15 - Oct 31,Nov 15 - Dec 31,,,,,,,45.655513,13.7991231
69642,TRIESTE,TRIESTE,Standard,Esperia di Stefania Trevisan,Esperia ,Stefania Trevisan,-,-,Strada del Friuli,177,34136,,+39 349 0895717,,stefania1928@hotmail.it,,2,4,2,"Jan 01 - Jan 14, Feb 01 - Feb 12, Mar 01 - Oct 14, Oct 26 - Nov 04, Nov 26 - Dec 31",Jan 01 - Jan 14,Feb 01 - Feb 12,Mar 01 - Oct 14,Oct 26 - Nov 04,Nov 26 - Dec 31,,,,45.6869235,13.7524281
48641,TRIESTE,TRIESTE,Standard,Family Life di De Feno Marina,,Feno Marina,-,-,Largo a Roiano, 3/4,34135,,+39 393 7035235,,mdf@familylifetrieste.it,http://www.familylifetrieste.it,1,2,1,"Jan 01 - Jan 11, Jan 29 - Feb 15, Mar 04 - Dec 31",Jan 01 - Jan 11,Jan 29 - Feb 15,Mar 04 - Dec 31,,,,,,45.6632889,13.7699013
71644,TRIESTE,TRIESTE,Standard,Gatteri di Graziella Vocca,Gatteri ,Graziella Vocca,-,-,Via Giorgio Gatteri,13,34129,+39 040 368113,+39 320 3456297,,graziella.vocca@gmail.com,,2,6,1,"Jul 22 - Oct 29, Nov 19 - Dec 31",Jul 22 - Oct 29,Nov 19 - Dec 31,,,,,,,,
71222,TRIESTE,TRIESTE,Standard,Gelsomina di Jasmin Lamprecht,Gelsomina ,Jasmin Lamprecht,-,-,Via Sant'Apollinare,2,34131,+39 348 2744530,+39 348 2744530,,jasmin.lamprecht@hotmail.it,,1,1,1,Jul 15 - Dec 31,Jul 15 - Dec 31,,,,,,,,,
55821,TRIESTE,TRIESTE,Standard,Gens Julia di Davide Dell Agata,,Dell Agata,TRIESTE,-,Via San Michele,7,34124,,+39 340 6056039,,gensjuliats@virgilio.it,,3,6,2,"Jan 01 - Jan 17, Jan 24 - Feb 24, Mar 03 - Dec 31",Jan 01 - Jan 17,Jan 24 - Feb 24,Mar 03 - Dec 31,,,,,,45.6458859,13.7703024
61640,TRIESTE,TRIESTE,Standard,Giardini di Gregoris Carla,Giardini ,Gregoris Carla,TRIESTE,-,Via dei Giardini, 21/1,34100,,+39 333 7575533,,gregoris.carla@tiscali.it,,2,5,1,"Jan 01 - Jan 10, Mar 01 - Dec 31",Jan 01 - Jan 10,Mar 01 - Dec 31,,,,,,,45.6227437,13.7820848
62701,TRIESTE,TRIESTE,Standard,Grignetti Bed di Marco Grignetti,Grignetti Bed ,Marco Grignetti,-,-,Via Rosset, 7/1,34126,+39 347 2526570,+39 347 2526570,,marco.grignetti@libero.it,,2,5,2,"Jan 01 - Feb 05, Feb 14 - Nov 06, Nov 14 - Dec 31",Jan 01 - Feb 05,Feb 14 - Nov 06,Nov 14 - Dec 31,,,,,,,
45100,TRIESTE,TRIESTE,Standard,Grim di Zamarin Giuliano,Grim ,Zamarin Giuliano,-,-,Via Pasquale Revoltella,87,34100,+39 040 0642236,+39 349 4181357,,info@bedandbreakfastgrim.it,http://www.bedandbreakfastgrim.it,4,7,3,"Jan 10 - Jul 31, Aug 15 - Dec 25",Jan 10 - Jul 31,Aug 15 - Dec 25,,,,,,,45.6419375,13.8021821
62501,TRIESTE,TRIESTE,Standard,Guerrero di Marcela Esther De Bernardis,,De Bernardis,TRIESTE,-,Largo Sidney Sonnino,9,34139,+39 040 2415605,+39 329 0427035,,debernardisme@hotmail.com,,2,5,1,"Jan 01 - Feb 14, Feb 29 - Dec 31",Jan 01 - Feb 14,Feb 29 - Dec 31,,,,,,,45.6447874,13.7818225
68060,TRIESTE,TRIESTE,Standard,Il Sogno di Joyce di  Stefania Emma Sbaiz,,Emma Sbaiz,TRIESTE,-,Via Bramante,4,34131,,+39 338 4269189,,stesba64@virgilio.it,,1,2,1,Sep 22 - Dec 31,Sep 22 - Dec 31,,,,,,,,,
62740,TRIESTE,TRIESTE,Standard,International di Gabriele Vassilich,International ,Gabriele Vassilich,-,-,Via Barriera,15,34129,+39 347 5011444,+39 347 5011444,,internationaltrieste@gmail.com,,3,7,1,"Jan 01 - Feb 21, Feb 26 - Mar 13, Mar 17 - Jun 05, Jun 10 - Nov 20, Nov 25 - Dec 31",Jan 01 - Feb 21,Feb 26 - Mar 13,Mar 17 - Jun 05,Jun 10 - Nov 20,Nov 25 - Dec 31,,,,,
67684,TRIESTE,TRIESTE,Standard,La Cogoma di Eleonora Callipo,La Cogoma ,Eleonora Callipo,TRIESTE,-,Viale Miramare,29,34135,+39 3461392966,,,lacogoma29@gmail.com,,3,8,3,Jul 05 - Dec 31,Jul 05 - Dec 31,,,,,,,,45.6751048,13.7557547
56460,TRIESTE,TRIESTE,Standard,Le Ortensie di Via Rossetti di Federica Paliaga,Le Ortensie di Via Rossetti ,Federica Paliaga,TRIESTE,-,Via Rosset, 83/1,34100,+39 320 5743826,+39 040 9498104,+39 3205743826,info@leortensiediviarossetti.it,http://www.leortensiediviarossetti.it,3,6,2,"Jan 01 - Jan 16, Jan 27 - Mar 20, Mar 27 - Apr 07, Apr 13 - Sep 22, Sep 29 - Oct 16, Oct 20 - Dec 31",Jan 01 - Jan 16,Jan 27 - Mar 20,Mar 27 - Apr 07,Apr 13 - Sep 22,Sep 29 - Oct 16,Oct 20 - Dec 31,,,,
70243,TRIESTE,TRIESTE,Standard,Le Rose di Franca Boico,Le Rose ,Franca Boico,-,-,Vicolo delle Rose,45,34134,,+39 333 6041002,,,,1,2,1,"Apr 01 - Oct 30, Dec 01 - Dec 31",Apr 01 - Oct 30,Dec 01 - Dec 31,,,,,,,45.6680417,13.7805154
58720,TRIESTE,TRIESTE,Standard,Le Stanze di Miramare di Tiziana Finzi,Le Stanze di Miramare ,Tiziana Finzi,TRIESTE,-,Viale Miramare,27,34135,+39 342 9662480,+39 349 5871633,+39 040 420271,info@lestanzedimiramare.com,http://www.lestanzedimiramare.com,3,7,2,"Jan 01 - Feb 15, Mar 01 - Oct 31, Dec 01 - Dec 31",Jan 01 - Feb 15,Mar 01 - Oct 31,Dec 01 - Dec 31,,,,,,45.6751048,13.7557547
60280,TRIESTE,TRIESTE,Standard,Lorenzo di Katerina Koti,Lorenzo ,Katerina Koti,TRIESTE,-,Via Rosset,8,34100,,+39 328 8119561,,info@bandblorenzo.it,,3,7,2,"Jan 01 - Jan 09, Feb 20 - Mar 05, Mar 10 - Jun 10, Jun 15 - Sep 12, Sep 15 - Nov 04, Nov 07 - Dec 31",Jan 01 - Jan 09,Feb 20 - Mar 05,Mar 10 - Jun 10,Jun 15 - Sep 12,Sep 15 - Nov 04,Nov 07 - Dec 31,,,,
54842,TRIESTE,TRIESTE,Standard,Mary Poppins S House di Lampi Lorena,Mary Poppins S House ,Lampi Lorena,-,-,Via Damiano Chiesa,98,34128,,+39 377 4546235,,marypoppinshouse6@gmail.com,,3,6,2,"Jan 01 - Jan 05, Jan 10 - Nov 16, Nov 22 - Dec 31",Jan 01 - Jan 05,Jan 10 - Nov 16,Nov 22 - Dec 31,,,,,,45.6551416,13.8080424
48780,TRIESTE,TRIESTE,Standard,Mimosa di Franzinelli Gabriela,Mimosa ,Franzinelli Gabriela,-,-,Via Carlo Schmidl,5,34147,,+39 333 5059214,,bb-mimosa@libero.it,http://www.bb-mimosa-trieste.weebly.com,2,4,2,"Jan 25 - Mar 24, Apr 04 - Jun 16, Jun 27 - Jul 07, Jul 18 - Aug 12, Aug 29 - Sep 16, Sep 26 - Oct 27, Nov 07 - Dec 22",Jan 25 - Mar 24,Apr 04 - Jun 16,Jun 27 - Jul 07,Jul 18 - Aug 12,Aug 29 - Sep 16,Sep 26 - Oct 27,Nov 07 - Dec 22,,45.617559,13.7921073
49520,TRIESTE,TRIESTE,Standard,Miramare di Paola Cantarutti,Miramare ,Paola Cantarutti,-,-,Viale Miramare,55,34135,,+39 347 8408555,,paola.cantarutti6@gmail.com,,1,3,1,"Jan 01 - Feb 02, Feb 10 - Sep 07, Sep 15 - Dec 31",Jan 01 - Feb 02,Feb 10 - Sep 07,Sep 15 - Dec 31,,,,,,45.6751048,13.7557547
69981,TRIESTE,TRIESTE,Standard,Old Town Rooms di  Salvatore Amato,,Salvatore Amato,TRIESTE,-,Via dei Fabbri,3,34124,,+39 328 7043021,,totoottobre@hotmail.it,,2,4,1,"Feb 18 - Dec 11, Dec 16 - Dec 31",Feb 18 - Dec 11,Dec 16 - Dec 31,,,,,,,45.6460734,13.7651257
52580,TRIESTE,TRIESTE,Standard,Palazzo Brigido di Ricci Raffaella,Palazzo Brigido ,Ricci Raffaella,TRIESTE,-,Via Pozzo del Mare,1,34121,,+39 331 1865930,,info@palazzobrigido.com,http://www.palazzobrigido.com,3,8,1,"Jan 01 - Jan 06, Jan 13 - Jan 20, Jan 27 - Feb 03, Feb 10 - Feb 17, Feb 24 - Mar 03, Mar 10 - Dec 31",Jan 01 - Jan 06,Jan 13 - Jan 20,Jan 27 - Feb 03,Feb 10 - Feb 17,Feb 24 - Mar 03,Mar 10 - Dec 31,,,45.6492057,13.7676325
68822,TRIESTE,TRIESTE,Standard,Peggy di Paola Viano,Peggy ,Paola Viano,-,-,Via San Lazzaro,1,,,+39 347 2792580,,bnbpeggytrieste@gmail.com,,4,8,3,Oct 26 - Dec 31,Oct 26 - Dec 31,,,,,,,,45.6526022,13.7763036
66260,TRIESTE,TRIESTE,Standard,Piazza Goldoni di Jacopo Ciampalini,Piazza Goldoni ,Jacopo Ciampalini,TRIESTE,-,Via Carducci,31,34100,,+39 328 3535274,,ciampaj87@hotmail.com,,4,8,2,Mar 03 - Dec 31,Mar 03 - Dec 31,,,,,,,,,
68821,TRIESTE,TRIESTE,Standard,Porporella di Nataliya Rachkova,Porporella ,Nataliya Rachkova,-,-,Via Cadorna,13,34124,+39 329 0146105,+39 329 0146105,,kseniya80rachkova@gmail.com,,3,6,2,Oct 27 - Dec 31,Oct 27 - Dec 31,,,,,,,,,
54501,TRIESTE,TRIESTE,Standard,Rebecca di Korosec Ingeborg Klara,,Ingeborg Klara,TRIESTE,-,Via Giulia,53,34100,+39 333 5068576,+39 333 5068576,,lampo68@teletu.it,,2,5,1,"Feb 01 - Mar 21, Apr 01 - Dec 31",Feb 01 - Mar 21,Apr 01 - Dec 31,,,,,,,45.6539867,13.7868766
72103,TRIESTE,TRIESTE,Standard,Rio Farneto di Emanuela Giorgia Brianti,,Giorgia Brianti,TRIESTE,-,Strada per Longera,215,34128,+39 040 576213,+39 339 8850817,,emanuelabrianti@tiscali.it,,1,2,1,Aug 01 - Dec 31,Aug 01 - Dec 31,,,,,,,,45.6388387,13.8328594
71647,TRIESTE,TRIESTE,Standard,San Giusto di Goran Pajc,San Giusto ,Goran Pajc,-,-,Via della fornace,7,34131,,+39 320 2922696,,goran_paic@yahoo.it,,1,2,1,"Jun 01 - Oct 31, Dec 01 - Dec 31",Jun 01 - Oct 31,Dec 01 - Dec 31,,,,,,,45.6459629,13.7748235
69820,TRIESTE,TRIESTE,Standard,Shabby Lullaby di Elisabeth Antonaglia,Shabby Lullaby ,Elisabeth Antonaglia,-,-,Via del Ghirlandaio, 22/2,34138,,+39 346 4783350,,eli.antonaglia@gmail.com,,1,2,1,"Feb 01 - Feb 12, Feb 17 - Mar 05, Mar 10 - Apr 02, Apr 07 - May 07, May 12 - Oct 22, Oct 27 - Nov 05, Nov 11 - Dec 10",Feb 01 - Feb 12,Feb 17 - Mar 05,Mar 10 - Apr 02,Apr 07 - May 07,May 12 - Oct 22,Oct 27 - Nov 05,Nov 11 - Dec 10,Dec 15 - Dec 31,45.6403526,13.7907168
55241,TRIESTE,TRIESTE,Standard,St. Jack di Antonini Erminia,St. Jack ,Antonini Erminia,-,-,Via Luigi Frausin,19,34137,+39 328 6894017,+39 342 7836002,,st.jackts@gmail.com,,3,7,2,"Jan 01 - Jan 24, Feb 19 - Nov 13, Dec 16 - Dec 31",Jan 01 - Jan 24,Feb 19 - Nov 13,Dec 16 - Dec 31,,,,,,45.6437242,13.777996
70380,TRIESTE,TRIESTE,Standard,Starbene di Daniele Planine,Starbene ,Daniele Planine,TRIESTE,-,Via Ario,27,34135,+39 3249018482,+39 324 9018482,,dplanine@gmail.com,,2,4,1,"Apr 26 - Oct 15, Oct 29 - Nov 15, Nov 29 - Dec 31",Apr 26 - Oct 15,Oct 29 - Nov 15,Nov 29 - Dec 31,,,,,,,
64760,TRIESTE,TRIESTE,Standard,Stella Marina di Silva Roveretto,Stella Marina ,Silva Roveretto,TRIESTE,-,Via Luigi Negrelli,2,34100,+39 334 3366036,+39 334 3366036,,,,1,2,1,"Jan 01 - Mar 01, Mar 08 - Aug 07, Aug 14 - Dec 31",Jan 01 - Mar 01,Mar 08 - Aug 07,Aug 14 - Dec 31,,,,,,45.6408945,13.7720433
62077,TRIESTE,TRIESTE,Standard,The Smiling Home di Gelletti Giulia,The Smiling Home ,Gelletti Giulia,TRIESTE,-,Via Ruggero Manna,20,34134,,+39 339 1800253,,casadipenny@gmail.com,,2,3,1,"Jan 01 - Jan 10, Jan 18 - Jan 24, Feb 01 - Dec 31",Jan 01 - Jan 10,Jan 18 - Jan 24,Feb 01 - Dec 31,,,,,,45.6581163,13.7748468
68880,TRIESTE,TRIESTE,Standard,Torrebianca di Stefano Canato,Torrebianca ,Stefano Canato,-,-,Via Pozzo del Mare,1,34121,+39 040 2606497,+39 329 1431701,,torrebinacaitalia@gmail.com,,2,5,2,Nov 10 - Dec 31,Nov 10 - Dec 31,,,,,,,,45.6492057,13.7676325
66061,TRIESTE,TRIESTE,Standard,Tra I Rivi,,I Rivi,TRIESTE,-,Piazza tra i Rivi,5,34100,+39 3939000143,+39 3939000143,,trairivi@gmail.com,,3,4,1,"Jan 01 - Jan 10, Jan 17 - Jul 31, Aug 08 - Dec 31",Jan 01 - Jan 10,Jan 17 - Jul 31,Aug 08 - Dec 31,,,,,,45.6649112,13.7722395
63840,TRIESTE,TRIESTE,Standard,Tra I Tetti di Luca Veuer,Tra I Tetti ,Luca Veuer,TRIESTE,-,Via Imbriani,10,34122,+39 349 544114,+39 349 544114,,lucaveue@gmail.com,,2,4,1,"Jan 01 - Sep 11, Oct 01 - Oct 15, Nov 01 - Nov 06, Dec 01 - Dec 11, Dec 19 - Dec 31",Jan 01 - Sep 11,Oct 01 - Oct 15,Nov 01 - Nov 06,Dec 01 - Dec 11,Dec 19 - Dec 31,,,,,
62800,TRIESTE,TRIESTE,Standard,Trieste 59 di Camilla Gombani,Trieste 59 ,Camilla Gombani,TRIESTE,-,Via Cesare Cantù,59,34134,+39 333 8674678,+39 333 8674678,,trieste59bb@gmail.com,,4,6,3,"Jan 01 - Jan 10, Mar 04 - Jun 04, Jun 13 - Nov 06, Dec 01 - Dec 31",Jan 01 - Jan 10,Mar 04 - Jun 04,Jun 13 - Nov 06,Dec 01 - Dec 31,,,,,45.6614573,13.7908384
71221,TRIESTE,TRIESTE,Standard,Ugo Foscolo di Gian Luigi Gugliermetto,,Luigi Gugliermetto,-,-,Via Ugo Foscolo,20,34129,+39 334 8165595,+39 334 8165595,,gugliermetto65@gmail.com,,2,5,1,"Jun 01 - Nov 05, Dec 06 - Dec 31",Jun 01 - Nov 05,Dec 06 - Dec 31,,,,,,,45.6470095,13.7819904
70241,TRIESTE,TRIESTE,Standard,Valentina di Valentina Botter,Valentina ,Valentina Botter,TRIESTE,-,Vicolo delle Rose,49,34134,+39 347 0978150,+39 347 0978150,,,,1,2,1,"Apr 14 - May 18, May 25 - Jun 19, Jun 23 - Jul 08, Jul 13 - Sep 30, Oct 05 - Oct 18, Oct 27 - Nov 08, Dec 01 - Dec 12",Apr 14 - May 18,May 25 - Jun 19,Jun 23 - Jul 08,Jul 13 - Sep 30,Oct 05 - Oct 18,Oct 27 - Nov 08,Dec 01 - Dec 12,Dec 21 - Dec 31,45.6680417,13.7805154
47081,TRIESTE,TRIESTE,Standard,Ventodibora di Blasizza Federica,Ventodibora ,Blasizza Federica,-,-,Via Bartoletti,4,,,+39 333 3592541,,info@ventodibora.it,http://www.ventodibora.it,1,4,1,"Jan 01 - Jan 10, Jan 22 - Oct 10, Oct 21 - Dec 31",Jan 01 - Jan 10,Jan 22 - Oct 10,Oct 21 - Dec 31,,,,,,45.6425104,13.7894566
69645,TRIESTE,TRIESTE,Standard,Villa Giulia di  Franco Floriddia,,Franco Floriddia,-,-,Via Muratte,8,34100,+39 3488135510,+39 348 8135510,,franco.floriddia@super2000.it,,3,6,1,"Feb 01 - May 31, Jun 20 - Aug 20, Sep 15 - Dec 31",Feb 01 - May 31,Jun 20 - Aug 20,Sep 15 - Dec 31,,,,,,,
68000,TRIESTE,TRIESTE,Standard,Villa Inn di Guido Samsa,Villa Inn ,Guido Samsa,-,-,Via Ulderico Moro,1,34136,+39 040 414625,+39 333 8023075,,,,4,8,3,Aug 02 - Dec 31,Aug 02 - Dec 31,,,,,,,,45.6833023,13.7593769
54841,TRIESTE,TRIESTE,Standard,Villa Quiete di Gavranic Nadal Nela,,Nadal Nela,-,-,Strada per Basovizza,50,34128,,+39 392 3241222  333 1130704,,alessio.giannella@yahoo.it,,3,6,2,"Jan 01 - Jan 31, Mar 01 - Oct 30, Dec 01 - Dec 31",Jan 01 - Jan 31,Mar 01 - Oct 30,Dec 01 - Dec 31,,,,,,45.6368178,13.8379242
55240,TRIESTE,TRIESTE,Standard,Z1 - Zudecche 1 di Riosa Michela,Z1 - Zudecche 1 ,Riosa Michela,-,-,Via delle Zudecche,1,34100,,+39 345 0424433,,michela.riosa@gmail.com,,4,8,2,"Jan 01 - Jan 31, Feb 05 - May 15, May 20 - Oct 02, Oct 07 - Dec 31",Jan 01 - Jan 31,Feb 05 - May 15,May 20 - Oct 02,Oct 07 - Dec 31,,,,,45.6490294,13.7773322
49920,TRIESTE,TRIESTE,Comfort,Al Parco di Esmeralda Abruzzese,Al Parco ,Esmeralda Abruzzese,TRIESTE,-,Via Giulia,6,34100,+39 392 2941592,+39 392 2941592,,esmeab@virgilio.it,,2,5,1,"Jan 01 - Feb 14, Feb 29 - Nov 14, Dec 01 - Dec 31",Jan 01 - Feb 14,Feb 29 - Nov 14,Dec 01 - Dec 31,,,,,,45.6539867,13.7868766
67361,TRIESTE,TRIESTE,Comfort,Area 39 di Diego Duratorre,Area 39 ,Diego Duratorre,TRIESTE,-,Via Giulia,39,,,+39 347 3905000,,diego1512@icloud.com,,2,5,2,Jun 01 - Dec 31,Jun 01 - Dec 31,,,,,,,,45.6539867,13.7868766
47620,TRIESTE,TRIESTE,Comfort,Belcinque di Lombardi Rachele,Belcinque ,Lombardi Rachele,-,-,Via Belpoggio,5,34100,,+39 335 6894545,,,http://www.belcinque.it,2,4,2,"Jan 01 - Feb 01, Feb 08 - Aug 02, Aug 09 - Dec 31",Jan 01 - Feb 01,Feb 08 - Aug 02,Aug 09 - Dec 31,,,,,,45.6439172,13.760276
53480,TRIESTE,TRIESTE,Comfort,Better di Doratti Alessandra,Better ,Doratti Alessandra,-,-,Via Udine,20,34132,+39 040 2452935,+39 335 6602822,,alessandra.doratti@gmail.com,http://www.bettertrieste.it,3,5,3,"Jan 01 - Jan 31, Mar 01 - Nov 20, Nov 30 - Dec 31",Jan 01 - Jan 31,Mar 01 - Nov 20,Nov 30 - Dec 31,,,,,,45.6564829,13.774695
70800,TRIESTE,TRIESTE,Comfort,Contovello 536 di  Maurizio Bobini,,Maurizio Bobini,CONTOVELLO,-,Località Contron,536,34125,,+39 333 3277212,,mauriziobobini@gmail.com,,1,2,1,Apr 01 - Dec 31,Apr 01 - Dec 31,,,,,,,,,
68140,TRIESTE,TRIESTE,Comfort,Felicia di Felicia Simeoli,Felicia ,Felicia Simeoli,-,-,Via Fabio Severo, 90/1,34127,+39 328 1551487,+39 3385337232,,danielmiccu@gmail.com,,1,3,1,"Aug 25 - Nov 20, Nov 28 - Dec 31",Aug 25 - Nov 20,Nov 28 - Dec 31,,,,,,,45.6551825,13.7756963
67100,TRIESTE,TRIESTE,Comfort,House 28 di Licia Caterina Cinello,,Caterina Cinello,TRIESTE,-,Via dei Navali,28,34143,+39 040 309067,+39 329 8794591,,licia.davanzo@gmail.com,,1,2,1,Jun 01 - Oct 30,Jun 01 - Oct 30,,,,,,,,45.6399223,13.7722353
67301,TRIESTE,TRIESTE,Comfort,L Isola Che Non C E di Lisabetta Loy De Leichenfeld,,De Leichenfeld,-,-,Via Giusto dei Girardi,7,34141,+39 040 944553,+39 342 6694977,,elloy@tin.it,,2,4,2,"Jun 01 - Aug 31, Sep 15 - Oct 15, Dec 01 - Dec 31",Jun 01 - Aug 31,Sep 15 - Oct 15,Dec 01 - Dec 31,,,,,,45.6459837,13.7904446
62020,TRIESTE,TRIESTE,Comfort,La Rampla di Rudella M. Margherita,,,TRIESTE,-,Strada per Longera,46,34128,,+39 338 1903078,,margherita.rudella@libero.it,,2,5,2,"Jan 01 - Jan 15, Feb 04 - Feb 28, Mar 08 - Nov 11, Dec 01 - Dec 31",Jan 01 - Jan 15,Feb 04 - Feb 28,Mar 08 - Nov 11,Dec 01 - Dec 31,,,,,45.6388387,13.8328594
54844,TRIESTE,TRIESTE,Comfort,Le 5 Muse di Roscioli Valeria,Le 5 Muse ,Roscioli Valeria,-,-,Via del Pucino,12,34151,,+39 347 6928439,,le5muse@email.it,,2,5,2,"Jan 01 - Jan 24, Feb 01 - Nov 20, Nov 28 - Dec 31",Jan 01 - Jan 24,Feb 01 - Nov 20,Nov 28 - Dec 31,,,,,,45.7167261,13.7063887
66781,TRIESTE,TRIESTE,Comfort,Lo Studio di Joyce di Andrea Gargano,Lo Studio di Joyce ,Andrea Gargano,-,-,via Roma,20,34132,+39 347 4449936,+39 347 4449936,,andreagargano@libero.it,http://www.lostudiodijoyce.it,3,7,3,"Apr 14 - May 02, May 06 - Nov 10, Nov 14 - Dec 31",Apr 14 - May 02,May 06 - Nov 10,Nov 14 - Dec 31,,,,,,45.6523431,13.7722986
60980,TRIESTE,TRIESTE,Comfort,Nebojsega di Svab Luka,Nebojsega ,Svab Luka,LOCALITA  S. CROCE,-,Località Centa,34,,,+39 348 5861205,+39 040 220197,info@nebojsega.com,http://www.nebojsega.com,1,4,1,"Jan 01 - Feb 01, Feb 12 - Nov 06, Nov 14 - Dec 31",Jan 01 - Feb 01,Feb 12 - Nov 06,Nov 14 - Dec 31,,,,,,,
65002,TRIESTE,TRIESTE,Comfort,Porto Vecchio di  Radovancev Jelena,,Radovancev Jelena,TRIESTE,-,Via Carlo Ghega,3,34132,+39 040 2601625,+39 342 8983401,,info@66trieste.com,,3,8,3,"Feb 01 - Feb 15, Mar 01 - Dec 31",Feb 01 - Feb 15,Mar 01 - Dec 31,,,,,,,45.6558257,13.7733208
70621,TRIESTE,TRIESTE,Comfort,Traveller Jack di Claudia Diano,Traveller Jack ,Claudia Diano,TRIESTE,-,Via Enea Silvio Piccolomini,3,34126,+39 349 7786032,+39 349 7786032,,claudia.diano81@gmail.com,,1,1,1,Mar 27 - Dec 15,Mar 27 - Dec 15,,,,,,,,45.6531293,13.7834937
47941,TRIESTE,TRIESTE,Comfort,Vastu Vidya di Gotti Pamela,Vastu Vidya ,Gotti Pamela,-,-,Via Muzzile,11,34100,,+39 338 3155841,,info@triestebbvastu.it,http://www.triestebbvastu.it,1,2,1,"Jan 01 - Jan 29, Mar 01 - Dec 31",Jan 01 - Jan 29,Mar 01 - Dec 31,,,,,,,,
39280,TRIESTE,TRIESTE,-,Aachen-furlan di Bocanegra Vidal Jhaira,,Vidal Jhaira,TRIESTE,-,Via Battistine,24,34100,,+39 338 2287085,,info@triestebedandbreakfast.it,http://www.triestebedandbreakfast.it,3,6,3,"Jan 01 - Jan 10, Mar 04 - Aug 20, Aug 28 - Dec 31",Jan 01 - Jan 10,Mar 04 - Aug 20,Aug 28 - Dec 31,,,,,,,
2642,TRIESTE,TRIESTE,-,Ad Hoc di Zocchi Vida,Ad Hoc ,Zocchi Vida,-,-,Via Paduina,4,34125,,+39 347 8310930,+39 040 4528661,zocchi-ts@libero.it,,2,8,2,"Jan 01 - Jan 20, Feb 01 - Feb 15, Mar 01 - Jun 15, Jun 18 - Dec 20",Jan 01 - Jan 20,Feb 01 - Feb 15,Mar 01 - Jun 15,Jun 18 - Dec 20,,,,,45.6508091,13.7814296
3901,TRIESTE,TRIESTE,-,Ai 7 Olivi di Cimenti Annalisa,Ai 7 Olivi ,Cimenti Annalisa,-,BARCOLA,Salita di Contovello,74,34136,+39 040 421086,+39 339 6054204,,annalisa.cimenti@email.it,http://www.bedandbreakfastai7olivitrieste.it,2,4,1,"Feb 06 - Feb 28, Mar 05 - Nov 16",Feb 06 - Feb 28,Mar 05 - Nov 16,,,,,,,45.6968282,13.7395284
37841,TRIESTE,TRIESTE,-,Ai Moretti di Moretti Marcello,Ai Moretti ,Moretti Marcello,TRIESTE,-,Piazza Venezia,1,34100,+39 040 2602063,+39 328 7692696,,info@aimoretti.it,http://www.aimoretti.it,3,6,2,"Jan 01 - Jan 07, Jan 25 - Jan 31, Feb 08 - Dec 31",Jan 01 - Jan 07,Jan 25 - Jan 31,Feb 08 - Dec 31,,,,,,45.6472023,13.7621355
2399,TRIESTE,TRIESTE,-,Al Ferdinandeo di Bon Marzia,Al Ferdinandeo ,Bon Marzia,-,-,Via dell'Eremo,231,34100,+39 040 912547,+39 340 6437734  338 1333522,,info@alferdinandeo.it,http://www.alferdinandeo.it,3,6,3,"Jan 01 - Jan 03, Mar 04 - Aug 25, Sep 02 - Dec 12, Dec 27 - Dec 31",Jan 01 - Jan 03,Mar 04 - Aug 25,Sep 02 - Dec 12,Dec 27 - Dec 31,,,,,,
36060,TRIESTE,TRIESTE,-,Al Ponterosso di Boschin Andrea,Al Ponterosso ,Boschin Andrea,TRIESTE,-,Piazza del Ponterosso,3,34121,+39 040 2600312,+39 349 0925955,,alponterosso@hotmail.com,http://www.alponterosso.it,2,5,2,"Jan 01 - Jan 10, Jan 26 - Feb 15, Mar 10 - Mar 28, Apr 12 - Oct 14, Nov 01 - Nov 07, Nov 25 - Dec 31",Jan 01 - Jan 10,Jan 26 - Feb 15,Mar 10 - Mar 28,Apr 12 - Oct 14,Nov 01 - Nov 07,Nov 25 - Dec 31,,,45.6516172,13.7719023
39481,TRIESTE,TRIESTE,-,Alla Scuderia di Schiavone Grazia,Alla Scuderia ,Schiavone Grazia,-,-,Via Monte San Gabriele,42,34100,+39 040 568304,+39 334 7028973,,graziapaticchio@libero.it,,2,4,1,Apr 01 - Nov 15,Apr 01 - Nov 15,,,,,,,,45.658649,13.7868865
45200,TRIESTE,TRIESTE,-,Allo Scoglio di Grieco Ruggero,Allo Scoglio ,Grieco Ruggero,-,-,Via dello Scoglio,51,,+39 040 2032367,+39 337 538750,+39 40575273,alloscoglio@libero.it,,3,6,1,"Jan 01 - Nov 06, Dec 05 - Dec 31",Jan 01 - Nov 06,Dec 05 - Dec 31,,,,,,,45.6576474,13.7952169
34640,TRIESTE,TRIESTE,-,Battisti di Rizzitelli Andrea,Battisti ,Rizzitelli Andrea,TRIESTE,-,Via Battistine,18,34100,+39 040 3498350,+39 340 7069970,+39 040 9772039,info@bb-battisti.it,http://www.bb-battisti.it,3,6,2,"Jan 01 - Jan 04, Jan 11 - Feb 10, Feb 18 - Mar 15, Mar 20 - May 02, May 20 - Dec 31",Jan 01 - Jan 04,Jan 11 - Feb 10,Feb 18 - Mar 15,Mar 20 - May 02,May 20 - Dec 31,,,,,
43720,TRIESTE,TRIESTE,-,Bbtrieste di Patrizia Garbassi,Bbtrieste ,Patrizia Garbassi,TRIESTE,-,Via Gallerio,3,34100,,+39 347 0394312,,bedandbreakfasttrieste@gmail.com,http://www.bb-trieste.it,3,5,3,"Jan 01 - Jan 09, Jan 16 - Jan 31, Feb 06 - Dec 31",Jan 01 - Jan 09,Jan 16 - Jan 31,Feb 06 - Dec 31,,,,,,,
40241,TRIESTE,TRIESTE,-,Bora di Trieste di Scherl Loredana,Bora di Trieste ,Scherl Loredana,-,-,Via della Raffineria,8,34100,+39 040 661988,+39 349 3511655,,boraditrieste@hotmail.com,http://www.boraditrieste.freshcreator.com,2,5,1,"Jan 01 - Jan 12, Jan 15 - Jan 25, Jan 29 - Feb 29, Mar 04 - Dec 31",Jan 01 - Jan 12,Jan 15 - Jan 25,Jan 29 - Feb 29,Mar 04 - Dec 31,,,,,45.6453618,13.7820475
3240,TRIESTE,TRIESTE,-,Bramasole di Giacometti Chiara,Bramasole ,Giacometti Chiara,-,-,Via dei Caldana,3,34148,,+39 338 3014621,,info@bramasoletrieste.it,http://www.bramasoletrieste.it,2,4,2,"Jan 01 - Jan 31, Feb 14 - Dec 31",Jan 01 - Jan 31,Feb 14 - Dec 31,,,,,,,45.6342204,13.7894558
2366,TRIESTE,TRIESTE,-,Decò di Torregiani Davide,Decò ,Torregiani Davide,-,-,Scala al Belvedere,2,34100,+39 040 411593,+39 329 2080021,,decobbtrieste@virgilio.it,http://www.decobbtrieste.tk,2,6,1,"Jan 01 - Jan 20, Feb 20 - Feb 27, Feb 28 - Dec 31",Jan 01 - Jan 20,Feb 20 - Feb 27,Feb 28 - Dec 31,,,,,,45.6591567,13.7719197
44980,TRIESTE,TRIESTE,-,Diana di Marchesich Diana,Diana ,Marchesich Diana,-,OPICINA,Via di Conconello,19,34100,+39 040 211380,+39 349 5070323,,diana@bb-trieste.com,http://www.bb-trieste.com,2,3,1,"Jan 01 - Jan 09, Jan 16 - Nov 17, Nov 25 - Dec 31",Jan 01 - Jan 09,Jan 16 - Nov 17,Nov 25 - Dec 31,,,,,,45.6850389,13.7914561
40060,TRIESTE,TRIESTE,-,Giulia di Gega Valentina,Giulia ,Gega Valentina,-,-,Via Giulia,53,34100,+39 040 2413249,+39 339 2525103,,giuliabeb@gmail.com,http://www.bbgiulia.it,2,4,2,"Jan 01 - Feb 08, Feb 15 - Nov 07, Nov 14 - Dec 31",Jan 01 - Feb 08,Feb 15 - Nov 07,Nov 14 - Dec 31,,,,,,45.6539867,13.7868766
34220,TRIESTE,TRIESTE,-,Il Melograno di Zamma Gallarati Fabio,,Gallarati Fabio,-,-,Via del Ghirlandaio,13,34138,,+39 333 6268291   333 3592541,+39 040 393641,info@ilmelogranotrieste.it,http://www.ilmelogranotrieste.it,3,6,2,"Jan 01 - Jan 11, Jan 18 - Feb 10, Feb 12 - Feb 25, Mar 01 - Mar 09, Mar 14 - Jun 21, Jun 27 - Sep 21, Sep 26 - Dec 22",Jan 01 - Jan 11,Jan 18 - Feb 10,Feb 12 - Feb 25,Mar 01 - Mar 09,Mar 14 - Jun 21,Jun 27 - Sep 21,Sep 26 - Dec 22,Dec 30 - Dec 31,45.6403526,13.7907168
2601,TRIESTE,TRIESTE,-,Katinando di Pugliatti Ferdinando,Katinando ,Pugliatti Ferdinando,-,-,Via Como,14,34100,+39 040 3220973,+39 338 9794455,+39 040 3220973,katinando@libero.it,,1,2,1,"Jan 01 - Jan 24, Feb 01 - Feb 23, Mar 01 - May 31, Jun 01 - Sep 30, Oct 01 - Dec 31",Jan 01 - Jan 24,Feb 01 - Feb 23,Mar 01 - May 31,Jun 01 - Sep 30,Oct 01 - Dec 31,,,,45.7541878,9.1236119
2582,TRIESTE,TRIESTE,-,Le Casite di  Cannavo  Alessandro,,,-,-,Località Cianal,100,34012,,+39 339 8464540,,info@lecasite.com,http://www.lecasite.com,4,8,4,"Jan 01 - Jan 25, Feb 05 - Nov 06, Nov 11 - Dec 31",Jan 01 - Jan 25,Feb 05 - Nov 06,Nov 11 - Dec 31,,,,,,,
42580,TRIESTE,TRIESTE,-,Palazzo Panfilli di Lincetto Silvana,Palazzo Panfilli ,Lincetto Silvana,-,-,Via della Geppa,2,34100,,+39 335 434587,,info@palazzopanfilli.it,http://www.palazzopanfilli.it,3,8,1,"Jan 01 - Jan 10, Jan 29 - Feb 14, Mar 01 - Dec 31",Jan 01 - Jan 10,Jan 29 - Feb 14,Mar 01 - Dec 31,,,,,,45.6555406,13.7727172
2440,TRIESTE,TRIESTE,-,Panorama di Villa Liana,Panorama ,Villa Liana,-,CONCONELLO,Via della Bellavista,77,34151,+39 040 414956,+39 348 3800475,,bruno.cavicchioli@alice.it,http://www.bbpanorama.eu,2,4,1,"Jan 01 - Jan 17, Feb 22 - Nov 12, Nov 19 - Dec 31",Jan 01 - Jan 17,Feb 22 - Nov 12,Nov 19 - Dec 31,,,,,,45.672155,13.7939724
2419,TRIESTE,TRIESTE,-,Priscilla di Kravanja Maria,Priscilla ,Kravanja Maria,-,-,Via Pasquale Revoltella,6,34138,+39 040 395941,+39 3497776298,,kravanja.maria@libero.it,,1,3,1,"Jan 01 - Jan 10, Jan 20 - Feb 20, Mar 01 - May 08, May 12 - Oct 18, Oct 23 - Dec 31",Jan 01 - Jan 10,Jan 20 - Feb 20,Mar 01 - May 08,May 12 - Oct 18,Oct 23 - Dec 31,,,,45.6419375,13.8021821
34940,TRIESTE,TRIESTE,-,Santa Caterina di Vassilich Roberta,Santa Caterina ,Vassilich Roberta,-,-,Via Santa Caterina,9,34100,,+39 335 6868099,,BBS.CATERINA@YAHOO.IT,,3,5,1,"Jan 01 - Jan 31, Feb 02 - Feb 22, Feb 26 - Dec 23, Dec 26 - Dec 31",Jan 01 - Jan 31,Feb 02 - Feb 22,Feb 26 - Dec 23,Dec 26 - Dec 31,,,,,45.6504318,13.7745
48160,UDINE,AIELLO DEL FRIULI,Comfort,La Meridiana di Cristin Claudia,La Meridiana ,Cristin Claudia,-,-,Via Patriarca, 1/a,33041,+39 0431 999818,,,cristinclaudia@libero.it,,2,4,2,Mar 01 - Nov 30,Mar 01 - Nov 30,,,,,,,,,
42560,UDINE,AIELLO DEL FRIULI,-,B & B Casa Medievale Del Mugnaio (1300),,,-,-,Località Novacco,7,33041,+39 0431 973831,+39 347 2603838,+39 0431 973831,antoniocastellaneta@teletu.it,http://casadelmugnaio.wix.com/B&B,2,3,2,Mar 01 - Nov 30,Mar 01 - Nov 30,,,,,,,,45.8596874,13.3428913
47680,UDINE,AQUILEIA,Superior,Casa di Giulia di Comelli Giuliamaria,Casa di Giulia ,Comelli Giuliamaria,-,-,Via Giulia Augusta,21,33051,+39 0431 918742,+39 349 8429796,,info@casadigiulia.it,http://www.casadigiulia.it,3,8,3,"Mar 16 - Oct 31, Nov 01 - Nov 06, Nov 23 - Dec 31",Mar 16 - Oct 31,Nov 01 - Nov 06,Nov 23 - Dec 31,,,,,,45.7742626,13.3655192
2471,UDINE,AQUILEIA,Superior,Casa Gioconda di Sfiligoi Rosanna,Casa Gioconda ,Sfiligoi Rosanna,MONASTERO,-,Via Bolivia,8,33051,+39 0431 91208,+39 339 7868037  340 8541485,,info@casagioconda.it,http://www.casagioconda.it,1,2,1,"Mar 01 - Oct 31, Dec 01 - Dec 31",Mar 01 - Oct 31,Dec 01 - Dec 31,,,,,,,45.7766593,13.3669277
63520,UDINE,AQUILEIA,Superior,Il Giardino di Beleno di Tullio Altan Silvia,,Altan Silvia,-,-,Località Beligna,38,33051,+39 0431 919219,,,staltan@teletu.it,,2,4,2,"Jan 01 - Jan 15, Mar 15 - Oct 15, Nov 15 - Dec 31",Jan 01 - Jan 15,Mar 15 - Oct 15,Nov 15 - Dec 31,,,,,,45.7654612,13.3825404
39320,UDINE,AQUILEIA,Standard,Al Ramo Rosso di Dovier Gabriele,Al Ramo Rosso ,Dovier Gabriele,-,-,Via Livia,3,33051,,+39 338 9502215  380 5246103,+39 0431 917495,ramorosso@libero.it,,2,3,2,"Jan 01 - Jan 07, Feb 17 - Apr 11, Apr 24 - Nov 01, Dec 01 - Dec 31",Jan 01 - Jan 07,Feb 17 - Apr 11,Apr 24 - Nov 01,Dec 01 - Dec 31,,,,,45.76747,13.3650945
45280,UDINE,AQUILEIA,Standard,Casa Disma di Mian Giovanni,Casa Disma ,Mian Giovanni,VILLA RASPA,-,Via Rosa Rosemberg,1,33051,+39 0431 918659,+39 338 8270804,,,,3,6,1,"Mar 01 - May 20, May 25 - Jun 30, Jul 05 - Aug 20, Aug 25 - Oct 30",Mar 01 - May 20,May 25 - Jun 30,Jul 05 - Aug 20,Aug 25 - Oct 30,,,,,45.7766111,13.3729525
46940,UDINE,AQUILEIA,Standard,Casa Maria di Bertogna Maria,Casa Maria ,Bertogna Maria,-,-,Via Rosa Rosemberg,7,33051,+39 0431 918659,,,,,4,8,4,"Jan 10 - Jan 15, Feb 10 - Mar 15, Mar 28 - May 05, May 10 - Jun 30, Jul 05 - Aug 25, Aug 30 - Sep 30, Oct 10 - Nov 15",Jan 10 - Jan 15,Feb 10 - Mar 15,Mar 28 - May 05,May 10 - Jun 30,Jul 05 - Aug 25,Aug 30 - Sep 30,Oct 10 - Nov 15,Dec 20 - Dec 30,45.7766111,13.3729525
46941,UDINE,AQUILEIA,Standard,Casa Norma di Lorenzut Norma,Casa Norma ,Lorenzut Norma,-,-,Via Rosa Rosemberg,19,33051,+39 0431 918664,,,,,4,8,4,"Mar 01 - Mar 28, Apr 01 - Apr 28, May 01 - Jun 28, Jul 01 - Aug 26, Sep 01 - Oct 30",Mar 01 - Mar 28,Apr 01 - Apr 28,May 01 - Jun 28,Jul 01 - Aug 26,Sep 01 - Oct 30,,,,45.7766111,13.3729525
40400,UDINE,AQUILEIA,Standard,La Magnolia di Hughes Margaret Lee,,Margaret Lee,-,-,Via Ruggero Grieco,5,33051,,+39 366 1431406,,lamagnoliabeb@libero.it,,1,2,1,"Jan 01 - Jan 15, Mar 15 - May 15, Jun 01 - Sep 30, Dec 01 - Dec 31",Jan 01 - Jan 15,Mar 15 - May 15,Jun 01 - Sep 30,Dec 01 - Dec 31,,,,,,
46942,UDINE,AQUILEIA,Standard,Tomat Luciano,,,-,-,Via Giulia Augusta,81,33051,+39 0431 91452,,,,,4,8,3,Mar 20 - Sep 20,Mar 20 - Sep 20,,,,,,,,45.7742626,13.3655192
49220,UDINE,AQUILEIA,Comfort,B&B Bassilla di Colpo Giuseppe,B&B Bassilla ,Colpo Giuseppe,-,-,Via Virginia Tonelli,4,33051,+39 0431 919101,+39 348 4056767,,bassilla@alice.it,http://bassilla.altervista.org,2,4,2,"Mar 05 - Oct 16, Dec 05 - Dec 31",Mar 05 - Oct 16,Dec 05 - Dec 31,,,,,,,,
63344,UDINE,AQUILEIA,Comfort,Fata Morgana di Polizzi Adele,Fata Morgana ,Polizzi Adele,-,-,Corso Antonio Gramsci,8,33051,,+39 333 3414018,,bbfatamorgana@gmail.com,,2,4,2,Apr 25 - Dec 31,Apr 25 - Dec 31,,,,,,,,45.7618626,13.3673709
56200,UDINE,ARTA TERME,Superior,Profum di Bosc di Pesamosca Maria Cristina,,Maria Cristina,ARTA TERME,PIANO D ARTA,Via Peressotti,56,33022,+39 0433 92528,,,cristina.pesamosca@gmail.com,,2,4,2,"Feb 08 - Feb 10, Feb 15 - Feb 17, Feb 22 - Feb 24, Mar 01 - Mar 17, Mar 29 - Oct 27, Nov 01 - Nov 03, Nov 29 - Dec 31",Feb 08 - Feb 10,Feb 15 - Feb 17,Feb 22 - Feb 24,Mar 01 - Mar 17,Mar 29 - Oct 27,Nov 01 - Nov 03,Nov 29 - Dec 31,,,
35500,UDINE,ARTA TERME,-,Sot I Volz di Di Ronco Daniela,,Ronco Daniela,-,PIANO D ARTA,Via Peressotti,36,33022,+39 0433 928796,+39 348 0659019,+39 0433 468615,info@sotivolz.it,http://www.sotivolz.it,1,3,1,"Jan 01 - Jan 06, Jan 12 - Jan 14, Jan 19 - Jan 21, Jan 26 - Mar 03, Mar 09 - Mar 11, Mar 16 - Mar 18, Mar 23 - Apr 07",Jan 01 - Jan 06,Jan 12 - Jan 14,Jan 19 - Jan 21,Jan 26 - Mar 03,Mar 09 - Mar 11,Mar 16 - Mar 18,Mar 23 - Apr 07,Apr 13 - Apr 15,,
68300,UDINE,ATTIMIS,Standard,Agane di Cericco Christian,Agane ,Cericco Christian,-,-,Borgo Cancellier,25,33040,+39 4321847986,+39 3388835582,,christian.cericco@hotmail.it,,3,5,1,"Mar 21 - May 22, Jun 03 - Jun 16, Jun 20 - Sep 11, Sep 26 - Oct 30",Mar 21 - May 22,Jun 03 - Jun 16,Jun 20 - Sep 11,Sep 26 - Oct 30,,,,,46.2029079,13.3438622
42440,UDINE,ATTIMIS,-,Al Pettirosso di Martinuzzi Cristina,Al Pettirosso ,Martinuzzi Cristina,Racchiuso,-,Piazza della Chiesa,1,33040,+39 432789038,,+39 432789757,,,3,5,3,"Jan 01 - Jan 31, Feb 16 - Dec 31",Jan 01 - Jan 31,Feb 16 - Dec 31,,,,,,,46.1664239,13.3254449
2511,UDINE,ATTIMIS,-,Casa Giuly di Braidotti Giuliana,Casa Giuly ,Braidotti Giuliana,-,RACCHIUSO,Via Canalutto,33,33040,+39 0432 789294,+39 333 7245729,+39 0432 789294,,,2,3,2,Apr 01 - Oct 30,Apr 01 - Oct 30,,,,,,,,46.1735117,13.3321553
40040,UDINE,ATTIMIS,-,Casa Tiziana di Longato Alessandro,Casa Tiziana ,Longato Alessandro,-,-,Via Campolongo,30,33040,+39 340 2415962,,,,,2,3,2,"Apr 01 - Oct 01, Dec 01 - Dec 31",Apr 01 - Oct 01,Dec 01 - Dec 31,,,,,,,46.1918384,13.3139603
39400,UDINE,BASILIANO,Standard,Villa Anita di Ferrazzutti Anita,Villa Anita ,Ferrazzutti Anita,-,Blessano,Via Damiano Chiesa,107,33031,+39 0432 848745,+39 320 0218972,+39 0432 848745,villanita.08@libero.it,http://www.villanita.com,3,6,2,Mar 01 - Nov 30,Mar 01 - Nov 30,,,,,,,,46.0448685,13.1238052
48500,UDINE,BERTIOLO,Standard,B&B Gil D O di D Olivo Ermenegildo,,Olivo Ermenegildo,-,-,Via Margherita,12,33032,,+39 339 4361865,,info@bebgildo.it,http://www.bebgildo.it,4,8,2,Jan 15 - Dec 15,Jan 15 - Dec 15,,,,,,,,45.9419328,13.0527025
44660,UDINE,BERTIOLO,-,Salvia E Rosmarino di Brisotto Claudia,Salvia E Rosmarino ,Brisotto Claudia,-,-,Piazza Mercato,7,33032,,+39 348 3042180,,snowleagle@yahoo.it,,3,7,3,"Jan 01 - Jan 09, Mar 01 - Nov 09, Dec 20 - Dec 31",Jan 01 - Jan 09,Mar 01 - Nov 09,Dec 20 - Dec 31,,,,,,45.9430823,13.0486584
36340,UDINE,BUJA,-,Cip & Ciop di Calligaro Davide,Cip & Ciop ,Calligaro Davide,-,MADONNA DI BUJA,Via Sopramonte,89,33030,+39 0432 961351,,,bedandbreakfastcipeciop@hotmail.it,http://www.bedandbreakfastcipeciop.it,2,6,2,"Jan 01 - Jan 15, Mar 01 - Nov 01, Dec 15 - Dec 31",Jan 01 - Jan 15,Mar 01 - Nov 01,Dec 15 - Dec 31,,,,,,46.2244819,13.1127581
62922,UDINE,BUTTRIO,Superior,Antica Liscivaia di Todone Francesca,Antica Liscivaia ,Todone Francesca,-,-,Via Tomasoni,3,33042,+39 0432 674022,,+39 0432 683270,francesca.todone@gmail.com,,1,3,1,Jan 01 - Dec 31,Jan 01 - Dec 31,,,,,,,,46.0170089,13.3362619
62923,UDINE,BUTTRIO,Superior,Antica Scuderia di  Todone Francesca,,Todone Francesca,-,-,Via Tomasoni,3,33042,+39 0432 674022,,+39 0432 683270,francesca.todone@gmail.com,,2,5,1,Jan 01 - Dec 31,Jan 01 - Dec 31,,,,,,,,46.0170089,13.3362619
70500,UDINE,BUTTRIO,Superior,B&B di Tondolo Raffaella,B&B ,Tondolo Raffaella,-,-,Via Rieppi, 29/3,33042,,+39 348 4402818,,raffy.sun@yahoo.it,,1,2,1,"Jan 01 - Oct 31, Dec 01 - Dec 31",Jan 01 - Oct 31,Dec 01 - Dec 31,,,,,,,46.0193598,13.3432967
2571,UDINE,CAMINO AL TAGLIAMENTO,-,Diamante di Diamante Giuseppe,Diamante ,Diamante Giuseppe,-,STRACCIS,Via Caneva,1,33030,+39 0432 919084,+39 338 1726193,,fam.diamante@libero.it,http://www.bedandbreakfastdiamante.it,2,4,2,"Mar 01 - Nov 05, Dec 03 - Dec 31",Mar 01 - Nov 05,Dec 03 - Dec 31,,,,,,,,
2517,UDINE,CAMINO AL TAGLIAMENTO,-,Villa Francesca di Casaril Francesca,Villa Francesca ,Casaril Francesca,-,-,Via Tagliamento,34,33030,+39 0432 919369,+39 339 1550310,+39 0432 919482,info@villafrancesca.org,,3,6,2,"Apr 05 - Apr 10, Apr 20 - Nov 05",Apr 05 - Apr 10,Apr 20 - Nov 05,,,,,,,45.9270775,12.936613
52260,UDINE,CAMPOFORMIDO,Standard,Benvenuti di Venuti Giancarlo,Benvenuti ,Venuti Giancarlo,-,BASALDELLA,Via Cormor,81,33030,+39 0432 237059,,,ciaolaurav27@libero.it,,2,4,2,"Jan 01 - Jan 15, Mar 16 - Jun 16, Jul 01 - Aug 24, Sep 01 - Nov 20, Dec 01 - Dec 31",Jan 01 - Jan 15,Mar 16 - Jun 16,Jul 01 - Aug 24,Sep 01 - Nov 20,Dec 01 - Dec 31,,,,46.0371446,13.2187286
65381,UDINE,CARLINO,Standard,B & B da Simon di Canciani Simonetta,B & B da Simon ,Canciani Simonetta,-,-,Via Nimis,9,33050,+39 0431 67607,+39 338 12340856,,simon.canciani@gmail.com,http://www.bb-dasimon.flazio.com,2,4,1,"Jan 01 - Jan 31, Apr 01 - Oct 31, Dec 01 - Dec 31",Jan 01 - Jan 31,Apr 01 - Oct 31,Dec 01 - Dec 31,,,,,,45.7758145,13.1684867
38860,UDINE,CARLINO,-,B&B da Manu di Zanutta Emanuela Angela,,Emanuela Angela,-,-,Via Grigoletti,13,33050,+39 0431 68068,,+39 0431 68068,info@bbmanuemichi.it,http://www.bbmanuemichi.it,3,6,3,"Jan 01 - Jan 05, Feb 11 - Jun 30, Aug 05 - Dec 14",Jan 01 - Jan 05,Feb 11 - Jun 30,Aug 05 - Dec 14,,,,,,,
38861,UDINE,CARLINO,-,B&B da Michi di Zanutta Michelina,B&B da Michi ,Zanutta Michelina,-,-,Via Grigoletti, 13/A,30050,+39 0431 687131,,+39 0431 687131,info@bbmanuemichi.it,http://www.bbmanuemichi.it,3,6,3,"Jan 01 - Feb 09, Mar 11 - Mar 29, Apr 08 - May 25, Jul 01 - Dec 31",Jan 01 - Feb 09,Mar 11 - Mar 29,Apr 08 - May 25,Jul 01 - Dec 31,,,,,,
64140,UDINE,CASSACCO,Standard,Casa Petris di Ortolan Luisa Cristina,,Luisa Cristina,CASSACCO,RASPANO,Via Palamazi,11,33010,,+39 340 3475828,,luisacris@virgilio.it,,2,5,2,"Jan 01 - Aug 10, Aug 20 - Oct 31, Dec 01 - Dec 31",Jan 01 - Aug 10,Aug 20 - Oct 31,Dec 01 - Dec 31,,,,,,46.1922129,13.1783167
35360,UDINE,CASSACCO,Comfort,Casa Gamberini Vista Castello di Gamberini Gilberto,Casa Gamberini Vista Castello ,Gamberini Gilberto,CASSACCO,-,Via Ellero,14,33010,+39 0432 852273,+39 3479665627,+39 432881617,info@gilbertogamberini.it,,4,8,4,"Jan 21 - Jan 28, Mar 10 - Mar 20, May 06 - May 20, Jul 08 - Jul 19, Sep 09 - Sep 15, Nov 11 - Nov 28",Jan 21 - Jan 28,Mar 10 - Mar 20,May 06 - May 20,Jul 08 - Jul 19,Sep 09 - Sep 15,Nov 11 - Nov 28,,,,
42642,UDINE,CASSACCO,-,Villa Gallici Deciani di Deciani Luigi,Villa Gallici Deciani ,Deciani Luigi,CASSACCO,MONTEGNACCO,Via Gallici,27,33010,+39 0432851487,,+39 0432851487,info@deciani.it,http://www.deciani.it,3,6,3,Jan 15 - Dec 15,Jan 15 - Dec 15,,,,,,,,46.1795675,13.1976012
2377,UDINE,CASTIONS DI STRADA,Superior,Bed&breakfast Basello di Basello Silviano,Bed&breakfast Basello ,Basello Silviano,-,-,Vicolo Cornelio Gallo, 7/B,33050,+39 0432 768743,+39 349 5643223,,basello.e@tiscali.it,http://www.basellosilviano.it,3,6,2,"Jan 01 - Sep 30, Oct 26 - Dec 31",Jan 01 - Sep 30,Oct 26 - Dec 31,,,,,,,45.9083684,13.1867051
50360,UDINE,CAVAZZO CARNICO,Standard,A Li  Dal Cuac di Rulli Mattia,A Li  Dal Cuac ,Rulli Mattia,CAVAZZO CARNICO,-,Via San Rocco,30,33020,,+39 347 4327750     388 7623189,,rullimattia@libero.it,,4,5,1,"Jan 01 - Jan 15, Apr 01 - Nov 15, Dec 15 - Dec 31",Jan 01 - Jan 15,Apr 01 - Nov 15,Dec 15 - Dec 31,,,,,,46.3697556,13.0435029
60540,UDINE,CAVAZZO CARNICO,Standard,Cjase Me di Ceretti Barbara,Cjase Me ,Ceretti Barbara,-,-,Villaggio Navalascia,4,,,+39 3477726918,,bbcjaseme@gmail.com,,2,4,1,Aug 20 - Dec 31,Aug 20 - Dec 31,,,,,,,,46.3537799,13.051515
33760,UDINE,CERCIVENTO,-,In Plait di De Stales William,,Stales William,-,-,Via di Sot,51,33020,,+39 329 6636487  346 5982771,,inplait@yahoo.it,http://www.inplait.com,3,6,3,"Jan 01 - Mar 20, Apr 01 - Apr 25, May 01 - May 25, Jun 01 - Jun 30, Jul 08 - Sep 15, Oct 01 - Oct 20, Nov 01 - Nov 15",Jan 01 - Mar 20,Apr 01 - Apr 25,May 01 - May 25,Jun 01 - Jun 30,Jul 08 - Sep 15,Oct 01 - Oct 20,Nov 01 - Nov 15,Dec 04 - Dec 31,46.5272372,12.9929113
2413,UDINE,CERVIGNANO DEL FRIULI,Superior,Casa Breta di Versolatto Rita,Casa Breta ,Versolatto Rita,-,-,Via Carnia,15,33052,+39 0431 31803,+39 347 3391362,+39 0431 382320,casabreta@tiscali.it,,4,8,4,Mar 01 - Dec 31,Mar 01 - Dec 31,,,,,,,,45.835359,13.3305344
38720,UDINE,CERVIGNANO DEL FRIULI,Superior,Villa Vitas di Vitas Elisabetta,Villa Vitas ,Vitas Elisabetta,-,STRASSOLDO,Via San Marco,3,33052,+39 0431 93083,+39 393 9254294,+39 0431 93101,elisabetta.vitas@libero.it,http://www.villavitas.it,2,6,2,"Jan 01 - Jan 15, Apr 01 - Oct 30, Dec 15 - Dec 31",Jan 01 - Jan 15,Apr 01 - Oct 30,Dec 15 - Dec 31,,,,,,45.8608219,13.3222407
35940,UDINE,CERVIGNANO DEL FRIULI,Standard,A Casa Azzurra di Alice di Salvador Giuliana,A Casa Azzurra di Alice ,Salvador Giuliana,-,-,Via Trieste,94,33052,+39 0431 30552,+39 338 7469658,,salvador.giuliana@gmail.com,,2,3,1,"Jan 01 - Feb 15, Mar 01 - Oct 15, Nov 01 - Dec 31",Jan 01 - Feb 15,Mar 01 - Oct 15,Nov 01 - Dec 31,,,,,,45.8204436,13.3379521
34020,UDINE,CERVIGNANO DEL FRIULI,Standard,A Casa di Rossana di Felicetti Rosanna,A Casa di Rossana ,Felicetti Rosanna,-,-,Via Dante Alighieri,13,33052,+39 0431 32540,+39 329 2670741,,rosanna.felicetti@libero.it,http://www.bbfriuli.it,2,4,2,"May 10 - Sep 20, Oct 30 - Dec 10",May 10 - Sep 20,Oct 30 - Dec 10,,,,,,,45.821803,13.3348954
72081,UDINE,CERVIGNANO DEL FRIULI,Standard,Tortul Patrizia,,,-,-,Via Lung'Ausa,16,33052,,+39 340 9249124,,,,1,2,1,Jan 01 - Dec 31,Jan 01 - Dec 31,,,,,,,,,
50900,UDINE,CERVIGNANO DEL FRIULI,-,Ai Glicini di  Buttignon Sandra,,Buttignon Sandra,-,-,Via L. Chiozza,43,33052,+39 0431 909983,+39 346 4310890,,sandrabuttignon@tiscali.it,,2,6,2,Mar 01 - Oct 10,Mar 01 - Oct 10,,,,,,,,45.8219549,13.3513387
72082,UDINE,CERVIGNANO DEL FRIULI,-,Casa Giacinta di Zorzenon Alessandra,Casa Giacinta ,Zorzenon Alessandra,-,-,Via dei Campi,18,33052,,+39 349 2165695,,alessandrasorsenon@gmail.com,,1,2,1,Jan 01 - Dec 31,Jan 01 - Dec 31,,,,,,,,45.8171132,13.3366941
49221,UDINE,CERVIGNANO DEL FRIULI,-,Pileria Del Riso,,Del Riso,-,-,Via dei Castelli,21,33052,,+39 388 9255212,+39 0431 19892056,info@castellodistrassoldo.it,http://www.castellodistrassoldo.it,4,4,4,Mar 15 - Nov 15,Mar 15 - Nov 15,,,,,,,,45.8600089,13.323273
33881,UDINE,CIVIDALE DEL FRIULI,Superior,Da Gilberto di Pavan Gilberto,Da Gilberto ,Pavan Gilberto,-,GAGLIANO,Via Gagliano, 40/3,33043,+39 0432 730107,+39 334 9158540,,info@locandadagilberto.it,http://www.locandadagilberto.it,3,8,3,"Jan 01 - Jan 08, Feb 15 - Dec 31",Jan 01 - Jan 08,Feb 15 - Dec 31,,,,,,,46.0742631,13.4354196
51540,UDINE,CIVIDALE DEL FRIULI,Superior,Domus Iulii di Paiani Francesca,Domus Iulii ,Paiani Francesca,-,-,Borgo Poiana,8,33043,,+39 333 6737042  347 7776179 dopo ore 12.00,,domusiulii@alice.it,,4,8,4,"Jan 01 - Feb 03, Feb 09 - Nov 05, Nov 15 - Dec 31",Jan 01 - Feb 03,Feb 09 - Nov 05,Nov 15 - Dec 31,,,,,,,
2567,UDINE,CIVIDALE DEL FRIULI,Superior,La Piccola Fattoria di Pugliese Nadalut Claudia,,Nadalut Claudia,-,GRUPIGNANO,Via Premariacco, 81/83,33043,+39 0432 731605,+39 349 0980657,+39 0432 731605,lapiccolafattoria@alice.it,http://www.lapiccolafattoria.eu,2,4,2,"Jan 01 - Jan 31, Feb 10 - Dec 31",Jan 01 - Jan 31,Feb 10 - Dec 31,,,,,,,46.0873752,13.4166924
59880,UDINE,CIVIDALE DEL FRIULI,Superior,Piccola Corte di Cividale di Zamparo Anna Maria,,Anna Maria,-,-,Piazza San Giovanni, 22/3,33043,,+39 335 7071898,,Piccola.Corte.Cividale@gmail.com,,2,3,2,"Jul 07 - Nov 15, Dec 01 - Dec 31",Jul 07 - Nov 15,Dec 01 - Dec 31,,,,,,,46.095101,13.4317152
58020,UDINE,CIVIDALE DEL FRIULI,Superior,Sot La Mont di Zanutto Valnea,Sot La Mont ,Zanutto Valnea,-,-,Strada di Gradois,60,33043,,+39 328 7117259,,,,3,7,3,,,,,,,,,,46.1096289,13.4567982
55720,UDINE,CIVIDALE DEL FRIULI,Standard,Aurora di Scubla Elisa,Aurora ,Scubla Elisa,-,-,Vicolo San Nicolò,11,33043,,+39 388 1272741,,info@bedandbreakfastcividale.it,http://www.bedandbreakfastcividale.it,2,4,1,Jan 01 - Dec 31,Jan 01 - Dec 31,,,,,,,,,
62160,UDINE,CIVIDALE DEL FRIULI,Standard,B. & B. Milena di Aviani Fulvio Mario,,Fulvio Mario,-,-,Via Alcide de Gasperi,7,33043,+39 0432 733459,+39 347 2313594,+39 0432 733459,marioavifu@libero.it,,3,5,2,Nov 21 - Dec 31,Nov 21 - Dec 31,,,,,,,,46.0918294,13.4271015
71524,UDINE,CIVIDALE DEL FRIULI,Standard,Ca Neva di Armellini Gianna,Ca Neva ,Armellini Gianna,-,-,Via San Giorgio, 21/1,,,+39 348 7145178   340 2614461,,gianna.armellini@gmail.com,,4,8,2,Apr 01 - Oct 31,Apr 01 - Oct 31,,,,,,,,46.0821598,13.4274625
2557,UDINE,CIVIDALE DEL FRIULI,Standard,Casa Ivana di Maion Gino,Casa Ivana ,Maion Gino,-,PURGESSIMO,Via Roncuz,6,33043,+39 0432 730036,,,,,2,4,1,Mar 01 - Nov 30,Mar 01 - Nov 30,,,,,,,,46.1018267,13.4777008
33421,UDINE,CIVIDALE DEL FRIULI,Standard,Da Renza di Rossi Bruno,Da Renza ,Rossi Bruno,AL GALLO,-,Via Antonio Mattioni,26,33043,+39 0432 733203,+39 339 4206518,,renzabruno@libero.it,,2,5,1,"Apr 01 - May 30, Jul 01 - Jul 30, Aug 18 - Oct 30",Apr 01 - May 30,Jul 01 - Jul 30,Aug 18 - Oct 30,,,,,,46.0899559,13.4183527
2654,UDINE,CIVIDALE DEL FRIULI,Standard,Il Gelsomino di Dominissini Francesca,Il Gelsomino ,Dominissini Francesca,-,-,Via Matteotti, 11/2,33043,+39 0432 731962,,,,,2,4,1,"Mar 01 - Jun 30, Jul 10 - Aug 25, Sep 15 - Dec 30",Mar 01 - Jun 30,Jul 10 - Aug 25,Sep 15 - Dec 30,,,,,,,
2503,UDINE,CIVIDALE DEL FRIULI,Standard,Le Azalee di Pecorari Danilo,Le Azalee ,Pecorari Danilo,-,RUALIS,Via dei Miani,18,33043,,+39 347 5509280,,,,2,5,1,"Jan 01 - Jan 10, Mar 01 - Oct 31, Nov 30 - Dec 31",Jan 01 - Jan 10,Mar 01 - Oct 31,Nov 30 - Dec 31,,,,,,46.0856168,13.4287132
2634,UDINE,CIVIDALE DEL FRIULI,Standard,Le Margherite di Vogrig Rosina,Le Margherite ,Vogrig Rosina,-,-,Via Michele Leicht,19,33043,+39 0432 733172,,+39 0432 733172,rosinavogrig@gmail.com,,2,4,1,"Mar 26 - Aug 12, Aug 26 - Dec 23",Mar 26 - Aug 12,Aug 26 - Dec 23,,,,,,,46.0963181,13.4401401
2415,UDINE,CIVIDALE DEL FRIULI,Standard,Marisa di Canzutti Marisa,Marisa ,Canzutti Marisa,-,MADRIOLO,Via Purgessimo, 40/1,33043,,+39 348 9205741,+39 0432 700119,ccmarisa@libero.it,,3,6,1,Jan 07 - Dec 24,Jan 07 - Dec 24,,,,,,,,46.094849,13.4509975
33880,UDINE,CIVIDALE DEL FRIULI,Standard,Villa Ester di Simonitti Dea,Villa Ester ,Simonitti Dea,-,GRUPIGNANO,Via Anton Giulio Cavarzerani,39,33043,+39 0432 733324,+39 333 9830787,,villa.ester@alice.it,,2,4,1,"Mar 15 - Oct 31, Dec 01 - Dec 31",Mar 15 - Oct 31,Dec 01 - Dec 31,,,,,,,46.0888482,13.4175201
2430,UDINE,CIVIDALE DEL FRIULI,Comfort,Al Nid di Boscutti Carlo,Al Nid ,Boscutti Carlo,-,GRUPIGNANO,Via Premariacco, 89/4,33043,,+39 346 2363950,,al-nid@libero.it,,3,6,3,"Jan 01 - Feb 15, Mar 01 - Dec 31",Jan 01 - Feb 15,Mar 01 - Dec 31,,,,,,,46.0873752,13.4166924
71561,UDINE,CIVIDALE DEL FRIULI,Comfort,B&B Ergira di  Rucli Manuela,,Rucli Manuela,-,-,Via Gagliano, 30/B,,,+39 347 9972696,,bandbergira@gmail.com,,3,8,3,Jan 01 - Dec 31,Jan 01 - Dec 31,,,,,,,,46.0742631,13.4354196
34700,UDINE,CIVIDALE DEL FRIULI,Comfort,Casa Carbonara di Alvarez Remesal Rafael Angel,,Rafael Angel,-,-,Via Borgo San Domenico, 3/2,33043,+39 0432 732594,+39 339 2181841,+39 0432 732594,casacarbonara@gmail.com,http://www.casacarbonara.com,2,6,2,"Jan 01 - Jan 03, Jan 05 - Dec 31",Jan 01 - Jan 03,Jan 05 - Dec 31,,,,,,,46.0977205,13.4285643
41740,UDINE,CIVIDALE DEL FRIULI,Comfort,Da Patty di Vogrig Silvana,Da Patty ,Vogrig Silvana,-,-,Via Monte Matajur,8,33043,+39 0432 701084,+39 340 9548411,+39 0432 701084,bebpatty@libero.it,,2,3,2,"Jan 01 - Jan 10, Apr 01 - Dec 31",Jan 01 - Jan 10,Apr 01 - Dec 31,,,,,,,46.0959272,13.43286
62920,UDINE,CODROIPO,Standard,Fiori di Maggio di Zoffi Maria Rosa,,Maria Rosa,-,MUSCLETTO,Via Roveredo,4,33033,+39 0432 909713,+39 347 3105216,,beb.fioridimaggio@gmail.com,,3,6,2,"Apr 21 - Sep 27, Oct 29 - Nov 08, Dec 02 - Dec 31",Apr 21 - Sep 27,Oct 29 - Nov 08,Dec 02 - Dec 31,,,,,,45.9098872,13.0031776
47821,UDINE,CODROIPO,Comfort,Abbastanza di Scanferlato Chiara,Abbastanza ,Scanferlato Chiara,-,BEANO,Vicolo Chiuso,23,33033,+39 432900100,+39 3498197512,,c.scanferlato@gmail.com,,1,2,1,Sep 01 - Sep 30,Sep 01 - Sep 30,,,,,,,,45.995637,13.025972
63341,UDINE,CODROIPO,Comfort,Rossella di Tosatto Rossella,Rossella ,Tosatto Rossella,-,BEANO,Via Ferrovia,6,33033,+39 0432 907815,+39 338 6618732,,rossella.tosatto@gmail.com,,1,2,1,Jan 01 - Nov 30,Jan 01 - Nov 30,,,,,,,,45.995316,13.0277285
41860,UDINE,CODROIPO,-,Al Picchio Rosso,,Picchio Rosso,-,-,Via Piave,38,33033,+39 0432 904350,+39 348 8295875  348 4084016,+39 0432 904350,giuli.danieli@email.it,http://www.alpicchiorosso.it,2,4,2,"Jan 01 - Feb 01, Feb 20 - Dec 31",Jan 01 - Feb 01,Feb 20 - Dec 31,,,,,,,45.9623109,12.9717587
64680,UDINE,COLLOREDO DI MONTE ALBANO,Comfort,Casa E Natura di Mercogliano Gilda,Casa E Natura ,Mercogliano Gilda,-,CODUGNELLA,Via E. Ellero,51,33010,+39 0432 889783,+39 339 2496244,,amministrazione@praticabenessere.it,,1,4,1,"Mar 15 - Aug 16, Sep 01 - Dec 10",Mar 15 - Aug 16,Sep 01 - Dec 10,,,,,,,,
66080,UDINE,COLLOREDO DI MONTE ALBANO,Comfort,Nella Terra di Mezzo di Presello Marco,Nella Terra di Mezzo ,Presello Marco,-,CAPORIACCO,Via San Daniele,7,33010,,+39 335 6791572,,marco_pisi@pec.it,http://www.nellaterradimezzo.com,2,7,2,Mar 01 - Dec 31,Mar 01 - Dec 31,,,,,,,,46.1480985,13.0896447
57120,UDINE,COLLOREDO DI MONTE ALBANO,-,B&B Dora di Lodolo Clara,B&B Dora ,Lodolo Clara,-,-,Via Lauzzana,56,33010,,+39 339 3979449,,bedbreakfastdora@gmail.com,,3,5,2,"Jan 01 - Sep 20, Dec 20 - Dec 31",Jan 01 - Sep 20,Dec 20 - Dec 31,,,,,,,46.1608298,13.1337737
51360,UDINE,CORNO DI ROSAZZO,Standard,B & B La Casa Del Pozzo di  Arrigoni Laura,,Arrigoni Laura,-,-,Località Gramogliano, 13/B,33040,,+39 333 9788898,,bblacasadelpozzo@gmail.com,,2,4,1,Apr 01 - Oct 15,Apr 01 - Oct 15,,,,,,,,46.0043779,13.4432816
50481,UDINE,CORNO DI ROSAZZO,Standard,B & B La Salette,,La Salette,-,-,Via Papa Giovanni XXIII°,12,33040,+39 0432 759655,+39 348 7155211,,laura.crucil@libero.it,,2,4,1,Apr 01 - Oct 31,Apr 01 - Oct 31,,,,,,,,,
65901,UDINE,CORNO DI ROSAZZO,Comfort,Al Gjal di Pezzano Patrizia,Al Gjal ,Pezzano Patrizia,-,-,Via Casali,3,33040,+39 0432 753513,,+39 0432 753513,,,3,6,3,Apr 01 - Oct 31,Apr 01 - Oct 31,,,,,,,,,
2424,UDINE,CORNO DI ROSAZZO,-,Casa 2 Tigli di Carpenetti Umberto,Casa 2 Tigli ,Carpenetti Umberto,VISINALE DELLO JUDRO,-,Via San Martino,4,33040,+39 0432 753263,+39 320 6314851,+39 0432 753263,casaduetigli@yahoo.it,http://www.casaduetigli.it,3,6,2,"Mar 20 - Jul 05, Jul 20 - Dec 31",Mar 20 - Jul 05,Jul 20 - Dec 31,,,,,,,45.9789962,13.4478798
34000,UDINE,CORNO DI ROSAZZO,-,Vendramin Silvana,,,-,-,Via Judrio,14,33040,+39 432759090,+39 3381503163,,,,3,6,1,Feb 01 - Dec 31,Feb 01 - Dec 31,,,,,,,,45.9878725,13.4488377
36380,UDINE,COSEANO,-,Ai Profumi di Campagna di Peloso Plinio E Andreutti Anna Maria,,Anna Maria,-,CISTERNA,Via del Varmo,54,33030,+39 0432  862012,+39 340 8682502,+39 0432 862012,haiprofumidicampagna@alice.it,,2,4,1,Jan 01 - Oct 31,Jan 01 - Oct 31,,,,,,,,46.0866937,12.9897186
40000,UDINE,COSEANO,-,Antica Casa Mattiussi di Mattiussi Nadea,Antica Casa Mattiussi ,Mattiussi Nadea,BARAZZETTO,-,Via del Suei,16,33030,+39 0432 297969,+39 338 6267475,,nadea_mattiussi@yahoo.it,,2,4,2,Jul 01 - Aug 31,Jul 01 - Aug 31,,,,,,,,,
39500,UDINE,COSEANO,-,Borc di Sore di Baldassi Michela,Borc di Sore ,Baldassi Michela,-,BARAZZETTO,Via Maggiore,28,33030,,+39 328 0275561,,kismo@tiscali.it,http://www.alcacciatore.it,3,5,3,"Jan 01 - Jan 31, Mar 01 - Sep 30, Dec 01 - Dec 31",Jan 01 - Jan 31,Mar 01 - Sep 30,Dec 01 - Dec 31,,,,,,46.0601655,13.0304233
2623,UDINE,DIGNANO,-,Casa Pirona di Bortolan Maria,Casa Pirona ,Bortolan Maria,-,CAPOLUOGO,Via Garibaldi,25,33030,+39 0432 951215,+39 339 6813452,+39 0432 200875,emanuelecojutti@libero.it,,3,6,3,Apr 15 - Oct 15,Apr 15 - Oct 15,,,,,,,,44.9598704,13.8495412
38980,UDINE,DIGNANO,-,Casa Regina di Orlando Ludovico,Casa Regina ,Orlando Ludovico,-,CARPACCO,Via Cavour,11,33030,+39 0432 956478,+39 334 6844944,+39 0432 956478,or.amelio@alice.it,,2,4,2,"Jan 01 - Jan 15, Mar 01 - Nov 01, Dec 01 - Dec 31",Jan 01 - Jan 15,Mar 01 - Nov 01,Dec 01 - Dec 31,,,,,,,
2496,UDINE,DRENCHIA,-,Arcobaleno di Cicigoi Diego,Arcobaleno ,Cicigoi Diego,-,-,Località Drenchia Inferiore,14,33040,,+39 3928129640,,,,1,2,1,Jun 01 - Sep 30,Jun 01 - Sep 30,,,,,,,,46.184141,13.6349905
2497,UDINE,DRENCHIA,-,Le Ortensie di Tomasetig Luigia,Le Ortensie ,Tomasetig Luigia,-,-,Località Piuma,5,33040,+39 0432 721055,,+39 0432 721055,le_ortensie@libero.it,,3,6,2,Jun 01 - Sep 30,Jun 01 - Sep 30,,,,,,,,,
2465,UDINE,FAEDIS,-,Ai Nove Castelli di Depetris Matteo,Ai Nove Castelli ,Depetris Matteo,-,-,Via Udine,63,33040,+39 0432 728959,,+39 0432 718728,matteode@libero.it,,2,2,1,"Mar 01 - May 15, May 30 - Jul 10, Aug 01 - Oct 30, Nov 15 - Dec 31",Mar 01 - May 15,May 30 - Jul 10,Aug 01 - Oct 30,Nov 15 - Dec 31,,,,,46.1348809,13.3354288
34681,UDINE,FAEDIS,-,Alla Corte Dei Molini di Ronchi Angela,Alla Corte Dei Molini ,Ronchi Angela,-,-,Via dei Molini,59,33040,+39 0432 728606,+39 338 3985059,+39 0432 728606,cortedeimolini@libero.it,http://www.cortedeimolini.it,2,5,2,"Apr 01 - May 25, Jun 15 - Sep 30, Dec 01 - Dec 31",Apr 01 - May 25,Jun 15 - Sep 30,Dec 01 - Dec 31,,,,,,46.1521455,13.3493571
2382,UDINE,FAEDIS,-,Uma di Tusini Luigina,Uma ,Tusini Luigina,-,RASCHIACCO,Via Canaletto,36,33040,+39 0432 711338,+39 349 2335831,,luiginatusini@yahoo.it,http://www.casauma.com,1,4,1,"Nov 03 - Nov 20, Dec 20 - Dec 31",Nov 03 - Nov 20,Dec 20 - Dec 31,,,,,,,,
59080,UDINE,FAGAGNA,Superior,Stop & Sleep On The Hills Fagagna di  Zanor Loris,,Zanor Loris,FAGAGNA,-,Via Umberto I,74,33034,+39 0432 800639,+39 338 3574328,,loriszanor@gmail.com,,2,4,2,Feb 01 - Dec 31,Feb 01 - Dec 31,,,,,,,,46.1164942,13.0834833
43800,UDINE,FAGAGNA,Standard,Da Zemi E Lino,,E Lino,-,-,Via Udine,63,33034,+39 0432 800172,,,zemiralino@yahoo.it,,3,5,1,Apr 01 - Oct 31,Apr 01 - Oct 31,,,,,,,,46.1508328,13.0678251
65701,UDINE,FIUMICELLO,Superior,Villa Madi di  Timpano Manuela,,Timpano Manuela,-,SAN LORENZO,Via don Carmelo Weffort,10,33050,,+39 347 1062668 / 348 9202615,,madi2008@alice.it,http://www.villamadi.com,1,4,1,"Feb 01 - Feb 14, Mar 06 - Mar 13, Mar 19 - Oct 16, Oct 29 - Nov 06",Feb 01 - Feb 14,Mar 06 - Mar 13,Mar 19 - Oct 16,Oct 29 - Nov 06,,,,,45.7737327,13.410365
66861,UDINE,FIUMICELLO,Standard,Tibu  di Salvini Cristina,Tibu  ,Salvini Cristina,-,-,Via Giacomo Matteotti,36,33050,,+39 340 7756824,,alecrisara@gmail.com,http://bbtibu.it,3,6,2,"Jan 01 - Jan 10, Apr 01 - Jun 12, Jun 19 - Sep 04, Sep 11 - Nov 06, Dec 01 - Dec 31",Jan 01 - Jan 10,Apr 01 - Jun 12,Jun 19 - Sep 04,Sep 11 - Nov 06,Dec 01 - Dec 31,,,,45.7904305,13.3967417
55500,UDINE,FLAIBANO,Superior,Da Luisa di Tosoratti Maria Luisa,,Maria Luisa,-,-,Via divisione Julia,12,33030,+39 0432 869269,+39 349 5407517,,massimiliano.fabbro@gmail.com,,1,3,1,Mar 01 - Dec 30,Mar 01 - Dec 30,,,,,,,,46.0599047,12.983589
55680,UDINE,FORGARIA NEL FRIULI,Standard,Da Gi & Jo di Ortali Giovanni,Da Gi & Jo ,Ortali Giovanni,-,SAN ROCCO,Via Belvedere,1,33030,+39 0427 808314,+39 339 2717999,+39 0427 808314,giuliamondolo@libero.it,,2,6,1,"Jan 01 - Jan 31, Jul 10 - Dec 31",Jan 01 - Jan 31,Jul 10 - Dec 31,,,,,,,46.2274033,12.9988402
70580,UDINE,FORGARIA NEL FRIULI,Standard,La Casetta In Canadá di Coletti Bruno,La Casetta In Canadá ,Coletti Bruno,-,-,Via Villaggio Canada,13,33030,,+39 329 7229228,,150366@gmail.com,http://www.dormireinfvg.it,2,4,1,"Jan 01 - Jan 08, Jan 21 - Nov 08, Nov 21 - Dec 31",Jan 01 - Jan 08,Jan 21 - Nov 08,Nov 21 - Dec 31,,,,,,46.221917,12.9681108
36482,UDINE,FORGARIA NEL FRIULI,-,Bundi  E Buinanot di Zuliani Massimiliano,Bundi  E Buinanot ,Zuliani Massimiliano,-,-,Via Coletti,7,33030,+39 0427 808013,+39 347 0737298,,emax.em@libero.it,,2,3,1,"Jan 01 - Jan 15, Mar 15 - May 02, May 15 - Jun 10, Jun 15 - Aug 31, Sep 05 - Nov 05, Dec 05 - Dec 31",Jan 01 - Jan 15,Mar 15 - May 02,May 15 - Jun 10,Jun 15 - Aug 31,Sep 05 - Nov 05,Dec 05 - Dec 31,,,46.2251447,12.9761688
2481,UDINE,FORNI AVOLTRI,-,Campo Dei Fiori di Del Fabbro Umberto,,Fabbro Umberto,BORGO CAMPO,-,Corso Italia,35,33020,+39 0433 727478,+39 331 1304537,,campodeifiori@bbcarnia.it,http://www.bbcarnia.it,2,6,2,"Jan 01 - Mar 15, Jun 01 - Aug 11, Dec 26 - Dec 31",Jan 01 - Mar 15,Jun 01 - Aug 11,Dec 26 - Dec 31,,,,,,46.5847382,12.779082
71722,UDINE,FORNI AVOLTRI,-,Durmi E Insumiasci di Del Fabbro Maddalena,,Fabbro Maddalena,-,-,Via 4 novembre,2,33020,,+39 320 5638966,,,,2,4,1,Jan 01 - Dec 31,Jan 01 - Dec 31,,,,,,,,,
2363,UDINE,FORNI AVOLTRI,-,La Casa Delle Streghe di Michel Annalisa,La Casa Delle Streghe ,Michel Annalisa,FR. COLLINETTA,-,Via Tors,20,33020,,+39 349 2326637,,annalisa.michel@gmail.com,,3,6,2,"Jan 01 - Apr 01, May 01 - Sep 30, Dec 01 - Dec 31",Jan 01 - Apr 01,May 01 - Sep 30,Dec 01 - Dec 31,,,,,,46.581658,12.839807
2614,UDINE,FORNI AVOLTRI,-,Le Genziane di Agostinis Felicita,Le Genziane ,Agostinis Felicita,-,-,Via Belluno,19,33020,+39 0433 72195,+39 338 4945690,,legenziane@bbcarnia.it,http://www.bbcarnia.it,1,4,1,"Jan 01 - Mar 31, Jun 01 - Sep 01, Dec 01 - Dec 31",Jan 01 - Mar 31,Jun 01 - Sep 01,Dec 01 - Dec 31,,,,,,46.5856941,12.7733358
56380,UDINE,GEMONA DEL FRIULI,Standard,Centro Storico di Gollino Magda,Centro Storico ,Gollino Magda,-,-,Via Fossalat,5,33013,+39 0432983215,+39 3478266001,,magdagollino@gmail.com,,1,2,1,"Jan 01 - Jan 09, Feb 10 - Dec 31",Jan 01 - Jan 09,Feb 10 - Dec 31,,,,,,,,
2507,UDINE,GRIMACCO,-,Casa Josul di Feletig Alessandra,Casa Josul ,Feletig Alessandra,CLODIG,CLODIG,Via Cloz,28,33040,+39 0432 725034,,,,,2,4,1,Feb 01 - Nov 30,Feb 01 - Nov 30,,,,,,,,,
47780,UDINE,LATISANA,Standard,4 Chiacchiere di Pez Albina,4 Chiacchiere ,Pez Albina,PALUDO,-,Via Damiano Chiesa,46,33053,,+39 346 8724006,+39 0431 510622,dasabrina@hotmail.it,,2,3,1,Jun 01 - Aug 29,Jun 01 - Aug 29,,,,,,,,45.772908,13.0147866
46780,UDINE,LATISANA,Standard,B&B Al Ponte di Grando Claudia,B&B Al Ponte ,Grando Claudia,LATISANA,BEVAZZANA,Via del Capricorno,6,33053,+39 0431 096082,+39 348 8071643,,claudiagrando@libero.it,,3,6,2,"Jan 01 - Jan 10, Mar 01 - Oct 31, Dec 20 - Dec 31",Jan 01 - Jan 10,Mar 01 - Oct 31,Dec 20 - Dec 31,,,,,,45.6783415,13.0812242
63360,UDINE,LATISANA,Standard,Casa Volton di Monica D Angelo,,D Angelo,LATISANA,BEVAZZANA,Via Volton,13,33053,+39 347 0164607,+39 347 0164607,,,,3,6,2,Apr 23 - Oct 30,Apr 23 - Oct 30,,,,,,,,45.6924852,13.0555435
53860,UDINE,LATISANA,Comfort,Da Miranda,,,-,-,Via La Rotta,21,,,+39 328 3717927,,SIMONIN@ALICEPOSTA.IT,,2,6,2,May 18 - Nov 30,May 18 - Nov 30,,,,,,,,45.766759,13.0101694
2631,UDINE,LATISANA,-,Casa Adriana di Lazzarini Adriana,Casa Adriana ,Lazzarini Adriana,APRILIA MARITTIMA,-,Via Lignano sud,72,33053,+39 0431 53310,+39 335 5471265,+39 0431 53310,adriana.lazzarini@virgilio.it,,2,3,2,Mar 15 - Nov 15,Mar 15 - Nov 15,,,,,,,,45.6876609,13.0697862
2491,UDINE,LAUCO,-,Al Cramar di Gressani Simone,Al Cramar ,Gressani Simone,CAPOLUOGO,-,Via Capoluogo,71,33029,+39 0433 74122  0433 74291,,,frascaverde@libero.it,,3,6,3,"Jan 01 - Jan 10, Mar 21 - Apr 22, Apr 26 - May 10, Jun 01 - Jun 14, Jul 01 - Jul 31, Aug 01 - Aug 31, Oct 05 - Oct 25",Jan 01 - Jan 10,Mar 21 - Apr 22,Apr 26 - May 10,Jun 01 - Jun 14,Jul 01 - Jul 31,Aug 01 - Aug 31,Oct 05 - Oct 25,Dec 07 - Dec 31,46.4618636,12.933897
2387,UDINE,LUSEVERA,Standard,Alloggio Luciana di Noacco Claudio,Alloggio Luciana ,Noacco Claudio,-,PRADIELIS,Via Pradiel,9,33010,+39 0432 787342,+39 339 4676599,+39 0432 787342,info@alloggioluciana.it,http://www.alloggioluciana.it,1,4,1,"Jan 01 - Feb 28, Mar 15 - Apr 30, May 15 - Oct 15, Oct 31 - Dec 31",Jan 01 - Feb 28,Mar 15 - Apr 30,May 15 - Oct 15,Oct 31 - Dec 31,,,,,,
34945,UDINE,LUSEVERA,Standard,Bruolen di Sgrazzutti Stefano,Bruolen ,Sgrazzutti Stefano,-,PRADIELIS,Frazione Piedim,136,33010,,+39 339 1870593,,info@bruolen.it,http://www.bruolen.it,3,5,2,"Mar 28 - May 05, Jun 01 - Sep 30",Mar 28 - May 05,Jun 01 - Sep 30,,,,,,,,
2594,UDINE,MAJANO,Standard,Lui - De Paulis Daniela,,Paulis Daniela,-,FARLA,Via Mondovì,11,33030,+39 0432 958119,+39 340 7141290,,b.b_lui@libero.it,http://www.bed-and-breakfast.it,2,3,2,"Jan 01 - Jan 31, Mar 01 - Oct 31, Dec 01 - Dec 31",Jan 01 - Jan 31,Mar 01 - Oct 31,Dec 01 - Dec 31,,,,,,,
42800,UDINE,MALBORGHETTO VALBRUNA,Superior,Le Genziane di Errath Natascia,Le Genziane ,Errath Natascia,-,UGOVIZZA,Via dei Campi,9,33010,,+39 333 7700365,,emyfive@live.it,,3,6,3,"Jan 01 - Mar 15, Jul 01 - Sep 30, Dec 15 - Dec 31",Jan 01 - Mar 15,Jul 01 - Sep 30,Dec 15 - Dec 31,,,,,,46.5110514,13.4738577
70240,UDINE,MALBORGHETTO VALBRUNA,Standard,A Casa di Fuchs di Giovanna Liuzzo,A Casa di Fuchs ,Giovanna Liuzzo,-,-,Via Alpi Giulie,4,33010,+39 338 8424756,+39 338 8424756,,edel.b@libero.it,,4,7,2,Jan 01 - Dec 31,Jan 01 - Dec 31,,,,,,,,46.4910286,13.4917589
2437,UDINE,MALBORGHETTO VALBRUNA,Standard,Casa Al Salice di Gelbmann Geltrude,Casa Al Salice ,Gelbmann Geltrude,-,CUCCO,via Nazionale,5,33010,+39 0428 60079,+39 338 3051858,+39 0428 60079,,,2,4,1,"Jan 01 - Apr 30, Jun 01 - Sep 30, Dec 01 - Dec 31",Jan 01 - Apr 30,Jun 01 - Sep 30,Dec 01 - Dec 31,,,,,,46.5060486,13.4371268
58440,UDINE,MALBORGHETTO VALBRUNA,Standard,La Casetta Rosa di Buzzi August,La Casetta Rosa ,Buzzi August,-,BAGNI DI LUSNIZZA,Via Sorgenti Solforose,4,33015,,,,miro62@live.it,,3,5,1,Jan 01 - Dec 31,Jan 01 - Dec 31,,,,,,,,46.500811,13.3789827
39001,UDINE,MALBORGHETTO VALBRUNA,-,All Ombra Delle Alpi Giulie di Zanon Serena,All Ombra Delle Alpi Giulie ,Zanon Serena,LOC. CUCCO,-,Via Romana,15,33010,+39 0428 60323,+39 347 0701105,,robycecon@tiscali.it,,2,4,1,"Jan 01 - Mar 31, May 01 - Sep 30, Nov 01 - Dec 31",Jan 01 - Mar 31,May 01 - Sep 30,Nov 01 - Dec 31,,,,,,46.5068148,13.425443
35980,UDINE,MALBORGHETTO VALBRUNA,-,Da Julia di Zelloth Riccardo,Da Julia ,Zelloth Riccardo,UGOVIZZA,UGOVIZZA,Via Oisternig,1,33010,,+39 334 3212318,,rickyzelloth@libero.it,,3,6,1,"Jan 01 - Jan 31, Jul 15 - Aug 31, Dec 01 - Dec 31",Jan 01 - Jan 31,Jul 15 - Aug 31,Dec 01 - Dec 31,,,,,,46.5110623,13.4729676
54120,UDINE,MANZANO,Standard,Casa Forte Nussi Deciani di Zamo  Francesca,,,MANZANO,CASE,Via dei Ronchi,12,33044,+39 0432 751061,,,,,4,8,3,Jan 01 - Dec 31,Jan 01 - Dec 31,,,,,,,,45.9986075,13.3956271
42700,UDINE,MANZANO,Comfort,La Casa Del Sole,,Del Sole,CASE DI MANZANO,-,Via San Tommaso,21,33044,+39 0432 740657,+39 347 7940318,,francesco.sapia@alice.it,,4,8,4,"Jan 10 - Mar 20, Apr 21 - Jun 20, Jul 18 - Jul 31, Sep 01 - Dec 15",Jan 10 - Mar 20,Apr 21 - Jun 20,Jul 18 - Jul 31,Sep 01 - Dec 15,,,,,45.9970847,13.3931177
33482,UDINE,MANZANO,-,Centro di Cencig Luigi,Centro ,Cencig Luigi,-,-,Via della Stazione, 9/a,33044,+39 328 8234841,+39 328 8234841,+39 178 2204233,badandbreakfast.ctr@libero.it,,3,6,3,"Jan 10 - Jul 31, Aug 25 - Dec 15",Jan 10 - Jul 31,Aug 25 - Dec 15,,,,,,,45.9880457,13.3750578
69200,UDINE,MARTIGNACCO,Standard,Brunives di Pittolo Dolores,Brunives ,Pittolo Dolores,TORREANO,-,Via Plaino,13,,+39 348 3704725,,,,,3,5,1,Sep 20 - Nov 30,Sep 20 - Nov 30,,,,,,,,46.1061476,13.1675793
4120,UDINE,MARTIGNACCO,Comfort,"Bed & Breakfast ""casa Veneta""",,,-,-,Via Cividina,14,33035,+39 0432 677820,+39 348 7561976,,,,3,6,2,"Jan 01 - Jul 31, Sep 01 - Dec 31",Jan 01 - Jul 31,Sep 01 - Dec 31,,,,,,,46.0950517,13.1216172
56126,UDINE,MARTIGNACCO,Comfort,Villa Cantarutti di Bettio Manuela,Villa Cantarutti ,Bettio Manuela,PIAZZA SAN TOMMASO,-,Piazza San Tommaso,2,33035,+39 0432 678155,,,lino@villacantarutti.it,,3,6,2,"Jan 01 - Jul 31, Sep 01 - Dec 31",Jan 01 - Jul 31,Sep 01 - Dec 31,,,,,,,46.1052647,13.1624372
38920,UDINE,MARTIGNACCO,-,Vivere In Campagna di Passarino Gabriella,Vivere In Campagna ,Passarino Gabriella,-,TORREANO,Via Alnicco,4,33035,+39 0432 678919,+39 329 2117711,,,,1,4,1,"Jan 10 - Jul 31, Aug 17 - Dec 19",Jan 10 - Jul 31,Aug 17 - Dec 19,,,,,,,46.1070647,13.1625288
51181,UDINE,MOGGIO UDINESE,Superior,Residence di  Giovanni D Avino,,D Avino,-,-,Via Valsassina,15,33015,,+39 347 2556958,,residencebedandbike@mail.com,,1,3,1,"Jan 01 - Jan 06, Apr 01 - Oct 30, Dec 24 - Dec 31",Jan 01 - Jan 06,Apr 01 - Oct 30,Dec 24 - Dec 31,,,,,,46.4050907,13.1955309
52900,UDINE,MONTENARS,Comfort,Oriza di Hrast Martha,Oriza ,Hrast Martha,-,-,Via Flaibano,37,33010,+39 0432 972943,+39 368 3914511,,,,3,5,3,Apr 01 - Dec 31,Apr 01 - Dec 31,,,,,,,,,
36521,UDINE,MORTEGLIANO,Superior,Alfier Andrea di Bernardis Andrea,Alfier Andrea ,Bernardis Andrea,-,LAVARIANO,Via Mortegliano, 20/2,33050,+39 0432 767028,+39 349 7585900,+39 0432 767028,INFO@CORTEALFIER.COM,http://WWW.CORTEALFIER.COM,3,8,3,"Jan 01 - Jan 16, Jan 31 - Mar 15, Apr 01 - Oct 31, Dec 01 - Dec 31",Jan 01 - Jan 16,Jan 31 - Mar 15,Apr 01 - Oct 31,Dec 01 - Dec 31,,,,,45.950117,13.2057358
36520,UDINE,MORTEGLIANO,Superior,Alfier Francesco di Bernardis Francesco,Alfier Francesco ,Bernardis Francesco,-,LAVARIANO,Via Mortegliano, 20/4,33050,,+39 348 4078364,+39 0432 767028,INFO@CORTEALFIER.COM,http://www.cortealfier.com,3,8,3,"Jan 01 - Jan 31, Feb 28 - Apr 17, May 01 - Oct 16, Nov 01 - Dec 31",Jan 01 - Jan 31,Feb 28 - Apr 17,May 01 - Oct 16,Nov 01 - Dec 31,,,,,45.950117,13.2057358
37380,UDINE,MORTEGLIANO,Standard,Garbin di Desinano Vinicio,Garbin ,Desinano Vinicio,-,LAVARIANO,Via Pozzuolo,22,33050,+39 0432 767326,+39 347 1237329,,vinicio.desinano@alice.it,http://www.casagarbin.com,3,6,2,Mar 01 - Dec 31,Mar 01 - Dec 31,,,,,,,,45.9833967,13.1941982
36560,UDINE,MORTEGLIANO,Comfort,Al Batifiar di Sbuelz Filippo,Al Batifiar ,Sbuelz Filippo,-,LAVARIANO,Via Battiferro, 41 int.1,33050,,+39 339 3795339,+39 0432 510876,filippo.sbuelz@gmail.com,,3,6,3,"Jan 16 - May 27, Jul 02 - Dec 16",Jan 16 - May 27,Jul 02 - Dec 16,,,,,,,45.9560793,13.2310949
70053,UDINE,MORUZZO,Superior,A Cjase di Sandra di Canciani Lisa,A Cjase di Sandra ,Canciani Lisa,-,-,Via del Cristo,1,33030,,+39 329 3566897,+39 0432 672799,,,2,4,1,Jan 01 - Dec 31,Jan 01 - Dec 31,,,,,,,,46.1213151,13.1326462
2626,UDINE,NIMIS,-,Casa Nongruella di Barbei Ornella,Casa Nongruella ,Barbei Ornella,-,CERGNEU,Via Nongruella,7,33045,+39 0432 797194,+39 333 2668108,+39 0432 400950,,http://www.nongruella.com,3,6,3,"Apr 01 - Jun 20, Jul 01 - Sep 30",Apr 01 - Jun 20,Jul 01 - Sep 30,,,,,,,46.2254328,13.3328241
67180,UDINE,OSOPPO,Standard,Al Vecchio Glicine di Pittino Nadja,Al Vecchio Glicine ,Pittino Nadja,-,RIVOLI,Via Gravate,2,33010,+39 0432 986224,+39 347 9392136,,nadja.pittino@pec.it,,2,5,1,Jun 01 - Oct 01,Jun 01 - Oct 01,,,,,,,,46.2219123,13.06439
40180,UDINE,OSOPPO,-,Da Rita di Buiatti Enzo,Da Rita ,Buiatti Enzo,-,-,via Buia,16,33010,+39 0432 975428,+39 347 5638054,,,,2,4,1,Apr 01 - Oct 31,Apr 01 - Oct 31,,,,,,,,46.2523677,13.0875166
43740,UDINE,OVARO,-,Mandi Mandi di Maria Nagostinis,Mandi Mandi ,Maria Nagostinis,-,MIONE,Via Otto Ottobre di Mione,43,33025,+39 0433 747650,+39 338 4005934,,,http://www.mandimandi.it,3,6,3,"Jan 01 - Nov 04, Dec 05 - Dec 31",Jan 01 - Nov 04,Dec 05 - Dec 31,,,,,,,46.4775476,12.854026
49641,UDINE,PAGNACCO,Comfort,Green Time di Ganzini Mauro,Green Time ,Ganzini Mauro,-,-,Via Plaino, 17/4,33010,+39 0432 661194,+39 339 4188098,,mauro.ganzini@gmail.com,,1,2,1,Mar 01 - Oct 31,Mar 01 - Oct 31,,,,,,,,46.1157297,13.1829911
45960,UDINE,PALMANOVA,Superior,Piazza Grande,,,-,-,Piazza Grande,14,33057,+39 0432 923774,,,LUCIA@CREDRA.COM,,1,4,1,"Feb 01 - Feb 28, Apr 01 - Jun 30, Aug 01 - Aug 30, Sep 15 - Sep 30",Feb 01 - Feb 28,Apr 01 - Jun 30,Aug 01 - Aug 30,Sep 15 - Sep 30,,,,,45.9053391,13.3099274926598
38000,UDINE,PALMANOVA,-,Casa Dei Tori di Gori Elena,Casa Dei Tori ,Gori Elena,-,JALMICCO,Via Oberdan, 12/A,33057,+39 0432 928100,+39 338 5336396,+39 0432 920789,silvia.savi@tiscali.it,http://www.casadeitori.it,3,6,2,Apr 01 - Dec 31,Apr 01 - Dec 31,,,,,,,,,
55160,UDINE,PALUZZA,Superior,Casadicenta di Di Centa Manuela,,Centa Manuela,-,RIVO,Via Principale,12,33026,,+39 335 5495289,,casadicenta@manueladicenta.it,http://www.casadicenta.it,1,5,1,"Jan 01 - Mar 15, Mar 25 - May 15, Jun 01 - Sep 25, Oct 29 - Nov 15, Dec 01 - Dec 31",Jan 01 - Mar 15,Mar 25 - May 15,Jun 01 - Sep 25,Oct 29 - Nov 15,Dec 01 - Dec 31,,,,46.5213264,13.0102182
36960,UDINE,PALUZZA,-,Da Carletto di Bellina Carlo,Da Carletto ,Bellina Carlo,-,CLEULIS,Via Vittorio Veneto,10,33026,+39 0433 779151,,,,,3,6,3,Jul 15 - Sep 15,Jul 15 - Sep 15,,,,,,,,46.5668657,13.0038208
57500,UDINE,PASIAN DI PRATO,Standard,B&B Colloredo di  Blasutig Gianalberto,,Blasutig Gianalberto,BONAVILLA,COLLOREDO DI PRATO,Via dei Faggi,5,33037,,+39 3336457528,,nuovosanpaolo@yahoo.it,,1,2,1,Jan 01 - Dec 31,Jan 01 - Dec 31,,,,,,,,46.0655388,13.1699073
2395,UDINE,PAULARO,-,Ravinis di Maion Endrio,Ravinis ,Maion Endrio,-,RAVINIS,Via Monte Pizzul,17,33027,+39 0433 70643,+39 333 5207000,,ileniafabiani@libero.it,http://www.bedandbreakfastravinis.it,3,6,1,"Jan 01 - Jan 15, Mar 20 - Apr 20, Jun 15 - Sep 15, Dec 15 - Dec 31",Jan 01 - Jan 15,Mar 20 - Apr 20,Jun 15 - Sep 15,Dec 15 - Dec 31,,,,,46.5425318,13.1310034
51820,UDINE,PAVIA DI UDINE,Superior,B.& B. Il Borghetto di Grinovero Elena,B.& B. Il Borghetto ,Grinovero Elena,-,PERCOTO,Via Pre Zaneto,34,33050,+39 0432676386  0432676340,,+39 0432 676240,elena@lapein.it,,1,3,1,"Mar 01 - May 15, Jun 01 - Aug 15, Sep 01 - Dec 30",Mar 01 - May 15,Jun 01 - Aug 15,Sep 01 - Dec 30,,,,,,45.9715892,13.3179878
53481,UDINE,POCENIA,Comfort,Angolo di Paradiso,,di Paradiso,PARADISO,-,Via Crosaris,2,33050,,+39 346 8660347,+39 0432 777299,f.tonizzo@gmail.com,http://www.facebook.com/pages/BB-Angolo-di-Paradiso,2,3,1,Apr 01 - Oct 31,Apr 01 - Oct 31,,,,,,,,45.86771,13.145554
2529,UDINE,PONTEBBA,Standard,Alte Schule di Fortin Luciano,Alte Schule ,Fortin Luciano,-,-,Via della Chiesa,7,33016,+39 0428 90483,+39 347 1662012,+39 0428 90483,,,2,6,1,"Jan 01 - Apr 15, Jul 01 - Aug 31, Dec 15 - Dec 31",Jan 01 - Apr 15,Jul 01 - Aug 31,Dec 15 - Dec 31,,,,,,46.5078596,13.3079569
2364,UDINE,PONTEBBA,Standard,Ta Famée di Buzzi Fulvia,Ta Famée ,Buzzi Fulvia,PONTAFEL,-,Via della Chiesa,22,33016,,+39 340 5621350,+39 0428 991307,tafamee@libero.it,http://www.tafamee.it,3,6,2,"Jan 01 - Apr 02, Apr 29 - Aug 18, Sep 18 - Dec 05, Dec 24 - Dec 31",Jan 01 - Apr 02,Apr 29 - Aug 18,Sep 18 - Dec 05,Dec 24 - Dec 31,,,,,46.5078596,13.3079569
2535,UDINE,PONTEBBA,Comfort,Al Ghiro di Buzzi Luisa,Al Ghiro ,Buzzi Luisa,-,-,Via Zardini,32,33016,+39 0428 90727,+39 335 7020598,,marziadigas@libero.it,,2,4,1,"Jan 01 - Mar 15, Jul 01 - Sep 15, Dec 01 - Dec 31",Jan 01 - Mar 15,Jul 01 - Sep 15,Dec 01 - Dec 31,,,,,,,
2534,UDINE,PONTEBBA,Comfort,Pontafel di Degano Maria Elisabetta,,Maria Elisabetta,-,-,Via Mazzini,46,33016,+39 0428 90626,,,b.b.pontafel@tiscali.it,,2,6,1,"Jan 01 - Mar 10, Mar 20 - Apr 02, Apr 20 - May 20, May 24 - Jun 03, Jun 14 - Sep 15, Sep 28 - Oct 15, Nov 23 - Dec 31",Jan 01 - Mar 10,Mar 20 - Apr 02,Apr 20 - May 20,May 24 - Jun 03,Jun 14 - Sep 15,Sep 28 - Oct 15,Nov 23 - Dec 31,,46.5066268,13.3064556
2426,UDINE,PONTEBBA,-,B&B di Monica E Mauro di Festari Monica,B&B di Monica E Mauro ,Festari Monica,-,-,Via Paceida,3,33016,+39 0428 90960,,,monicaf65@aliceposta.it,,3,6,3,"Jan 15 - Mar 15, Oct 01 - Dec 15",Jan 15 - Mar 15,Oct 01 - Dec 15,,,,,,,,
42140,UDINE,PORPETTO,Standard,Casa Del Lauro,,Del Lauro,-,-,Via Verdi,8,33050,,+39 3389377736,,casadellauroporpetto@gmail.com,http://www.casadellauro.com,4,8,2,"Jan 01 - Nov 15, Dec 01 - Dec 31",Jan 01 - Nov 15,Dec 01 - Dec 31,,,,,,,,
65080,UDINE,POVOLETTO,Superior,Cjampa  di Brezzi Francesco,Cjampa  ,Brezzi Francesco,-,SAVORGNANO DEL TORRE,Via dei Monti,4,,,+39 3484761045  3342813680,,brezzi.francesco@gmail.com,,3,5,3,"Jan 01 - Jan 31, Mar 01 - Oct 30, Dec 01 - Dec 31",Jan 01 - Jan 31,Mar 01 - Oct 30,Dec 01 - Dec 31,,,,,,46.1674796,13.2649177
41005,UDINE,POVOLETTO,Superior,Le Rondini di Salvador Edi,Le Rondini ,Salvador Edi,POVOLETTO,GRIONS DEL TORRE,Via Monte Canin,1,33040,+39 0432 664485,+39 347 3216207,,prenotazioni@allerondini.it,http://www.allerondini.it,2,4,2,Mar 01 - Nov 30,Mar 01 - Nov 30,,,,,,,,46.1052035,13.3046959
56880,UDINE,POZZUOLO DEL FRIULI,Standard,Apricot di Migliore Annunziata,Apricot ,Migliore Annunziata,-,Zugliano,Via XXV aprile, 7/b,33050,+39 0432 690965,+39 392 8800503,+39 0432 690965,b.e.b.a@live.it,,2,4,1,Jan 01 - Dec 31,Jan 01 - Dec 31,,,,,,,,,
54260,UDINE,POZZUOLO DEL FRIULI,Comfort,Rose di Starc Ondina,Rose ,Starc Ondina,-,-,Via Genova,55,33050,+39 0432 635002,+39 348 2660910,+39 0432 665568,b2b.rose.udine@gmail.com,,1,2,1,Jan 01 - Dec 31,Jan 01 - Dec 31,,,,,,,,,
44160,UDINE,POZZUOLO DEL FRIULI,-,Alla Luna di Gori Nadia,Alla Luna ,Gori Nadia,-,CARGNACCO,Via San Giorgio,27,33050,+39 0432 560205,+39 3313813506,+39 0432 3061279,bebluna@alice.it,,3,6,2,"Jan 01 - Apr 30, May 16 - Jul 31, Sep 01 - Oct 31, Dec 01 - Dec 15",Jan 01 - Apr 30,May 16 - Jul 31,Sep 01 - Oct 31,Dec 01 - Dec 15,,,,,46.0038142,13.2291297
2361,UDINE,PRADAMANO,Superior,B&B di Villa Ottelio di Miani Mercede,B&B di Villa Ottelio ,Miani Mercede,-,-,Via Torricelle,20,33040,+39 0432 670459,,,bbottelio@libero.it,http://www.bbottelio.eu,3,8,3,"Jan 01 - Jan 20, Feb 22 - Dec 31",Jan 01 - Jan 20,Feb 22 - Dec 31,,,,,,,46.0265571,13.2997087
44440,UDINE,PRADAMANO,Standard,Italia di Tami Roberto,Italia ,Tami Roberto,-,-,Via Lovaria,26,33040,+39 0432 670174,+39 339 7612524,+39 0432 670174,vinitami@libero.it,http://www.vinitami.it,3,6,2,Jan 15 - Dec 15,Jan 15 - Dec 15,,,,,,,,46.0254683,13.3082829
48560,UDINE,PRATO CARNICO,Standard,Dal Nuf,,,-,-,Frazione Pesariis,117,33020,,+39 348 5431964,,teresadalnuf@yahoo.it,,2,3,1,Mar 20 - Oct 25,Mar 20 - Oct 25,,,,,,,,46.5213165,12.7696293
65940,UDINE,PRECENICCO,Standard,B & B Virginia Ranch,,Virginia Ranch,-,-,Via Canedo,2,33050,+39 3484441464,+39 3484441464,,virginiaranch@yahoo.it,,3,6,1,Feb 01 - Nov 30,Feb 01 - Nov 30,,,,,,,,45.750807,13.0595393
40760,UDINE,PRECENICCO,-,Villa Pinella di De Minicis Giovanni,,Minicis Giovanni,-,-,Via Pra della Narda,2,33050,+39 0431 589781,+39 335 5426838,,g.deminicis@cheapnet.it,http://www.villapinella.it,3,6,3,Mar 01 - Nov 30,Mar 01 - Nov 30,,,,,,,,45.7829959,13.0770076
52780,UDINE,PREMARIACCO,Superior,D Orsaria B. E B. And Wine di De Nipoti Maria Flavia,,Maria Flavia,-,ORSARIA,Via Buttrio,8,33040,+39 0432 720563,+39 340 9368222,+39 0432 720563,info@dorsaria.it,http://www.dorsariabedandbreakfast.it,2,6,2,Mar 01 - Nov 30,Mar 01 - Nov 30,,,,,,,,46.0352556,13.3749479
52940,UDINE,PREPOTTO,Comfort,Il Petelin,,,-,-,Via Berduce, 27 A,33040,,+39 339 6100424,,INFO.PETELIN@BERDA.IT,http://WWW.BERDA.IT,1,2,1,Apr 01 - Nov 30,Apr 01 - Nov 30,,,,,,,,,
2617,UDINE,PREPOTTO,-,Casa Caterina da Centa,,da Centa,-,CENTA,Via Centa,76,33040,+39 0432 713237,+39 347 7056472,,caterinadacenta@yahoo.it,,3,6,2,Mar 01 - Dec 30,Mar 01 - Dec 30,,,,,,,,46.0566331,13.4883167
2485,UDINE,PREPOTTO,-,Casale Don Giovanni di De Pasquale Giuseppina,,Pasquale Giuseppina,-,-,Località Franz,131,33040,+39 0432 713252,+39 3487080550,+39 432737723,info@casaledongiovanni.it,http://www.casaledongiovanni.it,3,3,2,Jan 01 - Dec 31,Jan 01 - Dec 31,,,,,,,,,
2373,UDINE,PULFERO,-,Chiabudini di Chiabudini Tullio,Chiabudini ,Chiabudini Tullio,-,BRISCHIS,Frazione Ronchis,106,33046,+39 0432 726245,,,,,2,4,2,Mar 01 - Sep 30,Mar 01 - Sep 30,,,,,,,,,
67900,UDINE,RAGOGNA,Superior,Armonie di Sivilotti Micaela,Armonie ,Sivilotti Micaela,RAGOGNA,SAN GIACOMO,Via Muris,37,33030,,+39 334 7028983,,micaela.sivi@gmail.com,,1,3,1,"Jan 01 - Jan 31, Apr 01 - Oct 30, Dec 01 - Dec 31",Jan 01 - Jan 31,Apr 01 - Oct 30,Dec 01 - Dec 31,,,,,,46.1846355,12.9824127
49640,UDINE,RAGOGNA,Comfort,B&B Marina di Marini Marina,B&B Marina ,Marini Marina,-,MURIS,Via Osoppo,41,33030,,,+39 0432 955333,info@bebmarina.com,http://www.bebmarina.com,2,6,2,Mar 01 - Nov 30,Mar 01 - Nov 30,,,,,,,,46.191012,13.0019265
2515,UDINE,RAGOGNA,-,Tabine di Piccoli Maria Assunta,,Maria Assunta,TABINE,SAN PIETRO,Via 2 giugno,17,33030,+39 0432 954213,,+39 0432 954213,info@alvecjotraghet.it,http://www.alvecjotraghet.it,3,6,3,"Jan 01 - Jan 31, Mar 15 - Oct 30, Dec 01 - Dec 31",Jan 01 - Jan 31,Mar 15 - Oct 30,Dec 01 - Dec 31,,,,,,,
36040,UDINE,RAVASCLETTO,-,Il Ranuncolo di De Crignis Flavia,,Crignis Flavia,RAVASCLETTO,-,Via Valcalda,10,33020,,+39 338 1689291,,ilranuncolo@bbcarnia.it,http://www.bbcarnia.it,2,7,2,"Jan 01 - May 20, Jun 01 - Sep 30, Dec 20 - Dec 31",Jan 01 - May 20,Jun 01 - Sep 30,Dec 20 - Dec 31,,,,,,46.522331,12.9231559
42380,UDINE,RAVASCLETTO,-,Infiore di Ramon Ines,Infiore ,Ramon Ines,-,FRAZIONE ZOVELLO,Via Stalivieri, 24/BIS,33020,+39 0433 66371,+39 335 441300,+39 0433 66371,inesramon@libero.it,,3,5,3,"Jan 01 - Jan 06, Feb 01 - Mar 31, Jun 15 - Sep 15, Dec 27 - Dec 31",Jan 01 - Jan 06,Feb 01 - Mar 31,Jun 15 - Sep 15,Dec 27 - Dec 31,,,,,46.5317767,12.9517311
50161,UDINE,RAVEO,Standard,Fra Luci E Misteli di Cordovado Stefano,Fra Luci E Misteli ,Cordovado Stefano,-,-,Via Macilles,13,33029,+39 0433 746212,+39 347 0573046,,stefanocordovado@alice.it,http://www.fraluciemisteli.it,3,6,1,"Jun 01 - Jul 02, Jul 03 - Jul 31, Aug 01 - Aug 31, Sep 01 - Sep 30",Jun 01 - Jul 02,Jul 03 - Jul 31,Aug 01 - Aug 31,Sep 01 - Sep 30,,,,,46.4390816,12.8580551
2547,UDINE,REANA DEL ROJALE,-,I Fruz di Caporale Monica,I Fruz ,Caporale Monica,-,-,Via Carbonaria,5,33010,+39 0432 857767,+39 333 4486073,,bb.ifruz@libero.it,,3,5,2,"Jan 06 - Feb 18, Mar 02 - Apr 30, May 13 - Aug 19, Sep 02 - Oct 07, Oct 12 - Nov 18, Nov 25 - Dec 31",Jan 06 - Feb 18,Mar 02 - Apr 30,May 13 - Aug 19,Sep 02 - Oct 07,Oct 12 - Nov 18,Nov 25 - Dec 31,,,46.11928,13.2514303
2550,UDINE,RIVE D ARCANO,-,Il Castelliere di Della Vedova Germano,,Vedova Germano,-,ARCANO INFERIORE,Via Inferiore Francesco Arcano, 1/A,33030,+39 0432 809171,,+39 0432 809171,bbilcastelliere@alice.it,http://www.bedandbreakfastfvg.com,4,8,3,"Jan 01 - Jan 31, Mar 01 - Oct 31, Dec 01 - Dec 31",Jan 01 - Jan 31,Mar 01 - Oct 31,Dec 01 - Dec 31,,,,,,46.1346345,13.0294718
43520,UDINE,RIVE D ARCANO,-,Nel Cuore Del Friuli di Giacomini Franco,Nel Cuore Del Friuli ,Giacomini Franco,-,GIAVONS,Via della Stazione,6,33030,+39 0432 809291,+39 335 7031140,,giacomini.franco@gmail.com,http://www.locandanelcuoredelfriuli.it,3,6,1,Feb 01 - Dec 31,Feb 01 - Dec 31,,,,,,,,,
57820,UDINE,RIVIGNANO TEOR,Superior,B&B Casa Mia di  Pitton Piera,,Pitton Piera,RIVIGNANO TEOR,-,Via Paolo Solimbergo,19,33061,,+39 340 5039329,,beb.casamia@libero.it,http://www.bebcasamia.it,4,8,4,Jan 03 - Nov 03,Jan 03 - Nov 03,,,,,,,,45.8678864,13.0421976
62480,UDINE,RIVIGNANO TEOR,Superior,Casa Filaferro di Feruglio Anna,Casa Filaferro ,Feruglio Anna,RIVIGNANO TEOR,RIVARROTTA,Vicolo Molino,3,33061,,+39 349 3699536,,anna.feruglio@casafilaferro.it,,2,5,2,Apr 05 - Oct 31,Apr 05 - Oct 31,,,,,,,,45.8208817,13.0829718
42021,UDINE,RIVIGNANO TEOR,Superior,Palazzo Strassoldo di Del Mestre Renzo,,Mestre Renzo,-,DRIOLASSA,Via San Marco,3,33050,+39 0432 771039,+39 348 1619337,,redeme@hotmail.com,,2,8,2,Feb 01 - Nov 30,Feb 01 - Nov 30,,,,,,,,45.8481694,13.0686784
41500,UDINE,RIVIGNANO TEOR,Standard,Il Tempo Del Giardino di Pertoldeo Maria Laura,,Maria Laura,RIVIGNANO,-,Via Umberto I, 2/A,33050,,+39 327 7470194,,info@iltempodelgiardino.it,http://www.iltempodelgiardino.it,4,7,4,Mar 10 - Nov 08,Mar 10 - Nov 08,,,,,,,,,
50083,UDINE,RUDA,Comfort,Villa Rita di Marconato Patrizia,Villa Rita ,Marconato Patrizia,-,-,Via Cortona,21,33050,,+39 338 9536765,+39 0432 524173,bbvillaritaruda@gmail.com,,3,6,3,Apr 01 - Sep 30,Apr 01 - Sep 30,,,,,,,,45.8179057,13.4114776
54360,UDINE,SAN DANIELE DEL FRIULI,Superior,Bed And Breakfast Antico Borgo di Clarini Elvia,Bed And Breakfast Antico Borgo ,Clarini Elvia,AONEDIS,-,Località Aonedis,20,33038,,+39 334 7164203,,a.lenarduzzi@hotmail.it,,2,3,2,"Jan 01 - Jan 12, Feb 24 - Mar 02, Apr 03 - Sep 14, Oct 01 - Oct 19, Oct 31 - Dec 31",Jan 01 - Jan 12,Feb 24 - Mar 02,Apr 03 - Sep 14,Oct 01 - Oct 19,Oct 31 - Dec 31,,,,46.148871,12.9648194
71740,UDINE,SAN DANIELE DEL FRIULI,Standard,B & B Cuore di Pigat Fabiola,B & B Cuore ,Pigat Fabiola,-,-,Via monsignor Egidio Fant,44,33038,+39 0427 808873,,+39 0427 808874,fabi.pigat@gmail.com,,2,4,1,Jan 01 - Dec 31,Jan 01 - Dec 31,,,,,,,,46.154745,13.0018565
68660,UDINE,SAN DANIELE DEL FRIULI,Standard,Bed And Breakfast Villanova di De Cecco Monica,,Cecco Monica,-,VILLANOVA,via Nazionale, 37-39,33038,+39 0432 956262,,,monica.dececco@tiscali.it,,3,6,2,Jan 01 - Dec 31,Jan 01 - Dec 31,,,,,,,,46.1311386,12.9695321
54460,UDINE,SAN DANIELE DEL FRIULI,Standard,The Green Corner S Hangout di Bulligan Mariano,The Green Corner S Hangout ,Bulligan Mariano,-,-,Via Alessandro Manzoni,18,33038,,+39 328 9626086,,hangout.thegreencorners@gmail.com,,2,6,1,May 16 - Dec 31,May 16 - Dec 31,,,,,,,,46.16086,13.0122897
2598,UDINE,SAN DANIELE DEL FRIULI,-,Clarini Jole,,,-,-,Via Osoppo,44,33038,+39 0432 955397,+39 348 0008647   334 3209205,,jolli@email.it,,2,5,2,"Jan 01 - Feb 15, Feb 16 - Sep 01, Sep 02 - Oct 15, Nov 16 - Dec 31",Jan 01 - Feb 15,Feb 16 - Sep 01,Sep 02 - Oct 15,Nov 16 - Dec 31,,,,,46.1632024,13.0148181
2418,UDINE,SAN DANIELE DEL FRIULI,-,Facchin Silvana,,,-,-,Via Osoppo,111,33038,+39 0432 941044,,+39 0432 941044,,,2,5,2,Mar 01 - Oct 31,Mar 01 - Oct 31,,,,,,,,46.1632024,13.0148181
2632,UDINE,SAN DANIELE DEL FRIULI,-,Rossi Carlo,,,-,-,Via delle Querce,28,33038,+39 0432 955879,,,rossi-bellomo@alice.it,,1,3,1,"Mar 01 - May 15, Jul 01 - Sep 15, Dec 01 - Dec 31",Mar 01 - May 15,Jul 01 - Sep 15,Dec 01 - Dec 31,,,,,,46.1594704,12.9956326
40420,UDINE,SAN DANIELE DEL FRIULI,-,Sottocolle Fontana di Ursella Ivan,Sottocolle Fontana ,Ursella Ivan,-,-,Via Soprapaludo,4,33038,,,,federica.nonino@gmail.com,http://www.sottocollefontana.it,3,6,1,Jan 01 - Dec 31,Jan 01 - Dec 31,,,,,,,,46.1699665,13.0359516
2633,UDINE,SAN DANIELE DEL FRIULI,-,Villa Jasmin di Pischiutta Alba,Villa Jasmin ,Pischiutta Alba,-,VILLANOVA,via Nazionale,76,33030,+39 0432 956013,+39 338 9938105,+39 0432 956013,,,3,6,1,Mar 01 - Dec 31,Mar 01 - Dec 31,,,,,,,,46.1311386,12.9695321
52880,UDINE,SAN GIOVANNI AL NATISONE,Standard,Casa De Marco di De Marco Franca,,Marco Franca,-,-,Via Ronchi,13,33048,+39 0432 756691,+39 340 3997346,,casa-demarco@virgilio.it,,4,8,2,Mar 01 - Nov 30,Mar 01 - Nov 30,,,,,,,,45.9914874,13.4120866
4100,UDINE,SAN LEONARDO,-,Ada di Sibau Ada,Ada ,Sibau Ada,-,MERSO DI SOPRA,Via Merso di Sopra,15,33040,+39 0432 723457,+39 340 2968519,,,,2,5,1,May 01 - Aug 31,May 01 - Aug 31,,,,,,,,46.121796,13.527072
2429,UDINE,SAN LEONARDO,-,Casa Emilia di Sibau Giuseppina,Casa Emilia ,Sibau Giuseppina,-,-,Via Cravest,80,33040,+39 0432 723148,,+39 0432 723148,,,2,3,2,Jun 01 - Sep 30,Jun 01 - Sep 30,,,,,,,,,
2520,UDINE,SAN LEONARDO,-,Casa Qualizza di Coceani Giulia,Casa Qualizza ,Coceani Giulia,-,MERSO DI SOPRA,Via Merso di Sopra,44,33040,+39 0432 723212,,,giuliacoceani@gmail.com,,3,6,1,Jun 01 - Aug 31,Jun 01 - Aug 31,,,,,,,,46.121796,13.527072
2427,UDINE,SAN LEONARDO,-,La Casa Sul Fiume di Chiabai Paola,La Casa Sul Fiume ,Chiabai Paola,-,COSIZZA,Frazione Costa,22,33040,+39 0432 723068,+39 380/2980970,,p.tomasetig@libero.it,,2,3,2,May 01 - Sep 30,May 01 - Sep 30,,,,,,,,,
2428,UDINE,SAN LEONARDO,-,Zanutto Lorenzo,,,SCRUTTO,-,Via Luigi Faidutti,8,33040,+39 0432 723205,,,,,2,4,2,"Jan 01 - Mar 31, Sep 01 - Nov 30",Jan 01 - Mar 31,Sep 01 - Nov 30,,,,,,,,
49680,UDINE,SAN PIETRO AL NATISONE,Superior,Casa Rosalba di Cedarmas Marco,Casa Rosalba ,Cedarmas Marco,-,MEZZANA,Frazione Melina,8,33049,+39 0432 727258,+39 349 1646711,+39 0432 727258,bbcasarosalba@yahoo.it,,2,6,2,May 15 - Dec 31,May 15 - Dec 31,,,,,,,,,
2490,UDINE,SAN PIETRO AL NATISONE,-,Corte Dei Suanovi di Spagnut Ave,Corte Dei Suanovi ,Spagnut Ave,-,SORZENTO,Frazione Seuza,21,33049,+39 0432 727384,+39 335 7050955  334 3185668,+39 0432 727556,,,1,2,1,Apr 01 - Dec 31,Apr 01 - Dec 31,,,,,,,,,
53900,UDINE,SAN VITO AL TORRE,Superior,Casa Della Fornace di Qualizza Eleonora,Casa Della Fornace ,Qualizza Eleonora,-,CRAUGLIO,Via Venezia,7,33050,,+39 333 7772770,+39 0432 1632018,info@casadellafornace.it,http://www.casadellafornace.it,4,8,4,"Jan 01 - Jan 31, Mar 01 - Oct 31, Dec 01 - Dec 31",Jan 01 - Jan 31,Mar 01 - Oct 31,Dec 01 - Dec 31,,,,,,45.880947,13.3799438
54740,UDINE,SAN VITO AL TORRE,Standard,B & B 23 di Rossi Paola,B & B 23 ,Rossi Paola,-,NOGAREDO AL TORRE,Via Julia,23,33041,,+39 349 1435331,,bedandbreakfast23@libero.it,,3,6,1,Apr 01 - Dec 31,Apr 01 - Dec 31,,,,,,,,45.9132178,13.3770323
57420,UDINE,SAN VITO AL TORRE,Standard,Il Cammino di Simeon Daniele,Il Cammino ,Simeon Daniele,-,NOGAREDO AL TORRE,Via Julia,19,33050,,+39 340 1095416,,marinella.cordiglia@alice.it,,2,4,2,Jan 15 - Jul 31,Jan 15 - Jul 31,,,,,,,,45.9132178,13.3770323
57580,UDINE,SAN VITO AL TORRE,Standard,Palazzo Roncato di Rossana Roncato,Palazzo Roncato ,Rossana Roncato,SAN VITO AL TORRE,CRAUGLIO,Via Venezia, 1/a,33050,,+39 333 5278542,,,,2,6,2,"Jan 01 - Jan 07, Mar 01 - Oct 30, Dec 12 - Dec 31",Jan 01 - Jan 07,Mar 01 - Oct 30,Dec 12 - Dec 31,,,,,,45.880947,13.3799438
41741,UDINE,SAN VITO AL TORRE,-,Villa Steffaneo di Roncato Roberto,Villa Steffaneo ,Roncato Roberto,CRAUGLIO,-,Via Aquileia,36,33050,+39 0432 999528,+39 339 6273057,+39 0432 998021,villa.steffaneo@virgilio.it,,3,6,3,Apr 01 - Oct 31,Apr 01 - Oct 31,,,,,,,,45.8795434,13.3835194
2414,UDINE,SAURIS,Superior,Sant Antonio di Modepoudn di Marzari Laura,Sant Antonio di Modepoudn ,Marzari Laura,-,-,Via Ariis di Sotto, 85/A,33020,,+39 339 8582777,,laura.marzari52@gmail.com,,3,6,3,"Jan 01 - Feb 28, Apr 01 - May 02, Jun 01 - Sep 30, Dec 01 - Dec 31",Jan 01 - Feb 28,Apr 01 - May 02,Jun 01 - Sep 30,Dec 01 - Dec 31,,,,,,
2565,UDINE,SAURIS,Standard,Pa  Mairlan di Plozzer Armida,Pa  Mairlan ,Plozzer Armida,-,-,Frazione Pesariis,42,33020,+39 0433 86009,,+39 0433 86009,pamairlan@bbcarnia.it,http://www.pamairlan-sauris.it,3,6,2,"Jan 01 - Mar 01, Apr 01 - May 01, Jun 01 - Sep 30, Dec 01 - Dec 31",Jan 01 - Mar 01,Apr 01 - May 01,Jun 01 - Sep 30,Dec 01 - Dec 31,,,,,,
2561,UDINE,SEDEGLIANO,-,Il Mulino Sul Ledra di Vidotto Tiziana,Il Mulino Sul Ledra ,Vidotto Tiziana,-,-,Via Martiri della Libertà,23,33039,+39 0432 916836,+39 333 9076886,+39 0432 916836,mulinoledra@gmail.com,,1,2,1,"Feb 01 - Apr 21, May 06 - Jul 26, Sep 02 - Oct 31, Nov 04 - Dec 19",Feb 01 - Apr 21,May 06 - Jul 26,Sep 02 - Oct 31,Nov 04 - Dec 19,,,,,46.0155344,12.979258
2388,UDINE,STREGNA,Comfort,Oasi di Pace Draha di Postregna Teresa,Oasi di Pace Draha ,Postregna Teresa,-,-,Via Stregna,17,33040,+39 0432 724192,+39 333 7600975,,teresa.postregna@gmail.com,http://oasidipacedraha.postregna.name,3,6,3,"Jan 01 - May 25, Jun 15 - Dec 20",Jan 01 - May 25,Jun 15 - Dec 20,,,,,,,46.1269049,13.5777342
2651,UDINE,STREGNA,-,Angelina di Chiabai Giorgio,Angelina ,Chiabai Giorgio,-,ZAMIR,Frazione Seuza,3,33040,+39 0432 723389,,,,,3,6,3,"Mar 15 - Oct 01, Nov 01 - Nov 30",Mar 15 - Oct 01,Nov 01 - Nov 30,,,,,,,46.1264838,13.5691319
2522,UDINE,STREGNA,-,B & B Crisetig Franco,,Crisetig Franco,URATACA,VARCH,Frazione Varch,12,33040,+39 0432 724112,,,,,2,4,1,Apr 01 - Oct 15,Apr 01 - Oct 15,,,,,,,,46.1221458,13.602073
2407,UDINE,STREGNA,-,Casanatura di Bertoldi Diana,Casanatura ,Bertoldi Diana,-,-,Via Stregna, 11/B,33040,+39 0432 724215  328 4205161,,,dbertoldi@libero.it,http://www.bbcasanatura.it,2,5,1,"Mar 23 - Nov 04, Dec 06 - Dec 31",Mar 23 - Nov 04,Dec 06 - Dec 31,,,,,,,46.1269049,13.5777342
2384,UDINE,STREGNA,-,Rosa Dei Venti di Stulin Alessandro,Rosa Dei Venti ,Stulin Alessandro,-,TRIBIL SUPERIORE,Via Superiore,50,33040,+39 0432 724116,,,,,3,6,1,"Mar 15 - Apr 15, Jun 15 - Aug 30, Dec 15 - Dec 31",Mar 15 - Apr 15,Jun 15 - Aug 30,Dec 15 - Dec 31,,,,,,,
48880,UDINE,TAIPANA,Standard,Naiadi B & B di Tarnorld Simonetta,Naiadi B & B ,Tarnorld Simonetta,loc. PONTESAMBO,MONTEAPERTA,15 comunale,1,33040,,+39 328 2264956,,tarnoldsimonetta@yahoo.com,,2,4,2,Mar 15 - Dec 31,Mar 15 - Dec 31,,,,,,,,,
60040,UDINE,TAIPANA,-,Bosco Delle Rune di Gentilini Gianni,Bosco Delle Rune ,Gentilini Gianni,-,PLATISCHIS,15 comunale,89,,,+39 335 7060980,,boscodellerune@gmail.com,,3,6,1,Jan 01 - Dec 31,Jan 01 - Dec 31,,,,,,,,,
2574,UDINE,TAIPANA,-,Casa Svetlana di Malkina Svetlana,Casa Svetlana ,Malkina Svetlana,-,MONTEMAGGIORE,Via Monte Maggiore,22,33040,+39 0432 788013,,,,,3,5,3,Mar 01 - Dec 31,Mar 01 - Dec 31,,,,,,,,,
71704,UDINE,TALMASSONS,Standard,"Bed & Breakast ""nikita"" di Deana Gilberto","Bed & Breakast ""nikita"" ",Deana Gilberto,TALMASSONS,FLUMIGNANO,Via Isonzo, 17/1,33030,,+39 338 6327844,,,,2,3,1,Jan 01 - Dec 31,Jan 01 - Dec 31,,,,,,,,45.9230819,13.1358663
2381,UDINE,TARCENTO,Superior,Li Dai Tos di Pividori Paolo,Li Dai Tos ,Pividori Paolo,-,LONERIACCO,Via Natisone,3,33017,+39 0432 783535,+39 347 4610812,+39 0432 783535,inesbujan@yahoo.it,http://www.lidaitos.it,2,6,2,"Jan 01 - Jan 07, Apr 06 - Dec 08, Dec 27 - Dec 31",Jan 01 - Jan 07,Apr 06 - Dec 08,Dec 27 - Dec 31,,,,,,46.1935925,13.2297009
3061,UDINE,TARCENTO,Standard,Capinera di Di Brazzà Rossella,,,-,LONERIACCO,Via Natisone,10,33017,+39 0432 783843,+39 393 9722412,+39 0432 783843,capinerafvg@alice.it,http://www.beb-italia.it,2,4,1,Apr 01 - Sep 30,Apr 01 - Sep 30,,,,,,,,46.1935925,13.2297009
2527,UDINE,TARCENTO,Standard,Casa Ongjarut di Biasizzo Diego,Casa Ongjarut ,Biasizzo Diego,-,SEDILIS,Via Bernadia,18,33017,+39 0432 791850,+39 335 6861760,+39 0432 791850,diego.biasizzo@libero.it,http://www.ongjarut.it,2,5,1,Apr 01 - Sep 30,Apr 01 - Sep 30,,,,,,,,46.2200371,13.2426603
2367,UDINE,TARCENTO,Standard,Da Lisute di Jannis Adriano,Da Lisute ,Jannis Adriano,-,SEDILIS,Via Bernadia,98,33017,+39 0432 785105,+39 328 1118359,,,,2,5,2,Apr 01 - Dec 31,Apr 01 - Dec 31,,,,,,,,46.2200371,13.2426603
47840,UDINE,TARCENTO,Standard,Da Silver di Jenny Silveris,Da Silver ,Jenny Silveris,-,SEGNACCO,Via Olivo Alfieri,11,33017,,+39 333 6379638,+39 432793068,bandbdasilver@hotmail.it,,2,4,1,Mar 15 - Nov 30,Mar 15 - Nov 30,,,,,,,,,
2619,UDINE,TARCENTO,Standard,Les Bouganvilles di Papinutti Donata,Les Bouganvilles ,Papinutti Donata,-,VOLPINS,Via delle Viole,1,33017,+39 0432 791908,+39 333 8673451,+39 0432 791908,lesbouganvilles@libero.it,,1,3,1,Mar 15 - Nov 30,Mar 15 - Nov 30,,,,,,,,46.2081287,13.2226232
67280,UDINE,TARVISIO,Superior,Al Buondi Tarvisio di  De Cillia Loredana,,Cillia Loredana,-,CAMPOROSSO,Via Lussari, 18/D,33018,+39 348 2564748,+39 348 2564748,,info@albuonditarvisio.com,http://www.albuonditarvisio.com,4,8,4,Jan 01 - Dec 31,Jan 01 - Dec 31,,,,,,,,46.5009694,13.5013028
35180,UDINE,TARVISIO,Superior,Al Sentiero di Comelli Giulia,Al Sentiero ,Comelli Giulia,-,CAMPOROSSO,Via Lussari, 18/B,33010,+39 0428 40457,+39 3343857292,,,,3,6,2,Jan 01 - Dec 31,Jan 01 - Dec 31,,,,,,,,46.5009694,13.5013028
2543,UDINE,TARVISIO,Standard,B&B Molino di Paolo E Danica Pivk,,Danica Pivk,-,CAMPOROSSO,Via Molino,7,33018,+39 0428 63188,+39 329 1321715,,,,1,2,1,Jan 01 - Dec 31,Jan 01 - Dec 31,,,,,,,,46.5092726,13.5227319
2432,UDINE,TARVISIO,Standard,Casa Corte Lara di Bortot Maria,Casa Corte Lara ,Bortot Maria,-,CAMPOROSSO,Via Alpi Giulie,39,33018,+39 0428 40248,+39 333 5794844,+39 0428 40248,laracorte@virgilio.it,,2,6,2,"Jan 01 - May 30, Jun 30 - Sep 30, Oct 30 - Dec 31",Jan 01 - May 30,Jun 30 - Sep 30,Oct 30 - Dec 31,,,,,,46.507986,13.5433225
60060,UDINE,TARVISIO,Comfort,B&B Boscoverde di Filaferro Nives,B&B Boscoverde ,Filaferro Nives,-,-,Via Cadorna,18,33018,+39 0428 3038,+39 333 1590124,,anfrea.tomasi67@gmail.com,,2,5,2,"Mar 15 - Apr 15, Jun 01 - Sep 30, Dec 01 - Dec 31",Mar 15 - Apr 15,Jun 01 - Sep 30,Dec 01 - Dec 31,,,,,,46.4949926,13.6548014
67801,UDINE,TARVISIO,Comfort,B&B da Dante di Tosoni Dante,B&B da Dante ,Tosoni Dante,-,-,Via Armando Diaz,18,33018,+39 331 5855856,+39 331 5855856,,dante.tosoni@alice.it,,1,2,1,"Jan 01 - Apr 30, Jun 01 - Sep 30, Dec 01 - Dec 31",Jan 01 - Apr 30,Jun 01 - Sep 30,Dec 01 - Dec 31,,,,,,46.5058391,13.5663975
2434,UDINE,TARVISIO,-,Cristal di Liva Cristina,Cristal ,Liva Cristina,-,-,Via Ferrovia,7,33018,+39 0428 2884,+39 338 2759537,+39 0428 2884,cristina.liva@virgilio.it,http://www.babcristaltarvisio.it,2,5,1,"Jan 01 - Mar 30, Jun 01 - Sep 30, Dec 01 - Dec 31",Jan 01 - Mar 30,Jun 01 - Sep 30,Dec 01 - Dec 31,,,,,,46.5072408,13.5985547
2435,UDINE,TARVISIO,-,Da Carla di Svetina Carla,Da Carla ,Svetina Carla,-,-,Via Gorizia,20,33018,+39 0428 40136,+39 329 1531033,+39 0428 2004,misscharly2002@libero.it,,2,6,1,"Jan 01 - Apr 30, Jun 01 - Dec 31",Jan 01 - Apr 30,Jun 01 - Dec 31,,,,,,,46.5018815,13.5885899
2607,UDINE,TARVISIO,-,Famiglia Colloredo di Del Ross Selene,,Ross Selene,-,COCCAU,Via Friuli,71,33018,,+39 347 0366764,+39 0428 2364,delrossselene@googlemail.com,,3,6,3,"Jan 01 - Apr 30, Jun 01 - Oct 31, Dec 01 - Dec 31",Jan 01 - Apr 30,Jun 01 - Oct 31,Dec 01 - Dec 31,,,,,,46.5300279,13.6375093
66402,UDINE,TAVAGNACCO,Standard,Comini Filippo,,,TAVAGNACCO,COLUGNA,Via Chiavris,12,33010,,+39 393 9092799,,chevanton7@gmail.com,,2,6,2,"Jan 01 - Jan 17, Feb 01 - Feb 28, Mar 15 - Jul 31, Sep 01 - Dec 31",Jan 01 - Jan 17,Feb 01 - Feb 28,Mar 15 - Jul 31,Sep 01 - Dec 31,,,,,46.0901831,13.2090568
54540,UDINE,TERZO D AQUILEIA,Superior,B&B Al Pic De Corone di Lotti Daniele,B&B Al Pic De Corone ,Lotti Daniele,-,-,Via della Fontana,16,33050,+39 0431 30176,+39 349 5840450,,info@alpicdecorone.it,http://www.alpicdecorone.it,3,6,3,"Mar 01 - Oct 11, Oct 14 - Nov 08, Nov 12 - Nov 15, Nov 19 - Nov 22, Nov 26 - Nov 30, Dec 03 - Dec 13",Mar 01 - Oct 11,Oct 14 - Nov 08,Nov 12 - Nov 15,Nov 19 - Nov 22,Nov 26 - Nov 30,Dec 03 - Dec 13,,,,
63680,UDINE,TERZO D AQUILEIA,Comfort,Balzano da 4 di Ricamo Susanna,Balzano da 4 ,Ricamo Susanna,-,-,Via Ronchi,16,33050,+39 0431 30177,+39 339 6383641,,balzanox4@gmail.com,https://sites.google.com/site/balzanox4,2,5,2,May 01 - Nov 30,May 01 - Nov 30,,,,,,,,,
43881,UDINE,TOLMEZZO,Standard,Alle Tre Colombe  di D Orlando Caterina,,Orlando Caterina,-,CANEVA,Via monte Grappa, 74/C,33028,,+39 340 7467689,,,,3,4,1,"Jan 01 - Feb 28, May 01 - Sep 30, Nov 01 - Dec 31",Jan 01 - Feb 28,May 01 - Sep 30,Nov 01 - Dec 31,,,,,,46.4078966,12.9983729
45421,UDINE,TOLMEZZO,Standard,Nel Verde di Marcolini Daniela,Nel Verde ,Marcolini Daniela,-,TERZO,Via Romana,20,33028,,+39 347 7206352,,scriviadaniela@yahoo.it,,2,4,1,"Jan 01 - Apr 15, May 01 - Sep 15, Nov 01 - Nov 30, Dec 15 - Dec 31",Jan 01 - Apr 15,May 01 - Sep 15,Nov 01 - Nov 30,Dec 15 - Dec 31,,,,,46.4320453,13.0190003
52280,UDINE,TOLMEZZO,Comfort,Da Mamma Lo di Bertuzzi Loretta,Da Mamma Lo ,Bertuzzi Loretta,-,TERZO,Via Monte Sernio,13,33028,+39 0433 2604,+39 338 4737683,,l.bertu@libero.it,,2,4,2,"Feb 22 - Apr 07, Apr 19 - May 05, May 10 - Sep 29, Oct 25 - Nov 03, Nov 29 - Dec 31",Feb 22 - Apr 07,Apr 19 - May 05,May 10 - Sep 29,Oct 25 - Nov 03,Nov 29 - Dec 31,,,,46.4312156,13.0188013
67620,UDINE,TOLMEZZO,Comfort,La Mansarda di Gabri di Cosetti Gabriella,La Mansarda di Gabri ,Cosetti Gabriella,TOLMEZZO,-,Via della Vittoria,19,33028,,+39 3498249255,,cosetti@alice.it,,1,2,1,Jan 01 - Dec 31,Jan 01 - Dec 31,,,,,,,,46.4118402,13.0122673
65120,UDINE,TOLMEZZO,Comfort,La Stelute di D Orlando Daniela,,Orlando Daniela,-,TERZO,Via Monte Sernio,3,33028,+39 043340971,+39 3349970679,,,,1,2,1,Jan 01 - Dec 31,Jan 01 - Dec 31,,,,,,,,46.4312156,13.0188013
2580,UDINE,TOLMEZZO,-,Il Cardo di Straulino Elvira,Il Cardo ,Straulino Elvira,-,-,Via Somalia,5,33028,+39 0433 43902,+39 347 3912175,+39 0433 43902,ilcardo@bbcarnia.it,http://www.bbcarnia.it,6,10,2,"Jan 01 - Jan 07, Feb 02 - Feb 04, Feb 16 - Feb 18, Feb 23 - Feb 25, Mar 09 - Mar 11, Mar 16 - Mar 18, Mar 23 - Nov 02",Jan 01 - Jan 07,Feb 02 - Feb 04,Feb 16 - Feb 18,Feb 23 - Feb 25,Mar 09 - Mar 11,Mar 16 - Mar 18,Mar 23 - Nov 02,Dec 06 - Dec 31,,
2538,UDINE,TORREANO,-,Al Cocolar di Montanino Roberto,Al Cocolar ,Montanino Roberto,-,MONTINA,Via Kennedy,17,33040,,+39 339 8430076,,aritacocolar@libero.it,,1,3,1,Apr 01 - Oct 31,Apr 01 - Oct 31,,,,,,,,,
2477,UDINE,TORREANO,-,Da Ilva di Iacuzzi Ilva,Da Ilva ,Iacuzzi Ilva,-,-,Via Principale,52,33040,+39 0432 712106,,,,,2,4,1,Apr 01 - Sep 30,Apr 01 - Sep 30,,,,,,,,46.1281854,13.4313566
2475,UDINE,TORREANO,-,Emma di  Guerra Luigi,,Guerra Luigi,-,MONTINA,Via Kennedy,41,33040,+39 0432 715384,+39 380  4186002,+39 0432 715248,aziendaagricola@guerraluigi.it,http://www.guerraluigi.it,3,8,3,Apr 01 - Dec 31,Apr 01 - Dec 31,,,,,,,,,
2627,UDINE,TORREANO,-,Friendship  di Wangler Bernadette,Friendship  ,Wangler Bernadette,-,-,Via del Mulino, 25/1,33040,+39 0432 712302,,+39 0432 712302,friendship25@alice.it,,2,5,1,Apr 03 - Jun 06,Apr 03 - Jun 06,,,,,,,,46.1253092,13.4304632
2539,UDINE,TORREANO,-,Marie-therese di Roiatti Walter,Marie-therese ,Roiatti Walter,-,MONTINA,Via Zorutti,19,33040,+39 0432 715106,+39 339 4420813,+39 0432 715106,info@marietherese.it,http://www.marietherese.it,3,6,2,Mar 15 - Oct 30,Mar 15 - Oct 30,,,,,,,,,
68460,UDINE,TRASAGHIS,Standard,Palar di Latino Adele,Palar ,Latino Adele,-,-,Via Napoleonica,7,33010,+39 3401001009,+39 348 5524028,,bebpalar@gmail.com,,3,5,1,Mar 01 - Oct 31,Mar 01 - Oct 31,,,,,,,,46.3124656,13.0499336
60681,UDINE,TRICESIMO,Standard,B & B Cuei di Baret di Artico Virgilio,B & B Cuei di Baret ,Artico Virgilio,TRICESIMO,ADORGNANO,Via Cuol Barbar,9,33019,+39 0432 854533,+39 333 6421817,,tubetti@gmail.com,,2,4,2,Apr 01 - Oct 15,Apr 01 - Oct 15,,,,,,,,,
70860,UDINE,TRICESIMO,Comfort,B&B Le Querce di  Caselli Federica,,Caselli Federica,TRICESIMO,-,Via monte Grappa,15,33019,,+39 348 4480742,,fede_caselli@yahoo.it,,2,6,2,Jan 01 - Dec 31,Jan 01 - Dec 31,,,,,,,,46.1852979,13.2156941
72160,UDINE,TRICESIMO,Comfort,La Casa Blu di Monasteto di Agosto Francesca,La Casa Blu di Monasteto ,Agosto Francesca,TRICESIMO,MONASTETO,Via Belvedere,17,33019,+39 0432 854788,,,info@francesca-agosto.it,,3,6,3,Mar 15 - Nov 15,Mar 15 - Nov 15,,,,,,,,46.1553923,13.2049326
35321,UDINE,TRICESIMO,-,Colline Moreniche di Tami Moreno,Colline Moreniche ,Tami Moreno,-,ARA,Via San Giovanni,29,33019,+39 0432 853930,+39 340 6289730,,,,2,5,2,"Mar 15 - Apr 30, May 15 - May 31, Jun 15 - Jun 30, Jul 05 - Aug 15, Sep 01 - Sep 15, Oct 01 - Oct 31",Mar 15 - Apr 30,May 15 - May 31,Jun 15 - Jun 30,Jul 05 - Aug 15,Sep 01 - Sep 15,Oct 01 - Oct 31,,,46.1590335,13.1885473
59700,UDINE,TRICESIMO,-,Villa  Miotti De Braida di Miotti Giovanni,Villa  Miotti De Braida ,Miotti Giovanni,TRICESIMO,-,Via Borgobello,4,,+39 0432 883590,,,miotti@villamiotti.it,,3,6,3,Jun 06 - Oct 30,Jun 06 - Oct 30,,,,,,,,46.1625132,13.2157922
60080,UDINE,TRIVIGNANO UDINESE,Superior,Alla Piazzetta di Cleri Laura,Alla Piazzetta ,Cleri Laura,TRIVIGNANO UDINESE,-,Via Aquileia,1,33050,+39 0432 999262,+39 333 7864412,,laura.paviotti@gmail.com,,3,5,3,"Jan 01 - Jan 31, Mar 01 - Dec 31",Jan 01 - Jan 31,Mar 01 - Dec 31,,,,,,,45.9410456,13.3448105
3480,UDINE,TRIVIGNANO UDINESE,Superior,Casa Barnaba - Manin di Komauli Valentina,Casa Barnaba - Manin ,Komauli Valentina,-,CLAUIANO,Via Stretta,1,33050,+39 0432 999528,+39 339 6273057,+39 0432 999528,valentina.komauli@alice.it,http://www.casabarnaba-manin.it,2,6,2,"Jan 01 - Jan 08, Mar 01 - Nov 30, Dec 16 - Dec 31",Jan 01 - Jan 08,Mar 01 - Nov 30,Dec 16 - Dec 31,,,,,,45.9289731,13.3320985
51240,UDINE,UDINE,Superior,B & B Al Meriggio di Pitis Giovanni,B & B Al Meriggio ,Pitis Giovanni,-,-,Via Latisana,41,33100,+39 392 8812742,+39 392 8812742,,bbmeriggio@gmail.com,http://www.bbmeriggio.com,3,6,3,"Jan 15 - Jul 20, Sep 01 - Dec 15",Jan 15 - Jul 20,Sep 01 - Dec 15,,,,,,,46.0741443,13.2291808
45841,UDINE,UDINE,Superior,B & B Erica di Pessotto Erica,B & B Erica ,Pessotto Erica,-,-,Via Paolo Fistulario,42,33100,+39 0432 234077,,,maxbighammers@libero.it,,2,5,2,"Mar 01 - Jul 31, Sep 16 - Dec 31",Mar 01 - Jul 31,Sep 16 - Dec 31,,,,,,,46.0475789,13.2254619
51680,UDINE,UDINE,Superior,C Era Una Volta di Vidoni Ludovica,C Era Una Volta ,Vidoni Ludovica,-,-,Via Veneto, 177/11,33100,+39 346 3748706,+39 349 4440480,,ceraunavolta_bb@libero.it,,2,4,2,"Jan 01 - Oct 31, Nov 12 - Dec 31",Jan 01 - Oct 31,Nov 12 - Dec 31,,,,,,,46.0246541,13.254293
2649,UDINE,UDINE,Superior,Casa Renata di Beltramini Renata,Casa Renata ,Beltramini Renata,-,PAPAROTTI,Via Tissano,8,33100,+39 0432 600232,+39 333 2834928,+39 0432 600232,casarenata@libero.it,http://www.bbcasarenata.it,3,5,3,"Feb 10 - Oct 30, Dec 05 - Dec 31",Feb 10 - Oct 30,Dec 05 - Dec 31,,,,,,,46.0220407,13.2669965
61080,UDINE,UDINE,Superior,Friul di Venuti Riccardo,Friul ,Venuti Riccardo,-,-,Via San Rocco,368,33100,+39 338 9992725,+39 0432 232355,+39 0432 232355,rickonline@tin.it,,1,3,1,Jan 01 - Dec 31,Jan 01 - Dec 31,,,,,,,,46.051679,13.2111039
54240,UDINE,UDINE,Superior,La Luna E Le Stelle di Rizzi Amalfia,La Luna E Le Stelle ,Rizzi Amalfia,-,-,Via Brescia, 11/1,33100,+39 0432 403428,+39 340 8360851,+39 0432 403428,amalfia@virgilio.it,http://www.lunastelle.it,1,2,1,"Jan 01 - Mar 24, Apr 07 - Jul 15, Aug 16 - Sep 04, Sep 15 - Dec 10",Jan 01 - Mar 24,Apr 07 - Jul 15,Aug 16 - Sep 04,Sep 15 - Dec 10,,,,,46.0876518,13.1985085
61120,UDINE,UDINE,Superior,Piano.Bb di Costantini Scala Carlo,,Scala Carlo,-,-,Via Monte Hermada,1,33100,+39 335 7559957,+39 393 9303643,,info.pianobb@gmail.com,,2,6,3,Jan 01 - Dec 31,Jan 01 - Dec 31,,,,,,,,46.0742279,13.2377464
35341,UDINE,UDINE,Superior,Scenarium di Bielcikova Slava,Scenarium ,Bielcikova Slava,-,-,Viale Venezia,184,33100,+39 329 4946124,+39 329 4946124,,scenarium@alice.it,http://www.scenariumudine.com,3,8,3,Jan 01 - Dec 31,Jan 01 - Dec 31,,,,,,,,46.0509737,13.2067621
62620,UDINE,UDINE,Superior,Trinity di Mendoza Gutierrez Ana Mercedes,,Ana Mercedes,-,-,Via Adige,45,33100,+39 340 3930870,+39 0432 1744343,,,,1,2,1,Jan 01 - Dec 31,Jan 01 - Dec 31,,,,,,,,46.0733868,13.2578425
33180,UDINE,UDINE,Standard,Al Gatto Rosso di Contardo Fabio,Al Gatto Rosso ,Contardo Fabio,-,-,Via Baldasseria Media,129,33100,,+39 328 2660808,,info@algattorosso.com,http://www.algattorosso.com,4,8,3,"Jan 01 - Jan 06, Jan 18 - Feb 17, Mar 01 - Dec 31",Jan 01 - Jan 06,Jan 18 - Feb 17,Mar 01 - Dec 31,,,,,,46.0427823,13.2604812
46240,UDINE,UDINE,Standard,Al Giglio Bianco di Levi Gigliola,Al Giglio Bianco ,Levi Gigliola,-,-,Via Campagnola,60,33100,+39 349 2228475,,+39 0432 480725,gigliobiancoud@yahoo.it,,2,4,1,"Jan 01 - Jan 14, Feb 15 - Mar 14, Apr 15 - Sep 30, Nov 01 - Dec 31",Jan 01 - Jan 14,Feb 15 - Mar 14,Apr 15 - Sep 30,Nov 01 - Dec 31,,,,,46.0437865,13.2402052
61860,UDINE,UDINE,Standard,Cinqueminutidacentroestazione di Lunazzi Melania,Cinqueminutidacentroestazione ,Lunazzi Melania,-,-,Via Teobaldo Ciconi,18,33100,+39 349 5208243,,,l_melania@hotmail.com,,1,2,1,Jan 01 - Dec 31,Jan 01 - Dec 31,,,,,,,,46.0576543,13.2381031
56960,UDINE,UDINE,Standard,Il Posto di Zaffira di Secchi Maria,Il Posto di Zaffira ,Secchi Maria,-,-,Via Monzambano,138,33100,+39 338 3000414,+39 0432 582254,,mzaffira@gmail.com,,2,4,2,Jan 01 - Dec 31,Jan 01 - Dec 31,,,,,,,,46.0609372,13.2559767
54840,UDINE,UDINE,Standard,La 12° Notte di Linda Alessandra,La 12° Notte ,Linda Alessandra,-,-,Via Cormons,25,33100,+39 0432 482562,+39 393 1474922,,alessandralinda@aruba.it,,2,3,1,Apr 15 - Dec 31,Apr 15 - Dec 31,,,,,,,,46.0747472,13.2326271
55560,UDINE,UDINE,Standard,Madonnetta di Mazzucchelli Andrea,Madonnetta ,Mazzucchelli Andrea,-,-,Via della Madonnetta,51,33100,+39 0432 524201,+39 338 2165433,,andmazud@hotmail.it,,4,7,4,Jan 01 - Dec 31,Jan 01 - Dec 31,,,,,,,,46.0490486,13.2465921
56440,UDINE,UDINE,Standard,Marameo di Carnevali Mauro,Marameo ,Carnevali Mauro,-,-,Via Tavagnacco, 64/12,33100,+39 335 6399172,+39 340 6161708,+39 0432 644007,bedbreakfastmarameo@gmail.com,,3,5,3,Apr 16 - Dec 31,Apr 16 - Dec 31,,,,,,,,46.0867857,13.2306058
68242,UDINE,UDINE,Comfort,Accanto Al Focolare 2 di Lazzati Fabrizio,Accanto Al Focolare 2 ,Lazzati Fabrizio,-,-,Via Baldasseria Bassa,237,33100,+39 348 7210734,,,lazzatifabrizio@gmail.com,,1,2,1,May 01 - Dec 31,May 01 - Dec 31,,,,,,,,46.0275744,13.2628721
65201,UDINE,UDINE,Comfort,Civico 51 di Merlo Angela,Civico 51 ,Merlo Angela,-,-,Via Gorizia,51,33100,+39 347 7770474,,,info@civico51.it,,3,7,3,Jan 01 - Dec 31,Jan 01 - Dec 31,,,,,,,,46.0757292,13.2391029
62220,UDINE,UDINE,Comfort,Plume di Fattori Daniela,Plume ,Fattori Daniela,-,-,Via Pinerolo,9,33100,+39 329 7447225,,,fattoridaniela@gmail.com,,2,6,2,Jan 01 - Dec 31,Jan 01 - Dec 31,,,,,,,,46.0882366,13.2316918
37720,UDINE,UDINE,-,Agli Schnauzer di Cappelletti Fiammetta,Agli Schnauzer ,Cappelletti Fiammetta,-,-,Via Capodistria,57,33100,+39 0432 481211,+39 339 7687112,,fiammettacap@yahoo.it,,2,5,2,"Jan 01 - Jan 20, Feb 01 - Nov 17, Nov 29 - Dec 31",Jan 01 - Jan 20,Feb 01 - Nov 17,Nov 29 - Dec 31,,,,,,46.0742567,13.2484804
37000,UDINE,UDINE,-,Ai Tigli di Stefini Emanuela,Ai Tigli ,Stefini Emanuela,-,-,Via Monzambano, 54/2,33100,+39 0432 283198,+39 330 714853,,emanuela.stefini@gmail.com,http://www.dormireaudine.it,3,6,2,"Jan 15 - Aug 04, Aug 19 - Nov 03, Nov 18 - Dec 31",Jan 15 - Aug 04,Aug 19 - Nov 03,Nov 18 - Dec 31,,,,,,46.0609372,13.2559767
2645,UDINE,UDINE,-,Al Borgo Vecchio di Pigani Sandra,Al Borgo Vecchio ,Pigani Sandra,-,-,Via Cussignacco, 48/4,33100,+39 0432 25091,+39 339 6242164,,sandra.pigani@gmail.com,,3,5,1,"Jan 01 - Aug 10, Aug 26 - Dec 31",Jan 01 - Aug 10,Aug 26 - Dec 31,,,,,,,46.0290371,13.2212863
33344,UDINE,UDINE,-,Al Teatro di Zottig Pintor Andrea,,Pintor Andrea,-,-,Viale Trieste,18,33100,+39 0432 510468,+39 335 5455330,+39 0432 510468,linozp@gmail.com,,2,5,2,"Jan 01 - Jul 28, Aug 26 - Dec 31",Jan 01 - Jul 28,Aug 26 - Dec 31,,,,,,,46.0618866,13.2476169
2566,UDINE,UDINE,-,Al Vecchio Noce di Pigani Maria-giustina,,,-,-,Via del Bon,548,33100,+39 0432 581172,+39 329 9827582,,alvecchionoce@libero.it,http://www.alvecchionoce.com,3,6,2,Jan 05 - Dec 24,Jan 05 - Dec 24,,,,,,,,46.064732,13.2584456
33342,UDINE,UDINE,-,Alla Gledizia di Lestani Lorenzo,Alla Gledizia ,Lestani Lorenzo,-,-,Viale Cadore, 2/A,33100,,+39 334 3653046,,allagledizia@alice.it,,3,6,2,"Jan 02 - Aug 01, Aug 16 - Dec 23",Jan 02 - Aug 01,Aug 16 - Dec 23,,,,,,,46.0714004,13.2207413
42080,UDINE,UDINE,-,B & B Dei Musicanti di Biondi Roberto,B & B Dei Musicanti ,Biondi Roberto,-,-,Via Gorizia,18,33100,+39 0432 470421,+39 320 0439320,,bbdeimusicanti@email.it,http://www.bbmusicanti.it,1,2,1,"Jan 10 - Jul 31, Aug 10 - Dec 20",Jan 10 - Jul 31,Aug 10 - Dec 20,,,,,,,46.0757292,13.2391029
43680,UDINE,UDINE,-,Borgo Nuvola di Calligaris Pamela,Borgo Nuvola ,Calligaris Pamela,-,-,Via Risano, 19/4,33100,+39 338 6045489,+39 338 6045489,,bb.borgonuvola@gmail.com,http://www.borgonuvola.it,2,3,1,"Jan 06 - Feb 10, Mar 20 - May 30, Jun 10 - Jun 30, Jul 15 - Aug 20, Sep 01 - Dec 31",Jan 06 - Feb 10,Mar 20 - May 30,Jun 10 - Jun 30,Jul 15 - Aug 20,Sep 01 - Dec 31,,,,46.0429685,13.2567667
2392,UDINE,UDINE,-,Camera Con Vista di Asquini Fabiola,Camera Con Vista ,Asquini Fabiola,-,-,Via Daniele Manin,16,33100,+39 0432 501174,+39 338 5675241,+39 0432 501174,fabiola.asquini@libero.it,http://www.manin16.it,1,3,1,"Jan 01 - Jan 15, Feb 01 - Dec 31",Jan 01 - Jan 15,Feb 01 - Dec 31,,,,,,,46.0636267,13.2371807
2551,UDINE,UDINE,-,Casa Adele di Chiavatti Anna-maria,,,-,-,Via della Madonnetta,44,33100,+39 0432 602723,,,annabo.chi@libero.it,,3,6,2,"Jan 15 - Aug 15, Sep 01 - Dec 15",Jan 15 - Aug 15,Sep 01 - Dec 15,,,,,,,46.0490486,13.2465921
2501,UDINE,UDINE,-,Casa Daniela di Zoratti Franco,Casa Daniela ,Zoratti Franco,-,-,Via Pradamano,88,33100,+39 0432 522992,+39 338 1032219,,info@casadaniela.com,http://www.casadaniela.com,2,4,2,"Jan 01 - May 30, Jun 16 - Dec 31",Jan 01 - May 30,Jun 16 - Dec 31,,,,,,,46.0545684,13.2497821
37721,UDINE,UDINE,-,Casa Meridiana di Del Gobbo Franca,,Gobbo Franca,-,-,Via Fruch,37,33100,+39 0432 281028,+39 339 5037566,+39 0432 281028,,,3,6,1,"Jan 01 - Jan 31, Mar 16 - Dec 31",Jan 01 - Jan 31,Mar 16 - Dec 31,,,,,,,46.1232027,13.1799691
32379,UDINE,UDINE,-,Da Cathy di Galliussi Gabriella,Da Cathy ,Galliussi Gabriella,-,-,Via Francesco di Toppo, 19/3,33100,+39 0432 1790713,+39 347 5146435,,cathybb07@yahoo.it,,2,3,1,"Jan 02 - Aug 14, Aug 17 - Dec 22",Jan 02 - Aug 14,Aug 17 - Dec 22,,,,,,,46.0706183,13.2319056
2646,UDINE,UDINE,-,Dimora Montegnacco di Trombetta Vittorio,Dimora Montegnacco ,Trombetta Vittorio,-,-,Via Cussignacco, 48/3,33100,+39 0432 204698,+39 333 3357540,+39 0432 204698,info@dimoramontegnacco.it,http://www.dimoramontegnacco.it,3,6,3,"Jan 01 - Jan 05, Mar 02 - Jul 05, Jul 20 - Jul 31, Aug 10 - Nov 09, Nov 13 - Nov 23, Nov 27 - Dec 09, Dec 21 - Dec 31",Jan 01 - Jan 05,Mar 02 - Jul 05,Jul 20 - Jul 31,Aug 10 - Nov 09,Nov 13 - Nov 23,Nov 27 - Dec 09,Dec 21 - Dec 31,,46.0290371,13.2212863
2625,UDINE,UDINE,-,Famiglia Mccoy Moreale di Mccoy Mary Ann,,Mary Ann,-,-,Via Cividale,290,33100,+39 0432 281863,+39 349 2640481  327 7471874,,maryann.mccoy@gmail.com,http://www.bbjennysgarden.com,3,5,1,"Jan 01 - Aug 01, Aug 15 - Aug 20",Jan 01 - Aug 01,Aug 15 - Aug 20,,,,,,,46.0756243,13.2828478
35340,UDINE,UDINE,-,Jenny S Garden di Moreale Jennifer,Jenny S Garden ,Moreale Jennifer,-,-,Via Cividale, 290/1,33100,+39 0432 281863,+39 327 7471874,,bbjennysgarden@gmail.com,http://www.bbjennysgarden.com,2,4,2,"Jan 01 - Aug 01, Aug 15 - Dec 20",Jan 01 - Aug 01,Aug 15 - Dec 20,,,,,,,46.0756243,13.2828478
2533,UDINE,UDINE,-,La Calesita di Cozzolino Elisa,La Calesita ,Cozzolino Elisa,-,-,Via Ermes di Colloredo, 11/6,33100,+39 339 4356095,+39 0432 204108,,siame@libero.it,,3,5,2,"Jan 15 - Mar 29, Apr 02 - Jun 30, Sep 15 - Oct 15, Nov 01 - Dec 15",Jan 15 - Mar 29,Apr 02 - Jun 30,Sep 15 - Oct 15,Nov 01 - Dec 15,,,,,46.0717383,13.2340117
2643,UDINE,UDINE,-,Maria Teresa di Nicoletti Maria Teresa,,Maria Teresa,-,-,Via Ermes di Colloredo, 11/6,33100,+39 0432 45138  347 8357639,+39 347 8357639,+39 0432 45138,bbmariateresa@libero.it,,2,5,1,"Jan 01 - May 15, Jun 15 - Dec 31",Jan 01 - May 15,Jun 15 - Dec 31,,,,,,,46.0717383,13.2340117
35481,UDINE,UDINE,-,Tre Cuori di Ardoino Cristiana,Tre Cuori ,Ardoino Cristiana,-,-,Via Capodistria, 43/1,33100,+39 0432 481211,+39 347 4946141,,3cuori@gmail.com,,2,5,2,"Jan 01 - Feb 01, Feb 15 - Jun 15, Jul 05 - Dec 31",Jan 01 - Feb 01,Feb 15 - Jun 15,Jul 05 - Dec 31,,,,,,46.0742567,13.2484804
65160,UDINE,VARMO,Superior,Villa Bartolini di Tammaro Massimo,Villa Bartolini ,Tammaro Massimo,-,SANTA MARIZZA,Via Due Platani,15,33030,,+39 392 8268213,,,,3,8,3,Mar 01 - Nov 15,Mar 01 - Nov 15,,,,,,,,45.8972201,12.9791366
62562,UDINE,VARMO,Comfort,Ai Prati di Guatelli Dante,Ai Prati ,Guatelli Dante,-,ROMANS,Via dei prati,17,33030,,+39 338 2048548,,,,4,8,4,"Jan 01 - Jan 08, Jan 28 - Oct 13, Oct 23 - Dec 31",Jan 01 - Jan 08,Jan 28 - Oct 13,Oct 23 - Dec 31,,,,,,45.891832,13.0199642
41600,UDINE,VENZONE,Standard,Capelli D Angelo di Cancellieri Elisa,Capelli D Angelo ,Cancellieri Elisa,-,-,Via Alberton del Colle,1,33010,,+39 3493661292,,elisacancellieri81@gmail.com,,2,5,1,"Jan 01 - Feb 15, Apr 15 - Oct 31, Dec 15 - Dec 31",Jan 01 - Feb 15,Apr 15 - Oct 31,Dec 15 - Dec 31,,,,,,46.3338996,13.1384768
65360,UDINE,VENZONE,Standard,Casa di Carnia di Grillo Giovanni,Casa di Carnia ,Grillo Giovanni,-,CARNIA,Via dai Valents,17,33010,,+39 3471526909,,giovanni_grillo@libero.it,,2,4,2,May 01 - Oct 31,May 01 - Oct 31,,,,,,,,46.3757368,13.1338971
71140,UDINE,VENZONE,Standard,Jasmina Venzone B&B,,,-,-,Via degli Alpini,21,33010,+39 346 7333960,+39 346 7333960,,info@jasminavenzone.it,http://www.jasminavenzone.it,3,6,2,Jan 01 - Dec 31,Jan 01 - Dec 31,,,,,,,,46.3300649,13.138765
54367,UDINE,VERZEGNIS,Superior,La Gerla Blu di Paschini Pietro,La Gerla Blu ,Paschini Pietro,VERZEGNIS,CHIAULIS,Via Vittorio Cella,7,,+39 0433 44646,+39 333 3375166,,lagerlablu@virgilio.it,,4,8,4,"Jan 01 - Jan 15, Mar 16 - Oct 31, Dec 01 - Dec 31",Jan 01 - Jan 15,Mar 16 - Oct 31,Dec 01 - Dec 31,,,,,,46.3883235,12.9921566
46161,UDINE,VILLA VICENTINA,Standard,B&B Casa Perini di Perini Ludovica,B&B Casa Perini ,Perini Ludovica,-,-,Via Giuseppe Garibaldi, 52/A,33059,,+39 335 5919471,,info@casaperini.it,http://www.casaperini.it/,3,6,2,"Mar 15 - Oct 31, Nov 20 - Dec 31",Mar 15 - Oct 31,Nov 20 - Dec 31,,,,,,,45.8216739,13.3844589