codice esercizio,COMUNE,name,operator,INDIRIZZO 1,INDIRIZZO 2,phone,FAX,EMAIL,SITO,N_CAMERE,N_POSTI_LETTO,oh,lat,lng
48460,CORMONS,B&B da Sandruta,Zanuttin Stefano,Via Gorizia, 18/3,+39 0481 630887;+39 328 1792456,,dasandruta@yahoo.it,,1,4,"Jan 01 - Aug 11, Aug 13 - Dec 31",45.9525093,13.4709956
40080,CORMONS,B&B Morena,Picech Morena,Via Bancaria,17,+39 0481 630370;+39 328 8690394,+39 0481 630670,corradomorena@alice.it,,2,4,Jan 10 - Dec 20,45.9535696,13.4668872
2455,CORMONS,La Casa di Alice,Brandolin Anna,Via Ara Pacis,22,+39 335 377994,+39 0481 61743,annabrandolin@tiscali.it,http://www.wel.it/alice,4,8,Mar 15 - Dec 15,45.9538702,13.4647785
34720,CORMONS,Al Piave,Mrmolja Zora,Via Piave, 29/3,+39 0481 60250;+39 329 2128745,+39 0481 60250,,,1,4,"Jan 01 - Aug 14, Sep 01 - Dec 14",45.9596688,13.4665285
53582,CORMONS,B & B Kozovci,Sirk Adriano,Via Subida,67,+39 0481 60531,+39 0481 61616,info@lasubida.it,http://www.lasubida.it,1,3,Jan 01 - Feb 16,45.9637843,13.4932214
66901,CORMONS,Sunny S House,Gaeta Ciro,Via Colombicchio, 4/TER,+39 335 1590350  338 4577939,,cirogaeta@alice.it,,1,3,Jan 01 - Dec 31,45.9620958,13.4627755
43640,DOBERDÒ DEL LAGO,Villa Al Bosco,Stepanovic Radmila,Via Primo maggio, 3/A,+39 333 7375197,,villaalbosco@yahoo.it,http://www.villa-albosco.it,2,4,Jun 01 - Aug 31,45.8198019,13.5789200001601
49461,DOLEGNA DEL COLLIO,Casale Santa Rita,Travaglio Rita,Località Vencò,16,+39 048 1639145;+39 340 0753210,+39 048 1629500,franco.giorgini@libero.it,,1,2,May 01 - Sep 30,46.0012133,13.4630285
3340,DOLEGNA DEL COLLIO,Casa Delle Rose,Culot Maurizia,Frazione Ruttars,17,+39 347 7515804,+39 0481 33997,info@casadellerose.it,http://www.casadellerose.it,2,5,May 01 - Sep 30,45.9851006,13.4863877
33840,DOLEGNA DEL COLLIO,Il Girasole,Stafuzza Sabrina,Località Vencò,8,+39 0481 61692;+39 338 8997339,,bb-girasole@email.it,,3,7,Mar 01 - Jul 15,46.0038631,13.4662616
70961,FARRA DISONZO,News Home,Brumat Valentina,Via Dante Alighieri,42,+39 340 4960722;+39 340 4960722,,valebrumat@gmail.com,,2,4,Mar 01 - Nov 30,45.9060659,13.5191168
2379,FOGLIANO REDIPUGLIA,Xweek,Zonca Marco,Via Cau de Soto, 27/12,+39 348 2868641,,marco@xweek.it,http://www.xweek.it,2,6,"Jan 01 - Aug 31, Sep 16 - Dec 31",45.8656618,13.4787575
71282,GORIZIA,B&B Teuffenbach,Orzan Francesca,Località Piuma,30,+39 346 3010870,,villateuffenbach@gmail.com,,2,4,Jan 01 - Dec 31,45.96211005,13.6154388101601
38620,GORIZIA,Flumen,Katja Klanjscek,Via Brigata Cuneo,20,+39 0481 391877;+39 347 1289944,+39 0481 391877,info@bbflumen.it,http://www.bbflumen.it,3,8,"Jan 01 - Jan 09, Jan 21 - Jan 29, Feb 04 - Feb 26, Mar 04 - Jul 29, Aug 05 - Dec 11, Dec 16 - Dec 31",45.9500345,13.6034792
42441,GORIZIA,B&B Lucia,Nanut Paolo,Via del San Michele, 300/D,+39 0481 522963;+39 340 3955606,,paolo.nanut@libero.it,,3,6,"Jan 01 - Feb 17, Feb 23 - Dec 31",45.9283705,13.6053341
48960,GRADISCA DISONZO,La Fortezza,Pugliese Assunta,Viale Trieste,27,+39 0481 483236;+39 338 6227497,,assita46@libero.it,,1,2,"Jan 03 - Jan 15, Feb 01 - Sep 30, Nov 01 - Dec 31",45.8874103,13.5005061
64603,GRADO,Al Bon Vento,Galante Brian,Via Cittanova,17,+39 333 1070983,,albonvento@gmail.com,,3,6,Mar 21 - Oct 21,45.7210677,13.5222983
33400,GRADO,Alle Conchiglie,Benolich Maria,Via Isonzo Vecchio,21,+39 0431 88157;+39 339 5393515,+39 0431 88157,,,2,3,Apr 01 - Oct 31,45.7207793,13.5058199
69100,GRADO,Casa di Mirea,Carmine Gianni,Via del Tintoretto,13,+39 339 4326013,,,,4,7,Jan 01 - Dec 31,45.679793,13.3846212
72221,GRADO,Al Sol Levante,Zeper Nereo,Via Verteneglio,7,+39 0431 88169,,nereozeper@gmail.com,,2,5,Jan 01 - Dec 31,45.729263,13.5284802
67221,MEDEA,Bed & Breakfast East Wind,Armone Patrizia,Via Scuole,5,+39 339 4884613,,,,2,4,"Mar 15 - Aug 30, Oct 01 - Dec 31",45.9168088,13.4251084
54700,MONFALCONE,,,Via Sorgente,6,+39 348 9217017,+39 0,argiro.silvio@libero.it,,3,5,Jan 01 - Dec 31,,
63841,MONFALCONE,,,Viale San Marco,60,+39 320 4385525,,b&b@angelorossi.it,,2,3,Jan 01 - Dec 31,45.8065649,13.5347426
72300,MONFALCONE,B & B Il Ciliegio,Piazza Laura,Via Aulo Manlio,41,+39 340 8320555,,,,2,2,Jan 01 - Dec 31,45.8008939,13.5267525
49961,MONFALCONE,B & B da Leo,Marchione Christian,Via San Nicolò, 11 P.I^,+39 0481 095770;+39 373 8684850,+39 0481 1990230,christian.marchione@libero.it,http://www.bbdaleo.it,2,3,Feb 01 - Nov 30,,
52800,MONFALCONE,L Ormeggio,Favretto Laura,Via San Gabriele,2,+39 320 8538875,,bandb.lormeggio2013@tiscali.it,,4,7,"Jan 01 - Feb 15, Mar 01 - May 10, May 20 - Jul 31, Aug 01 - Nov 15, Dec 04 - Dec 31",45.7973268,13.5313572
54000,MONFALCONE,La Casa Piccola,Maggiore Maurizio,Via Trieste,128,+39 0481 484210;+39 348 2700815,,lacasapiccola@libero.it,,2,3,Jan 01 - Dec 31,45.8067241,13.5141008
55780,RONCHI DEI LEGIONARI,B&B Borgo San Vito,Deiuri Ivana,Via San Vito,8,+39 340 2882561;+39 340 2882561,,info.borgosanvito@gmail.com,http://www.borgosanvito.it,1,2,Jan 01 - Dec 31,45.8199173,13.5001021
57720,RONCHI DEI LEGIONARI,,Beltrame Alessio,Via Monte Cosich,62,+39 334 6060890,,eziodona@gmail.com,,1,2,Jan 01 - Dec 31,45.8241084,13.5194679
57700,RONCHI DEI LEGIONARI,,,Via delle Loare,9,+39 0039 347 8950101,,taniapetroni89@gmail.com,,1,2,Apr 01 - Dec 31,45.8302605,13.4954677
44000,RONCHI DEI LEGIONARI,Villa Anita,Marizza Paolo,Piazza San Tommaso, 10/B,+39 0481 475244,,anita@villanita-guesthouse.it,http://www.villanita-guesthouse.it,2,4,"Apr 01 - Sep 30, Oct 15 - Dec 31",45.8371597,13.4856157
48920,SAGRADO,B & B S. Martino,Fegino Renato,Via Piantella,3,+39 335 7866921,,renatofegino@alice.it,,2,4,"Jan 01 - Jan 15, Mar 01 - Oct 15, Dec 15 - Dec 31",45.8741117,13.5331416
61060,SAGRADO,,Cicutto Eduardo,Via Dante Alighieri,33,+39 380 6916345,,cicutto3000@gmsil.com,,2,4,Jan 01 - Dec 31,45.8756351,13.4849505
64920,SAGRADO,La Fojarola,Leghissa Giada,Via Vicenza,23,+39 0481 969812;+39 339 1547412,,giadaleghissa@yahoo.it,,3,6,Jan 01 - Dec 31,45.8745855,13.5330084
63481,SAN PIER DISONZO,Happy Family,Lai Flavia,Via San Zanut,80,+39 329 8583786,,,,4,6,Jan 01 - Dec 31,45.8338082,13.4670667
48040,STARANZANO,Trova Tempo,Stefanetto Lorenza,Via Grappeta,28,+39 338 630 5572,+39 0481 483116,lorenzastefanetto@gmail.com,,1,1,"Jan 01 - Jan 06, Jan 22 - Sep 07, Sep 22 - Dec 31",45.7625892,13.5163845
46740,TURRIACO,,Tosorat Graziella,Via San Francesco dAssisi,5,+39 0481 470364;+39 345 413 7231,+39 0481 470364,info@bbisonzo.it,http://www.bbisonzo.it,4,8,"Jan 01 - Jan 08, Mar 01 - Nov 06, Nov 26 - Dec 31",45.8206515,13.4504347
54200,TURRIACO,B & B La Casetta,Bergamasco Tiziano,Via San Francesco dAssisi,7,+39 342 1952099,,info.bblacasetta@gmail.com,,1,6,Jun 10 - Dec 31,45.8206515,13.4504347
40620,TURRIACO,Casa Paschi,Chittaro Caterina,Via Marcon,37,+39 0481 767276;+39 347 4612447,,casapaschi@libero.it,http://www.casapaschi.it,3,8,Feb 01 - Nov 30,,
54980,VILLESSE,Da Marina,Marizza Marina,via Roma,7,+39 320 5340930,,MARIZZAMARINA@PEC.IT,,2,6,Jan 01 - Dec 31,45.8597024,13.4379228
39640,AVIANO,Casa Piazza,Bonomi Alessandra,Via padre Marco,10,+39 331 3002725,+39 0434 651158,bbcasapiazza@live.it,http://www.bbcasapiazza.it,3,5,"Jan 01 - Jan 06, Jan 16 - Apr 01, Apr 10 - Oct 07, Oct 17 - Dec 31",46.0699922,12.5885194
53660,AVIANO,Al Ridovan,Biasutti Gianluigi,Via Wassermann,38,+39 348 0341121  e 349 7107990,,info@bbalridovan.it,http://www.bbalridovan.it,3,7,"Jan 01 - May 14, Jun 01 - Nov 14, Dec 01 - Dec 31",46.0734506,12.625765
46380,AZZANO DECIMO,,,Via Chiesa Antica,6,+39 0434 649165;+39 335 7049558,+39 0434 648152,info@camarsure.com,http://www.camarsure.com,3,6,Mar 01 - Nov 30,45.8486582,12.6882548
72222,AZZANO DECIMO,,Campagnutta Elio,Via San Pietro in Piagno,4,+39 0434 646288;+39 366 176 2464,,acampagnutta@gmail.com,http://www.bblabarchessa.it,4,8,"Feb 01 - Jul 31, Sep 01 - Oct 31, Dec 01 - Dec 31",45.9163731,12.6544023
49901,BRUGNERA,La Casa Rossa,Casetta Graziella,Via Carriade,44,+39 348 0354898,+39 0434 606771,graziella_casetta@libero.it,,2,4,"Jan 01 - Jul 31, Aug 11 - Sep 20, Oct 01 - Dec 31",45.9257265,12.546335
2652,BUDOIA,Le Glicini,Pitton Armida,Via Friuli, 19B,+39 0434 653035;+39 349 5592385,,leglicini@gmail.com,https://www.facebook.com/BedandBreakfastLeGlicini,2,3,Mar 08 - Dec 08,46.0484486,12.5359762
58760,BUDOIA,,Iracema Silva,Via Pordenone,31,+39 0434 653480;+39 334 8477122,,tommaso.rosatella@gmail.com,http://www.mariabedandbreakfast.it,3,6,Jan 01 - Dec 31,46.040817,12.53964
68341,CANEVA,"B&B ""la Mola """,Posocco Stefania,Via dei Figherat,9,+39 391 7115455,,info@lamolacaneva.it,http://www.lamolacaneva.it,4,8,"Jun 28 - Nov 03, Nov 20 - Dec 31",45.9683234,12.4307577
68340,CANEVA,,Osta Graziella,Piazza del Carmine, 6/A,+39 331 1143121,,,,2,4,"May 20 - Oct 20, Dec 01 - Dec 31",45.9677007,12.4339006
47580,CASTELNOVO DEL FRIULI,B&B Valli Pordenonesi I,Trevisanutto Donatello,Località Almadis,17,+39 0427 97515;+39 335 7170808,,donatello.trevisanutto@gmail.com,http://www.bedfriuli.it,2,6,"Jan 01 - Jan 08, Apr 01 - Sep 15, Dec 20 - Dec 31",46.2092928,12.897066
33380,CHIONS,B&B Villa Sbrojavacca,Sbrojavacca Carlo,Via Dante,23,+39 346 0396661,,bbvilla@artinelbosco.org,http://www.artinelbosco.org\b&bvilla,3,6,Mar 21 - Dec 09,,
36961,CORDENONS,Kip,Manzato Rebecca,Via delle Acque,23,+39 0434 41476;+39 333 2008771,+39 0434 41476,info@bbkip.com,http://www.bbkip.com,3,6,"Jan 01 - Jan 11, Jan 16 - Apr 12, Apr 17 - Jul 05, Jul 11 - Oct 11, Oct 16 - Dec 31",45.9729193,12.6880949
64624,ERTO E CASSO,,Angelo Paolo,Via Prada,6,+39 329 0506340,,autotrasportirosina@pec.it,,1,4,Jan 01 - Dec 31,,
61801,FANNA,B&B Castellani,Mion Matteo,Via Castellani,38,+39 333 1070799,,bb.castellani@gmail.com,http://www.bedbreakfast-castellani.it,2,4,Jan 01 - Dec 31,46.1856604,12.7482306
62560,FONTANAFREDDA,,Lucchi Clara,Via Ledrania,10,+39 3333705289,,claradelucchi@gmail.com,,2,4,Jan 01 - Dec 31,,
69580,FRISANCO,B&B In Fattoria,Simonetto Giulia,Borgo Polazza,,+39 347 5286854,,fattoriadimonte@gmail.com,,1,3,Jan 01 - Dec 31,46.2017553,12.7184982
37160,FRISANCO,Villa Spluma,Pes Sabrina,Via Roman,9,+39 0427 78281;+39 338 8316910,,sabri.pes@tiscali.it,,2,5,"Apr 20 - May 02, May 19 - Jun 18, Jun 29 - Sep 17",46.2178529,12.7096072
2486,FRISANCO,,Brustolo Gianna,Via Voul, 10/3,+39 349 5109420,,,,2,4,Jul 01 - Sep 30,46.2175005,12.7080188
2596,MEDUNO,,Bianco Arigo,Via della Stazione,39,+39 0427 86548;+39 333 3989016,+39 0427 86548,delbiancoarigo@gmail.com,,2,6,"Mar 17 - May 21, May 27 - Jul 19, Jul 24 - Oct 02, Oct 07 - Dec 26",46.2028817,12.802195
41880,MEDUNO,La Piccola Venezia,Meneghin Paola,Via Mizzeri,27,+39 347 3904459,,,http://www.friuli.net/paolameneghin,2,4,"Jan 15 - Mar 15, Apr 01 - May 31, Jun 15 - Aug 30, Sep 15 - Dec 31",46.2156469,12.7986244
69421,PASIANO DI PORDENONE,La Casa di Lucia,Parcianello Lucia,Via Brozzette di Pozzo,9,+39 335 303178,,,,2,4,Jan 01 - Dec 31,45.8429979,12.6153003
2611,PINZANO AL TAGLIAMENTO,Alice,Mingolo Ombretta,Via Circonvallazione,19,+39 0432 950647;+39 333 3659335,,,,2,4,"Jan 01 - Jan 30, Mar 01 - Apr 30, Jun 01 - Sep 30, Dec 01 - Dec 31",46.1817766,12.9465751
38080,PINZANO AL TAGLIAMENTO,B&B Le Muse,Pellegrini Ivo,via Roma,65,+39 0432 950706;+39 392 0353980,,info@sinergypn.com,,2,6,Sep 22 - Oct 31,46.1677239,12.9219007
47860,POLCENIGO,B&B Gorgazzo,Celant Vanda,Via Giuliana,32,+39 0434 748959;+39 348 9195794,,bbgorgazzo@gmail.com,,2,4,Feb 01 - Dec 31,46.0382731,12.4952738
35120,POLCENIGO,Lucia,Ivan Lucia,Via Nuova,5,+39 339 7304898,,lucia.ivan23@gmail.com,,2,4,"Mar 01 - Jun 30, Jul 10 - Sep 15, Oct 01 - Dec 30",46.026802,12.5121215
2541,POLCENIGO,Palazzo Scolari,Salice Anna,Via Gorgazzo,2,+39 0434 74100;+39 320 0726080,,palazzo.scolari@gmail.com,http://www.palazzoscolari.it,3,7,"Jan 01 - Jan 07, Mar 28 - Nov 04, Dec 20 - Dec 31",46.0310884,12.5019455
63440,PORCIA,Ca Del Cuore,Pasut Franca,Via Muzzile,68,+39 3473737207,,,,2,4,Jan 01 - Dec 31,45.9545027,12.6240507
51400,PORCIA,,,Via Piave,2,+39 0434 082243;+39 3471045306,,il.tubia.bb@gmail.com,http://www.iltubia.wordpress.com,2,4,Mar 01 - Nov 30,45.9575248,12.6302931
52860,PORDENONE,,Mary Anne,Via Adamello, 7/B,+39 347 5451283 / 338 4686658,,casadimary@gmail.com,http://www.casadimary.it,2,4,"Jan 01 - Feb 10, Mar 03 - Dec 31",45.9749098,12.6778578
64540,PORDENONE,,,Via Nuova di Corva,87,+39 388 7888628,,info@lavalada.it,http://www.lavalada.it,2,4,"Jan 01 - Jan 03, Mar 03 - Dec 31",45.9442155,12.6641059
61760,PORDENONE,,Maria Elena,Via Brugnera,15,+39 0434 578114;+39 334 3323156,,marilena.klugmann@gmail.com,http://www.bbnaon.com,2,3,Jan 01 - Dec 31,45.9280834,12.6412474
65480,PORDENONE,,,Via Beata Domicilla,17,+39 347 4080072,,santosh_sadeha@yahoo.it,,3,4,"Jan 10 - Jul 03, Jul 11 - Dec 30",45.9606047,12.6692051
58960,PORDENONE,,Maria Lisa,Via delle Campanelle,6,"+39 3,93505E+11;+39 3,93505E+11","+39 3,91782E+11",info@ilcampanile.eu,http://www.ilcampanile.eu,2,4,Jan 01 - Dec 31,,
68500,PORDENONE,B & B Airis,Falomo Enrico,Corso Giuseppe Garibaldi,48,+39 333 6695585,,daria.moro22@gmail.com,,3,5,"Jan 07 - Jun 14, Aug 25 - Dec 21",45.9608495,12.6564468
48381,PORDENONE,Casa Ai Gelsomini,Tius Silvano,Via Molinari,14,+39 347 3044566,,lovisan@libero.it,http://casaaigelsomini.it,1,2,Feb 15 - Nov 14,45.9630823,12.6602957
49380,PORDENONE,Donna Prassede,Zanatta Prassede,Via Genova Cavalleria,19,+39 0434 362150;+39 328  1720088,,prassede27@libero.it,,2,3,Feb 15 - Nov 30,,
48360,PORDENONE,,Re Enrichetta,Via Montereale,45,+39 0434 366288;+39 347 9142498,+39 0434 366288,info@giardinoincitta.it,http://www.giardinoincitta.it,3,6,"Jan 17 - Aug 12, Aug 27 - Dec 31",45.9695247,12.6510119
52180,PORDENONE,Girasole,Rosset Tiziana,Via della Resistenza,10,+39 349 2192209,+39 0434 361923,bbpordenone@gmail.com,,3,7,Mar 01 - Dec 31,45.9694273,12.6466165
50302,PORDENONE,La Gila,Guarini Roberto,Via Montereale,22,+39 329 9264965,,info@bblagila.it,http://www.bblagila.it,3,6,"Jan 01 - Jan 09, Feb 11 - Jul 31, Aug 31 - Nov 14, Dec 16 - Dec 31",45.9664013,12.6533631
34740,PORDENONE,Camera Doppia,Caiazzo Giusy,Via Montebelluna,16,+39 392 9800975,,info@cameradoppia.it,,3,6,"Jan 08 - Aug 05, Sep 05 - Dec 23",45.9296191,12.6420616
44481,PORDENONE,,Pauletto Natalia,Via Eraclea,17,+39 335 6791330,,info@bbcivico22.it,http://www.bbcivico22.it,3,6,"Feb 01 - Jul 31, Sep 01 - Dec 31",45.9648599,12.6603852
40584,PORDENONE,E.B. Camere In Villa,Martin Bruno,Via San Quirino,60,+39 0434 364305,,bedandbreakfast-pn@hotmail.it,,3,6,"Jan 01 - Sep 30, Nov 01 - Dec 31",45.9715949,12.6543458
40582,PORDENONE,Il Vicolo Camere In Villa,Martin Matteo,Via Roggiuzzole,5,+39 345 6089089,,bedandbreakfast-pn@hotmail.it,,1,2,"Jan 01 - Sep 30, Nov 01 - Dec 31",45.965842,12.655931
40583,PORDENONE,,Gian Maria,Via Roggiuzzole,5,+39 348 3001827,,bedandbreakfast-pn@hotmail.it,,2,4,"Jan 01 - Sep 30, Nov 01 - Dec 31",45.965842,12.655931
56800,SACILE,Casa Carrer,Carrer Gilberto,Strada Valle Brugnera,7,+39 0434 767927,,info@casacarrer.it,,4,8,"Feb 04 - Feb 17, Mar 11 - Nov 07, Dec 07 - Dec 31",45.91567,12.52503
35280,SACILE,Ca Livenza,Vicenzot Carla,Via Ronche,72,+39 0434 734853;+39 338 5032213  333 3127116,,calivenza@libero.it,http://www.calivenza.it,3,6,"Jan 01 - Jan 03, Jan 11 - Mar 14, Mar 19 - Oct 03, Oct 08 - Dec 31",45.96948,12.48874
64520,SAN GIORGIO DELLA RICHINVELDA,,Borgo Leone,Via Borgo Leone, 35/1,+39 3404963701;+39 3404963701,+39 0427 94663,dbgiovanni@hotmail.it,,2,4,"Mar 01 - Sep 21, Oct 21 - Dec 21",46.0199094,12.8271188
69620,SAN QUIRINO,Ai Templari,Rosset Ivana,Via dei Templari,16,+39 0434 366464;+39 347 5830514,,info@aitemplari.com,,1,2,Jan 01 - Dec 31,45.9999489,12.65623
52380,SAN QUIRINO,Podere 35,Arca Graziella,Via Pola,2,+39 0434 919470;+39 334 7352045,,regra1@virgilio.it,,1,2,Feb 12 - Nov 09,46.0265492,12.6441021
66680,SAN VITO AL TAGLIAMENTO,Chiaro di Luna,Trevisan Alessandro,Località Santa Sabina,10,+39 338 8531926  334 2615271,,info.bebchiarodiluna@gmail.com,,3,4,"Jan 01 - Jun 30, Sep 01 - Dec 31",45.8941312,12.8857506
66841,SEQUALS,Bed And Breakfast da Paolo,Zara Paolo,Via del Capitel,4,+39 042 793587,,sassodoto@pec.coldiretti.it,,2,4,Jan 01 - Dec 31,46.1774149,12.8165757
59040,SESTO AL REGHENA,Allaolla,Nonis Misha,Via Monte Santo, 40B,+39 0039 3289778321,,info@allaolla.it,http://www.allaolla.it,1,6,Jan 08 - Dec 06,45.866808,12.8601706
33022,SESTO AL REGHENA,Vignal,Scacco Roberta,Via Mielma,51,+39 328 4067691,,info@vignal.it,http://www.vignal.it,3,6,"Jan 04 - Feb 09, Feb 14 - Jul 31, Aug 25 - Dec 22",45.8665097,12.8423017
63061,SPILIMBERGO,Cuore di Lavanda,Micheli Stefania,Via Damiano Chiesa,6,+39 392 2115603,,cuoredilavanda@gmail.com,http://www.cuoredilavanda.it,3,6,"Jan 01 - Jan 03, Feb 24 - Mar 06, Mar 24 - Dec 31",46.1425815,12.90569
40621,SPILIMBERGO,,Marchi Patrizia,Corso Roma,28,+39 339 2697717,,info@relaislatorre.com,http://www.relaislatorre.com,3,8,"Jan 01 - Jan 09, Jan 20 - Jan 24, Jan 30 - Feb 14, Feb 22 - Mar 02, Mar 12 - Mar 23, Mar 30 - Sep 19, Sep 28 - Oct 15",46.1112804,12.8999967
45120,SPILIMBERGO,,,Vicolo Stretto,1,+39 0427 950970;+39 339 1449410,,borgomora@borgodalamora.it,http://www.borgodalamora.it,1,3,Apr 01 - Dec 31,46.1062579,12.8635246
2397,TRAVESIO,I Girasoli,Ballarin Tamara,Via Garibaldi,22,+39 0427 90493;+39 334 3180668,+39 0427 90493,info@igirasoli.org,http://www.igirasoli.org,3,8,"Jan 01 - Jan 07, Mar 23 - Dec 31",,
66881,VALVASONE ARZENE,B & B Maiaroff,Truant Adriano,Via Maiaroff,21,+39 0434 898844;+39 337 545771,,adrianotruant@gmail.com,,2,6,Feb 01 - Sep 30,45.9941104,12.8522453
66880,VALVASONE ARZENE,Casa Menini B&B,Menini Umberto,Via Cesare Battisti,4,+39 0434 89021;+39 340 5993136,+39 0434 899970,info@casamenini.it,http://www.casamenini.it,3,8,Apr 01 - Dec 31,,
50361,VALVASONE ARZENE,Giardino In Corte,Stoinoff Sofia,Via Bando,2,+39 3385899420,,bbgiardinoincorte@gmail.com,http://www.bbgiardinoincorte.com,4,7,Apr 21 - Sep 30,45.9998871,12.8616255
35920,VALVASONE ARZENE,La Contrada,Paron Aldo,Vicolo monte Santo,1,+39 0434 89142;+39 339 3763747,,aldovalv@alice.it,,3,6,Mar 01 - Nov 30,45.996442,12.8615402
2479,VALVASONE ARZENE,Rovere Dalla Riva,Rovere Ivano,Via Alpi,30,+39 0434 899401;+39 338 8003666,+39 0434 899401,,,3,6,"Jan 01 - Jan 06, Apr 01 - Dec 31",46.0009198,12.8471355
35460,VIVARO,All Alba Dei Magredi,Trevisanutto Gelindo,Via Spilimbergo,2,+39 335 7170805,+39 0427 97515,gelindo.gelindo@libero.it,,2,6,"Jan 01 - Jan 30, Mar 01 - Apr 30, Jun 01 - Sep 30, Oct 01 - Dec 31",46.0861572,12.7901825
41360,VIVARO,Bepu Pegna,Trevisanutto Chiara,Via Vittorio Emanuele,64,+39 335 7170807,,chiara.trevisanutto@gmail.com,,1,2,"Jan 01 - Jan 07, Apr 01 - Apr 30, Jul 01 - Aug 30, Sep 01 - Sep 30, Oct 01 - Nov 09, Dec 15 - Dec 31",46.0740621,12.779446764749
67483,ZOPPOLA,,Vecchio Glicine,Via Saciletti,17,+39 338 2293551,,orianafavretti@alice.it,,2,5,Jan 01 - Dec 31,45.9677887,12.7650187
42902,Duino Aurisina,Castello,Lanz Veronique,Via Duino, 35/A,+39 040 208120,+39 040 2071398,visite@castellodiduino.it,,2,5,Mar 01 - Nov 24,,
50120,Duino Aurisina,Duino Stella Maris,Valenti Alba,Via Duino, 78/D,+39 347 2311979,,MIKIsub@gmail.com,http://www.duinostellamaris.it,3,5,"Jan 01 - Jan 10, Mar 05 - Nov 30, Dec 05 - Dec 31",,
50020,Duino Aurisina,Da Rosy,Mrvcic Nicholas,Via Sistiana, 59/L,+39 333 3458435;+39 333 3458435,+39 040 299176,darosybb@gmail.com,http://www.darosy.it,4,8,"Jan 01 - Jan 13, Jan 18 - Dec 31",,
47340,Duino Aurisina,Le Falesie,Bosio Chiara,Via Sistiana, 29/A,+39 380 7023047,,bb@lefalesie.it,http://www.lefalesie.it,2,4,Jan 01 - Dec 31,,
41900,Duino Aurisina,Oltremare,Jerman Walter,Via Sistiana, 34/E,+39 338 9378246,,info@oltremaresistiana.it,http://www.oltremaresistiana.it,3,6,"Jan 01 - Nov 01, Dec 01 - Dec 31",,
40820,Duino Aurisina,Pane E Tulipani,Tavcar Goran,Via Duino, 75/Z,+39 329 7213197,,pantulipani@gmail.com,http://www.pantulipani.splinder.com,3,6,"Mar 01 - Mar 30, May 01 - May 30, Jun 01 - Jun 30, Jul 01 - Jul 31, Aug 01 - Aug 30, Sep 01 - Oct 30",,
52460,Duino Aurisina,Porto Del Bivio,Marchesich Federica,Via Duino, 75/V,+39 339 2864170,,FEDERICA.MARCHESICH65@gmail.com,,2,4,Mar 21 - Dec 31,,
40821,Duino Aurisina,Strupetou,Bernasconi Paola,Via Chialina,16,+39 040 2907126;+39 347 7950723,,info@strupetou.it,http://www.strupetou.it,2,6,Mar 27 - Nov 03,,
63480,MUGGIA,,Felice Maura,Località Pontario,31,+39 333 1652009,,curetanona@gmail.com,,2,5,"Apr 01 - Jul 11, Jul 25 - Dec 01",,
59800,MUGGIA,B&B Silvia,Leuz Silvia,Via San Bartolomeo, 22/F,+39 335 1247805,,silvialeuz@gmail.com,,4,8,"Jan 01 - Jan 14, Jan 23 - Oct 24, Nov 02 - Dec 31",,
63160,MUGGIA,Uphill,Milic Olivera,Salita Muggia Vecchia,4,+39 329 0634922,,milic.olivera@gmail.com,,3,7,Mar 01 - Oct 31,45.6052913,13.7640949
43882,MUGGIA,B&B Le Vele,Zuppet Serafino,Lungomare Venezia,7,+39 040 330747;+39 349 3999242,,,http://www.inognidove.com,2,5,Apr 15 - Dec 15,45.6059663,13.7635649
64440,SAN DORLIGO DELLA VALLE - DOLINA,B&B Sotto Il Volto,Zannier Ruggero,Strada della Rosandra,114,+39 3389077539;+39 3480060824,,alexiapillepich@gmail.com,,1,4,Feb 01 - Oct 30,45.6186714,13.864808
58900,SAN DORLIGO DELLA VALLE - DOLINA,B&B Torrente Rosandra,Pozzer Andrea,Vicolo Superiore,152,+39 040 8327132;+39 3661460868,,andreapozzer@hotmail.com,,2,5,"Jan 01 - Jan 11, Feb 14 - May 18, May 30 - Dec 31",,
55621,SAN DORLIGO DELLA VALLE - DOLINA,,Codaglio Michele,Strada della Rosandra,135,+39 040 281954;+39 328 1749827,,BBROSANDRA@GMAIL.COM,,1,3,"Jan 01 - Jan 15, Jan 30 - Dec 31",45.6186714,13.864808
64023,SAN DORLIGO DELLA VALLE - DOLINA,,Cavalli Cinzia,Via Franconia,388,+39 3274582281,,bbmikezejakeze@hotmail.com,http://www.bbmikezejakeze.it,2,5,Mar 01 - Dec 31,,
69060,TRIESTE,Addicted To Paradise,Elena Allegranti,Via Cellini,2,+39 339 6426799;+39 339 6426799,,eleenuccia@hotmail.it,,1,2,Nov 23 - Dec 31,,
56760,TRIESTE,,Luisa Viezzoli,Via Costalunga,69,+39 040 814668;+39 333 9491595,,luisaviezzoli@yahoo.it,,1,3,"Jan 11 - Jan 29, Feb 08 - Dec 31",45.6338028,13.7920238
49080,TRIESTE,Al Tramonto,Giambirtone Rosalba,Salita di Contovello, 69/2,+39 040 412086;+39 334 3672222,,info@triestealtramonto.it,http://WWW.TRIESTEALTRAMONTO.IT,2,5,"Mar 15 - Jun 11, Jun 21 - Nov 05, Dec 07 - Dec 31",45.6909857,13.7444843
47742,TRIESTE,All Ancora Blu,Olivo Dorina,Via Commerciale, 148/5,+39 33 16319594,+39 040 43136,gavazzisa@tin.it,http://www.bebancorablu.it,1,3,Sep 01 - Dec 31,45.6651618,13.7797756
71220,TRIESTE,,Alberto Liviani,Via dei Moreri,86,+39 334 3327148;+39 334 3327148,,info@casasconta.it,http://WWW.CASASCONTA.IT,4,8,Jun 15 - Dec 31,45.6690437,13.7739594
52240,TRIESTE,Alla Casetta,Pietrobelli Elisabetta,Località Cianal,217,+39 040 214651;+39 333 2942744,,info@allacasetta.it,http://www.allacasetta.it,2,7,"Jan 01 - Oct 15, Dec 01 - Dec 31",,
51721,TRIESTE,Amelie,Bufo Leonardo,Via San Francesco,23,+39 345 2973930,,info@amelietrieste.it,http://www.amelietrieste.it,3,7,"Jan 01 - Jan 03, Jan 11 - Jan 31, Feb 08 - Dec 31",,
51720,TRIESTE,Atelier Lidia Polla,Bilucaglia Laura,Via del Coroneo,1,+39 334 7150231,+39 40633650,atelierlidiapolla@gmail.com,http://www.atelierlidiapolla.com,2,7,"Jan 01 - Jan 17, Jan 25 - Feb 07, Feb 15 - Dec 31",45.6530702,13.7771464
70721,TRIESTE,Bellavista di Conconello,Barbara Ferluga,Via Bellavista, 25/2,+39 334 5782965,,barbara.ferluga@gmail.com,,2,5,"Apr 15 - Nov 10, Dec 01 - Dec 31",-33.4316706646688,-70.6485851025237
54843,TRIESTE,Casa Dodic,Lorenzi Viviana,Strada per Basovizza,20,+39 040 567489;+39 331 1272029,,casadodic@yahoo.it,,3,7,"Jan 01 - Jan 17, Jan 25 - Oct 16, Dec 30 - Dec 31",45.6550086,13.8157875
62076,TRIESTE,Chip And Chop,Marussi Flavia,Via del Botro,19,+39 040 814331;+39 329 6727241,+39 040 814331,chipandchopbnb@gmail.com,,1,4,"Jan 01 - Mar 30, Apr 09 - Aug 30, Sep 10 - Nov 03",45.633344,13.8233173
37960,TRIESTE,Crispi,Bianco Iolanda,Via Crisaze,43,+39 040 3721128;+39 346 9665499,+39 040 3721128,bbcrispitrieste@live.it,,2,7,"Jan 01 - Jan 15, Feb 01 - May 15, May 25 - Dec 31",,
60220,TRIESTE,Elisabetta,Elisabetta Acampora,Via Vettor Carpaccio,8,+39 040 306226;+39 347 1886574,,bettinamail@yahoo.it,,1,2,"Jan 01 - Feb 13, Mar 02 - Dec 31",45.6433553,13.7708286
67683,TRIESTE,,,Viale Miramare,27,+39 040 411620;+39 380 3121665,,goldenrooms.ts@gmail.com,https://www.facebook.com/goldenroomsts/,3,8,"Jul 01 - Nov 28, Dec 05 - Dec 31",45.6623301,13.7701027
56920,TRIESTE,House 5,Valentina Ruspio,Via Giulia,5,+39 040 0644872;+39 3429024030,,info@house5.it,http://www.house5.it,4,8,"Jan 01 - Jan 22, Jan 25 - Feb 26, Mar 01 - Dec 24, Dec 26 - Dec 31",45.6534396,13.7831113
44500,TRIESTE,La Casa Dei Bassotti,Rondini Marina,Via del Lazzaretto Vecchio,12,+39 040 3220618;+39 340 5706930,,marina.peppino@hotmail.it,,1,2,"Mar 01 - Nov 02, Dec 07 - Dec 31",45.6455892,13.7608723
63800,TRIESTE,,Ursula Nussdorfer,Via Giorgio Nicolich,4,+39 333 2072876;+39 333 2072876,,unussdorfer@gmail.com,,2,4,"Jan 01 - Feb 04, Feb 07 - Nov 06, Nov 16 - Dec 31",45.6346579,13.8219233
42541,TRIESTE,La Culla di Trieste,Giannotta Alida,Via Carlo De Marchesetti, 12/8,+39 040 910579;+39 392 9649688,,daisy.2008@libero.it,http://www.laculladitrieste.it,3,6,"Jan 07 - Jul 01, Jul 15 - Dec 30",45.6413208,13.8252411
49404,TRIESTE,La Nuvola Bianca,Zotti Monica,Via dei Bidischini, 2/3,+39 348 3064809;+39 348 3064809,+39 040 574335,lanuvola@istrieste.it,http://www.lanuvolabianca.it,1,5,"Jan 01 - Jun 15, Jul 01 - Nov 10, Dec 01 - Dec 31",45.6715318,13.793133
71760,TRIESTE,La Stanza Mansarda Delle Meraviglie,Susanna Salvador,Via Tolmezzo,5,+39 040 417838;+39 331 8975704,,susannasalvador2016@gmail.com,,1,4,May 16 - Dec 11,45.6683293,13.7638157
66980,TRIESTE,Le Cupole di Trieste,Sarah Rosani,Piazza SantAntonio,6,+39 328 9040130;+39 328 9040130,,sarah.rosani@gmail.com,,3,8,May 16 - Dec 31,,
71121,TRIESTE,Magnolia,Renato Ressa,Viale Miramare, 229/1,+39 040 44718;+39 335 6034551,,renato.ressa@libero.it,,2,3,May 02 - Dec 31,45.6859842,13.7486673
69643,TRIESTE,,Daniela Frisori,Via Ulderico Moro, 4/1,+39 040 421301;+39 334 8402942,,info@ormedibora.com,http://www.ormedibora.com,1,3,Jan 01 - Dec 31,45.6845778,13.7571712
69980,TRIESTE,Pepeu,Andrea Milio,Via della Madonna del Mare,2,+39 040 4702814;+39 348 7191990,,andreamilio@yahoo.it,,1,2,"Mar 04 - May 12, May 22 - Jun 01, Jun 19 - Sep 15, Oct 02 - Dec 31",45.6475855,13.7663911
39360,TRIESTE,Petra,Minca Giorgio,Via Mazzini,44,+39 333 5753017,,bbpetra.trieste@yahoo.it,http://www.bedandbreakfastpetra.com,3,5,"Jan 01 - Jan 06, Jan 22 - Feb 14, Mar 05 - Mar 28, Apr 10 - Oct 09, Oct 29 - Nov 20, Dec 01 - Dec 31",45.650028,13.7762227
52921,TRIESTE,,Salm Cecile,Località Cianal,38,+39 346 0389838,,cecilevandersalm@gmail.com,http://www.randbtrieste.wordpress.com,1,2,"Jan 01 - Feb 23, Feb 28 - Nov 20, Nov 28 - Dec 31",,
55280,TRIESTE,,Stjepan Babic,Via del Boveto,18,+39 040 412586;+39 331 8144979,,sottoilfaro@gmail.com,http://www.sottoilfaro.com,3,6,"Jan 01 - Feb 24, Mar 17 - Nov 06, Nov 18 - Dec 31",45.6789153,13.7591731
59320,TRIESTE,Suite 45,Veronese Manilla,Via Commerciale,45,+39 040 415282;+39 347 7892455,,suite45trieste@libero.it,,1,2,"Jan 01 - Jan 06, Jan 15 - Nov 06, Nov 18 - Dec 31",45.6607755,13.7738808
46180,TRIESTE,Tre Rose,Battelini Aisha,Via Tommaso Grossi,16,+39 040 302564;+39 3466215453,,info@trerosetrieste.it,http://www.trerosetrieste.it,1,4,"Jan 01 - Jan 10, Jan 15 - Jan 18, Jan 22 - Jan 24, Jan 29 - Jan 31, Feb 05 - Feb 07, Feb 11 - Dec 31",45.6469648,13.7746412
51420,TRIESTE,Trieste Plus,Savanelli Stefano,Via Udine,12,+39 340 2360894;+39 340 2360894,,info@triesteplus.com,http://WWW.TRIESTEPLUS.COM,4,7,"Jan 01 - Feb 15, Feb 22 - Nov 20, Nov 28 - Dec 31",45.6572552,13.7739242
47260,TRIESTE,Villa Albori,Piazzi Martina,via Nazionale,41,+39 040 420341;+39 393 9876562,,info@villalbori.it,http://www.villaalbori.it,3,7,"Jan 01 - Jan 09, Jan 16 - Feb 10, Feb 17 - Oct 11, Oct 18 - Dec 31",45.6866187,13.7879831
44180,TRIESTE,Villa Fausta,Tracanelli Sergio,Salita di Gretta,5,+39 040 415252,+39 040 415252,mail@villafausta-trieste.com,http://www.villafausta-trieste.com,3,8,"Jan 01 - Jan 10, Jan 15 - Dec 21, Dec 28 - Dec 31",45.6655667,13.768969
67040,TRIESTE,,,Via di Conconello,67,+39 349 28888708;+39 389 5733125,,l.cicia@icloud.com,,2,5,"May 09 - Nov 29, Dec 07 - Dec 31",45.6819268,13.795804
71643,TRIESTE,Villa Moore,Marta Finzi,Via Riccardo Bazzoni,15,+39 338 5640049;+39 338 5640049,,martafinzi@yahoo.it,,1,4,Jul 21 - Dec 31,45.6446443,13.7698699
62680,TRIESTE,Villa Sisko,Ngrid Siskovic,Via del Boveto,41,+39 040 2608572;+39 331 6793456,+39 040 300298,villasisko@libero.it,,1,5,"Jan 01 - Feb 21, Feb 29 - Nov 20, Nov 28 - Dec 31",45.6783169,13.7584932
52640,TRIESTE,,Gonzalez Herrera,Largo della Barriera Vecchia,15,+39 345 5673624,,info@zenzerocannella.it,http://www.zenzerocannella.it,3,6,"Jan 01 - Jan 09, Feb 08 - Dec 31",45.6480112,13.7785813
46440,TRIESTE,?tirenca,Palcich Anna,sentiero padriciano,260,+39 040 226554;+39 335 8354806,,info@stirenca.it,http://www.stirenca.it,3,7,Mar 18 - Dec 01,45.6553096,13.8361374
68200,TRIESTE,,Giovanna Marson,Viale Miramare,27,+39 349 5871633;+39 349 871633,,ggiuliam@gmail.com,,2,4,Jul 26 - Dec 31,45.6623301,13.7701027
68800,TRIESTE,A Casa di Fra,Francesca Gandolfo,Via Giacomo Ciamician,20,+39 3396009054;+39 339 6009054,,francescagandolfo@hotmail.it,,1,1,"Jan 01 - Jul 14, Aug 01 - Dec 23",45.644799,13.7667247
70120,TRIESTE,Ai Pucci,Corrado Russignani,Strada di Fiume,382,+39 327 8346125,,daisy.2008@libero.it,,1,2,"Mar 20 - Jun 30, Jul 10 - Dec 31",45.6348152,13.8283505
47741,TRIESTE,,Lindegg Maria,Viale Miramare, 281/2,+39 040 410936;+39 347 9461621,+39 040 410396,mitta13@virgilio.it,,2,3,Apr 10 - Oct 31,45.6934813,13.7393466
53880,TRIESTE,Al Cucherle,Bonelli Daniela,Via di Torre Bianca,21,+39 348 4302556;+39 348 4302556,,alcucherle@gmail.com,http://www.bedandbreakfast-alcucherle-trieste.com,3,8,"Jan 01 - Feb 15, Feb 23 - Nov 20, Nov 27 - Dec 31",45.6528839,13.7733552
62502,TRIESTE,Al Giardino Pubblico,Claudio Puja,Via Cologna,2,+39 331 7544936,,sunclaud@yahoo.it,,3,5,"Jan 09 - Jan 30, Feb 20 - Dec 22",45.6770925,13.7534166
46400,TRIESTE,Al Laghetto,Carli Vaslij,Via di Basovizza,20,+39 338 9043445  339 8184619,,info@beblaghetto.it,http://www.beblaghetto.it,3,6,Mar 01 - Dec 31,45.6854799,13.7956515
63741,TRIESTE,Al Mitico Eremita,Sira Purini,Via fra Pace da Vedano,8,+39 338 5967362;+39 338 5967362,,mitico.eremita@gmail.com,,2,4,"Jan 01 - Jan 25, Jan 31 - Feb 29, Mar 06 - Dec 31",45.645767,13.7931007
72101,TRIESTE,Al Torzolon,Alessandro Zambon,Via Carbonara,4,+39 349 8357784;+39 349 8357784,,cipled82@gmail.com,,1,2,"Aug 01 - Nov 10, Dec 01 - Dec 31",45.640416,13.7780204
60460,TRIESTE,Al Tram,Vidman Natalia,Via XXX Ottobre,13,+39 347 6491495,,bbaltram@gmail.com,,3,4,"Jan 01 - Jan 31, Feb 15 - Feb 29, Mar 15 - Dec 31",45.6531115,13.7752887
51080,TRIESTE,,Gouvea Princy,Piazza Libertà,6,+39 345 3152686,,ametistatrieste@hotmail.com,,3,8,"Jan 01 - Jan 05, Feb 04 - Feb 16, Mar 15 - Mar 30, Apr 15 - Oct 23, Nov 15 - Dec 31",,
54500,TRIESTE,Angelo,Angelo Gaiangos,Via Cesare Battisti,23,+39 040 2464982;+39 347 5710205,,bbangelotrieste@gmail.com,,3,7,"Jan 01 - Jan 06, Jan 21 - Jan 31, Feb 16 - Dec 31",45.6526601,13.7807002
58260,TRIESTE,,Alessandro Conte,Via San Lazzaro,20,+39 340 2361780;+39 340 2361780,,info@anticoborgoteresiano.it,http://WWW.ANTICOBORGOTERESIANO.IT,3,8,"Jan 01 - Jan 11, Feb 02 - Feb 20, Mar 01 - Dec 31",45.6523859,13.7761884
66520,TRIESTE,Apartment Elisabeth,Frizzi Ingrid,Vicolo dei Gattorno,2,+39 338 9270803,,elisabethf116@gmail.com,,2,5,Mar 18 - Dec 31,45.6614511,13.7745426
67482,TRIESTE,Art&breakfast Atelier,Giorgio Schumann,Salita alla Madonna di Gretta,19,+39 040 416243;+39 339 6379366,,giorgio.schumann@alice.it,,2,3,Jul 15 - Nov 15,45.669054,13.7632552
65200,TRIESTE,Atema,Manuela Tommasini,Via Amerigo Vespucci, 4/1,+39 346 3025822;+39 346 3025822,,tommasinimanuela@live.com,,1,2,"Jan 01 - Feb 07, Feb 15 - Jun 25, Jul 02 - Dec 31",45.6421984,13.7781447
52600,TRIESTE,Barcolana Gold,Viva Donatella,Via Armando Diaz,19,+39 338 1584365,,barcolanagold@gmail.com,,2,6,"Jan 01 - Jan 30, Feb 02 - Feb 28, Mar 03 - Mar 28, Apr 01 - Apr 30, May 01 - May 23, May 26 - Jun 30, Jul 01 - Jul 30",45.6477406,13.7643497
72067,TRIESTE,,Mariangela Vella,Via Paolo Diacono,5,+39 388 8690423;+39 388 8690423,,bloomsroom2017@gmail.com,,1,2,"Aug 11 - Nov 12, Nov 20 - Dec 31",45.6447035,13.7779505
63900,TRIESTE,Blu&blu,Alessandra Prinz,Via Giulia,5,+39 349 3448631;+39 349 3448631,,prinzalessandra@gmail.com,,4,8,"Jan 01 - Jan 23, Feb 01 - Feb 20, Mar 01 - Nov 19, Nov 26 - Dec 31",45.6534396,13.7831113
47080,TRIESTE,Brass,Romich Giovanni,Via San Maurizio,5,+39 040 639517;+39 366 4068685,,brass@bedandbreakfast-trieste.com,http://www.bedandbreakfast-trieste.com,4,8,"Jan 01 - Jan 08, Jan 09 - Feb 22, Mar 02 - Nov 22, Nov 23 - Dec 31",45.6486481,13.7795439
71803,TRIESTE,,Daniela Negrui,Via Acacie,10,+39 327 3696434;+39 327 3696434,,daniela.negrui@gmail.com,,1,2,"Jul 01 - Nov 05, Dec 01 - Dec 31",,
66800,TRIESTE,Carsia B&B,Zef Gurasiu,Via Carsia, 34/7,+39 348 3145904;+39 348 3145904,,guraziuzef@gmail.com,,3,4,"May 02 - Nov 15, Dec 01 - Dec 31",45.6883938,13.7763468
69644,TRIESTE,Casa Liberty,Franca Stefani,Via Commerciale,40,+39 040 2410211;+39 339 5466652,,franca.natur@gmail.com,,1,2,"Jan 21 - Feb 10, Feb 27 - Jul 03, Jul 16 - Dec 15",45.6588238,13.7751338
68620,TRIESTE,Casa Murat,Dante Grassi,Via Muratte,6,+39 340 0645810;+39 340 0645810,,dantecostante45@gmail.com,,1,2,"Sep 27 - Oct 19, Nov 18 - Dec 31",,
71642,TRIESTE,Casaldina,Alessandro Gilardoni,Via Imbriani,1,+39 347 2529617;+39 347 2529617,,agilar61@gmail.com,,1,3,Jul 17 - Dec 31,,
62260,TRIESTE,Cassio,Beatrice Vecchiet,Via dellEremo, 241/3,+39 347 9257093;+39 347 9257093,,cassioinfo@bebcassio.com,,2,4,"Jan 01 - Jan 14, Jan 18 - Jan 21, Jan 25 - Jan 28, Feb 01 - Apr 13, Apr 18 - Nov 17, Nov 21 - Dec 31",45.6439311,13.812179
41481,TRIESTE,Cattinara,Sav Marjanca,Strada di Fiume,555,+39 040 910557;+39 338 1509385,,,,3,6,"Jan 01 - Aug 20, Sep 01 - Dec 20",45.6347072,13.8312499
66280,TRIESTE,Cerino,Silvia Cerino,Via Filippo Corridoni,12,+39 347 7309629,,cerisil@libero.it,,2,6,Mar 01 - Dec 31,45.6457673,13.7792347
52560,TRIESTE,Chiara,Lorenzo Meula,Via al Cisternone,9,+39 339 6801149,,chiarabeb@libero.it,,3,6,Jan 11 - Dec 22,45.6664463,13.766898
56840,TRIESTE,Colors,Michela Coslan,Via Vittoria Colonna,4,+39 040 311716;+39 347 9827914,,marco.nordio@gmail.com,,2,4,Jan 15 - Dec 15,45.6465916,13.7670105
72420,TRIESTE,Da Noi,Margherita Fonda,Via Cadorna,13,+39 348 2423988;+39 348 2423988,,punticinzia@libero.it,,3,8,Aug 01 - Dec 31,,
70622,TRIESTE,Da Selene,Selene Simonic,Scala al Monticello,4,+39 346 9566860;+39 346 9566860,,,,1,2,"Apr 30 - Aug 31, Oct 01 - Dec 31",45.6557722,13.7950218
72102,TRIESTE,,Castellanos Escandon,Via Carlo Antoni,24,+39 040 572932;+39 331 3150125,,virginia777.tc@gmail.com,,3,5,Aug 02 - Dec 20,45.6523471,13.8044501
69982,TRIESTE,Dai Muli,Alessandra Chiurco,Via Trento,15,+39 331 1257035,,alessandrachiurco@gmail.com,,4,8,"Mar 13 - Dec 11, Dec 20 - Dec 31",45.6554073,13.7727683
67360,TRIESTE,Dream 22,Elvio Tonsi,Via San Primo,24,+39 040 569946;+39 345 4143530,,elvio.tonsi@gmail.com,,2,6,"Jun 15 - Oct 31, Nov 15 - Dec 31",45.6556995,13.7994961
69642,TRIESTE,Esperia,Stefania Trevisan,Strada del Friuli,177,+39 349 0895717,,stefania1928@hotmail.it,,2,4,"Jan 01 - Jan 14, Feb 01 - Feb 12, Mar 01 - Oct 14, Oct 26 - Nov 04, Nov 26 - Dec 31",45.67880495,13.7619331622856
48641,TRIESTE,,Feno Marina,Largo a Roiano, 3/4,+39 393 7035235,,mdf@familylifetrieste.it,http://www.familylifetrieste.it,1,2,"Jan 01 - Jan 11, Jan 29 - Feb 15, Mar 04 - Dec 31",45.6631856,13.7701732
71644,TRIESTE,Gatteri,Graziella Vocca,Via Giorgio Gatteri,13,+39 040 368113;+39 320 3456297,,graziella.vocca@gmail.com,,2,6,"Jul 22 - Oct 29, Nov 19 - Dec 31",,
71222,TRIESTE,Gelsomina,Jasmin Lamprecht,Via SantApollinare,2,+39 348 2744530;+39 348 2744530,,jasmin.lamprecht@hotmail.it,,1,1,Jul 15 - Dec 31,45.6470791,13.7787743
55821,TRIESTE,,Dell Agata,Via San Michele,7,+39 340 6056039,,gensjuliats@virgilio.it,,3,6,"Jan 01 - Jan 17, Jan 24 - Feb 24, Mar 03 - Dec 31",45.6469081,13.7689006
61640,TRIESTE,Giardini,Gregoris Carla,Via dei Giardini, 21/1,+39 333 7575533,,gregoris.carla@tiscali.it,,2,5,"Jan 01 - Jan 10, Mar 01 - Dec 31",45.6238888,13.7841948
62701,TRIESTE,Grignetti Bed,Marco Grignetti,Via Rosset, 7/1,+39 347 2526570;+39 347 2526570,,marco.grignetti@libero.it,,2,5,"Jan 01 - Feb 05, Feb 14 - Nov 06, Nov 14 - Dec 31",,
45100,TRIESTE,Grim,Zamarin Giuliano,Via Pasquale Revoltella,87,+39 040 0642236;+39 349 4181357,,info@bedandbreakfastgrim.it,http://www.bedandbreakfastgrim.it,4,7,"Jan 10 - Jul 31, Aug 15 - Dec 25",45.6418687,13.7998717
62501,TRIESTE,,De Bernardis,Largo Sidney Sonnino,9,+39 040 2415605;+39 329 0427035,,debernardisme@hotmail.com,,2,5,"Jan 01 - Feb 14, Feb 29 - Dec 31",45.6443131,13.7822491
68060,TRIESTE,,Emma Sbaiz,Via Bramante,4,+39 338 4269189,,stesba64@virgilio.it,,1,2,Sep 22 - Dec 31,,
62740,TRIESTE,International,Gabriele Vassilich,Via Barriera,15,+39 347 5011444;+39 347 5011444,,internationaltrieste@gmail.com,,3,7,"Jan 01 - Feb 21, Feb 26 - Mar 13, Mar 17 - Jun 05, Jun 10 - Nov 20, Nov 25 - Dec 31",,
67684,TRIESTE,La Cogoma,Eleonora Callipo,Viale Miramare,29,+39 3461392966,,lacogoma29@gmail.com,,3,8,Jul 05 - Dec 31,45.6624957,13.7700051
56460,TRIESTE,Le Ortensie di Via Rossetti,Federica Paliaga,Via Rosset, 83/1,+39 320 5743826;+39 040 9498104,+39 3205743826,info@leortensiediviarossetti.it,http://www.leortensiediviarossetti.it,3,6,"Jan 01 - Jan 16, Jan 27 - Mar 20, Mar 27 - Apr 07, Apr 13 - Sep 22, Sep 29 - Oct 16, Oct 20 - Dec 31",,
70243,TRIESTE,Le Rose,Franca Boico,Vicolo delle Rose,45,+39 333 6041002,,,,1,2,"Apr 01 - Oct 30, Dec 01 - Dec 31",45.66693135,13.7767032956102
58720,TRIESTE,Le Stanze di Miramare,Tiziana Finzi,Viale Miramare,27,+39 342 9662480;+39 349 5871633,+39 040 420271,info@lestanzedimiramare.com,http://www.lestanzedimiramare.com,3,7,"Jan 01 - Feb 15, Mar 01 - Oct 31, Dec 01 - Dec 31",45.6623301,13.7701027
60280,TRIESTE,Lorenzo,Katerina Koti,Via Rosset,8,+39 328 8119561,,info@bandblorenzo.it,,3,7,"Jan 01 - Jan 09, Feb 20 - Mar 05, Mar 10 - Jun 10, Jun 15 - Sep 12, Sep 15 - Nov 04, Nov 07 - Dec 31",,
54842,TRIESTE,Mary Poppins S House,Lampi Lorena,Via Damiano Chiesa,98,+39 377 4546235,,marypoppinshouse6@gmail.com,,3,6,"Jan 01 - Jan 05, Jan 10 - Nov 16, Nov 22 - Dec 31",45.6561881,13.8124769
48780,TRIESTE,Mimosa,Franzinelli Gabriela,Via Carlo Schmidl,5,+39 333 5059214,,bb-mimosa@libero.it,http://www.bb-mimosa-trieste.weebly.com,2,4,"Jan 25 - Mar 24, Apr 04 - Jun 16, Jun 27 - Jul 07, Jul 18 - Aug 12, Aug 29 - Sep 16, Sep 26 - Oct 27, Nov 07 - Dec 22",45.6189284,13.7901164
49520,TRIESTE,Miramare,Paola Cantarutti,Viale Miramare,55,+39 347 8408555,,paola.cantarutti6@gmail.com,,1,3,"Jan 01 - Feb 02, Feb 10 - Sep 07, Sep 15 - Dec 31",45.6652707,13.7662035
69981,TRIESTE,,Salvatore Amato,Via dei Fabbri,3,+39 328 7043021,,totoottobre@hotmail.it,,2,4,"Feb 18 - Dec 11, Dec 16 - Dec 31",45.6462754,13.765391
52580,TRIESTE,Palazzo Brigido,Ricci Raffaella,Via Pozzo del Mare,1,+39 331 1865930,,info@palazzobrigido.com,http://www.palazzobrigido.com,3,8,"Jan 01 - Jan 06, Jan 13 - Jan 20, Jan 27 - Feb 03, Feb 10 - Feb 17, Feb 24 - Mar 03, Mar 10 - Dec 31",45.6493642,13.7672511
68822,TRIESTE,Peggy,Paola Viano,Via San Lazzaro,1,+39 347 2792580,,bnbpeggytrieste@gmail.com,,4,8,Oct 26 - Dec 31,45.6498499,13.7750493
66260,TRIESTE,Piazza Goldoni,Jacopo Ciampalini,Via Carducci,31,+39 328 3535274,,ciampaj87@hotmail.com,,4,8,Mar 03 - Dec 31,,
68821,TRIESTE,Porporella,Nataliya Rachkova,Via Cadorna,13,+39 329 0146105;+39 329 0146105,,kseniya80rachkova@gmail.com,,3,6,Oct 27 - Dec 31,,
54501,TRIESTE,,Ingeborg Klara,Via Giulia,53,+39 333 5068576;+39 333 5068576,,lampo68@teletu.it,,2,5,"Feb 01 - Mar 21, Apr 01 - Dec 31",45.6548614,13.7913172
72103,TRIESTE,,Giorgia Brianti,Strada per Longera,215,+39 040 576213;+39 339 8850817,,emanuelabrianti@tiscali.it,,1,2,Aug 01 - Dec 31,45.648365,13.8164198
71647,TRIESTE,San Giusto,Goran Pajc,Via della fornace,7,+39 320 2922696,,goran_paic@yahoo.it,,1,2,"Jun 01 - Oct 31, Dec 01 - Dec 31",45.6461483,13.7750121
69820,TRIESTE,Shabby Lullaby,Elisabeth Antonaglia,Via del Ghirlandaio, 22/2,+39 346 4783350,,eli.antonaglia@gmail.com,,1,2,"Feb 01 - Feb 12, Feb 17 - Mar 05, Mar 10 - Apr 02, Apr 07 - May 07, May 12 - Oct 22, Oct 27 - Nov 05, Nov 11 - Dec 10",45.641218,13.7893385
55241,TRIESTE,St. Jack,Antonini Erminia,Via Luigi Frausin,19,+39 328 6894017;+39 342 7836002,,st.jackts@gmail.com,,3,7,"Jan 01 - Jan 24, Feb 19 - Nov 13, Dec 16 - Dec 31",45.6432254,13.7782683
70380,TRIESTE,Starbene,Daniele Planine,Via Ario,27,+39 3249018482;+39 324 9018482,,dplanine@gmail.com,,2,4,"Apr 26 - Oct 15, Oct 29 - Nov 15, Nov 29 - Dec 31",,
64760,TRIESTE,Stella Marina,Silva Roveretto,Via Luigi Negrelli,2,+39 334 3366036;+39 334 3366036,,,,1,2,"Jan 01 - Mar 01, Mar 08 - Aug 07, Aug 14 - Dec 31",45.6407565,13.7719481
62077,TRIESTE,The Smiling Home,Gelletti Giulia,Via Ruggero Manna,20,+39 339 1800253,,casadipenny@gmail.com,,2,3,"Jan 01 - Jan 10, Jan 18 - Jan 24, Feb 01 - Dec 31",45.6585092,13.7744448
68880,TRIESTE,Torrebianca,Stefano Canato,Via Pozzo del Mare,1,+39 040 2606497;+39 329 1431701,,torrebinacaitalia@gmail.com,,2,5,Nov 10 - Dec 31,45.6493642,13.7672511
66061,TRIESTE,,I Rivi,Piazza tra i Rivi,5,+39 3939000143;+39 3939000143,,trairivi@gmail.com,,3,4,"Jan 01 - Jan 10, Jan 17 - Jul 31, Aug 08 - Dec 31",45.6657072,13.7725807
63840,TRIESTE,Tra I Tetti,Luca Veuer,Via Imbriani,10,+39 349 544114;+39 349 544114,,lucaveue@gmail.com,,2,4,"Jan 01 - Sep 11, Oct 01 - Oct 15, Nov 01 - Nov 06, Dec 01 - Dec 11, Dec 19 - Dec 31",,
62800,TRIESTE,Trieste 59,Camilla Gombani,Via Cesare Cantù,59,+39 333 8674678;+39 333 8674678,,trieste59bb@gmail.com,,4,6,"Jan 01 - Jan 10, Mar 04 - Jun 04, Jun 13 - Nov 06, Dec 01 - Dec 31",45.6617147,13.7809238
71221,TRIESTE,,Luigi Gugliermetto,Via Ugo Foscolo,20,+39 334 8165595;+39 334 8165595,,gugliermetto65@gmail.com,,2,5,"Jun 01 - Nov 05, Dec 06 - Dec 31",45.6473009,13.7825195
70241,TRIESTE,Valentina,Valentina Botter,Vicolo delle Rose,49,+39 347 0978150;+39 347 0978150,,,,1,2,"Apr 14 - May 18, May 25 - Jun 19, Jun 23 - Jul 08, Jul 13 - Sep 30, Oct 05 - Oct 18, Oct 27 - Nov 08, Dec 01 - Dec 12",45.6666881,13.7778167444309
47081,TRIESTE,Ventodibora,Blasizza Federica,Via Bartoletti,4,+39 333 3592541,,info@ventodibora.it,http://www.ventodibora.it,1,4,"Jan 01 - Jan 10, Jan 22 - Oct 10, Oct 21 - Dec 31",45.6429818,13.7895384
69645,TRIESTE,,Franco Floriddia,Via Muratte,8,+39 3488135510;+39 348 8135510,,franco.floriddia@super2000.it,,3,6,"Feb 01 - May 31, Jun 20 - Aug 20, Sep 15 - Dec 31",,
68000,TRIESTE,Villa Inn,Guido Samsa,Via Ulderico Moro,1,+39 040 414625;+39 333 8023075,,,,4,8,Aug 02 - Dec 31,45.6839925,13.7569903
54841,TRIESTE,,Nadal Nela,Strada per Basovizza,50,+39 392 3241222  333 1130704,,alessio.giannella@yahoo.it,,3,6,"Jan 01 - Jan 31, Mar 01 - Oct 30, Dec 01 - Dec 31",45.6524974,13.8183876
55240,TRIESTE,Z1 - Zudecche 1,Riosa Michela,Via delle Zudecche,1,+39 345 0424433,,michela.riosa@gmail.com,,4,8,"Jan 01 - Jan 31, Feb 05 - May 15, May 20 - Oct 02, Oct 07 - Dec 31",45.6490613,13.7775356
49920,TRIESTE,Al Parco,Esmeralda Abruzzese,Via Giulia,6,+39 392 2941592;+39 392 2941592,,esmeab@virgilio.it,,2,5,"Jan 01 - Feb 14, Feb 29 - Nov 14, Dec 01 - Dec 31",45.6540579,13.7861378
67361,TRIESTE,Area 39,Diego Duratorre,Via Giulia,39,+39 347 3905000,,diego1512@icloud.com,,2,5,Jun 01 - Dec 31,45.6542546,13.7885402
47620,TRIESTE,Belcinque,Lombardi Rachele,Via Belpoggio,5,+39 335 6894545,,,http://www.belcinque.it,2,4,"Jan 01 - Feb 01, Feb 08 - Aug 02, Aug 09 - Dec 31",45.6449529,13.7602211
53480,TRIESTE,Better,Doratti Alessandra,Via Udine,20,+39 040 2452935;+39 335 6602822,,alessandra.doratti@gmail.com,http://www.bettertrieste.it,3,5,"Jan 01 - Jan 31, Mar 01 - Nov 20, Nov 30 - Dec 31",45.6583725,13.7732852
70800,TRIESTE,,Maurizio Bobini,Località Contron,536,+39 333 3277212,,mauriziobobini@gmail.com,,1,2,Apr 01 - Dec 31,,
68140,TRIESTE,Felicia,Felicia Simeoli,Via Fabio Severo, 90/1,+39 328 1551487;+39 3385337232,,danielmiccu@gmail.com,,1,3,"Aug 25 - Nov 20, Nov 28 - Dec 31",45.6574966,13.7882868
67100,TRIESTE,,Caterina Cinello,Via dei Navali,28,+39 040 309067;+39 329 8794591,,licia.davanzo@gmail.com,,1,2,Jun 01 - Oct 30,45.6416424,13.7724432
67301,TRIESTE,,De Leichenfeld,Via Giusto dei Girardi,7,+39 040 944553;+39 342 6694977,,elloy@tin.it,,2,4,"Jun 01 - Aug 31, Sep 15 - Oct 15, Dec 01 - Dec 31",45.6459424,13.790857
62020,TRIESTE,,,Strada per Longera,46,+39 338 1903078,,margherita.rudella@libero.it,,2,5,"Jan 01 - Jan 15, Feb 04 - Feb 28, Mar 08 - Nov 11, Dec 01 - Dec 31",45.652468,13.8107104
54844,TRIESTE,Le 5 Muse,Roscioli Valeria,Via del Pucino,12,+39 347 6928439,,le5muse@email.it,,2,5,"Jan 01 - Jan 24, Feb 01 - Nov 20, Nov 28 - Dec 31",45.7131518,13.7113906
66781,TRIESTE,Lo Studio di Joyce,Andrea Gargano,via Roma,20,+39 347 4449936;+39 347 4449936,,andreagargano@libero.it,http://www.lostudiodijoyce.it,3,7,"Apr 14 - May 02, May 06 - Nov 10, Nov 14 - Dec 31",45.6529668,13.7725251
60980,TRIESTE,Nebojsega,Svab Luka,Località Centa,34,+39 348 5861205,+39 040 220197,info@nebojsega.com,http://www.nebojsega.com,1,4,"Jan 01 - Feb 01, Feb 12 - Nov 06, Nov 14 - Dec 31",,
65002,TRIESTE,,Radovancev Jelena,Via Carlo Ghega,3,+39 040 2601625;+39 342 8983401,,info@66trieste.com,,3,8,"Feb 01 - Feb 15, Mar 01 - Dec 31",45.6558926,13.7726022
70621,TRIESTE,Traveller Jack,Claudia Diano,Via Enea Silvio Piccolomini,3,+39 349 7786032;+39 349 7786032,,claudia.diano81@gmail.com,,1,1,Mar 27 - Dec 15,45.653264,13.7833141
47941,TRIESTE,Vastu Vidya,Gotti Pamela,Via Muzzile,11,+39 338 3155841,,info@triestebbvastu.it,http://www.triestebbvastu.it,1,2,"Jan 01 - Jan 29, Mar 01 - Dec 31",,
39280,TRIESTE,,Vidal Jhaira,Via Battistine,24,+39 338 2287085,,info@triestebedandbreakfast.it,http://www.triestebedandbreakfast.it,3,6,"Jan 01 - Jan 10, Mar 04 - Aug 20, Aug 28 - Dec 31",,
2642,TRIESTE,Ad Hoc,Zocchi Vida,Via Paduina,4,+39 347 8310930,+39 040 4528661,zocchi-ts@libero.it,,2,8,"Jan 01 - Jan 20, Feb 01 - Feb 15, Mar 01 - Jun 15, Jun 18 - Dec 20",45.6515805,13.7812315
3901,TRIESTE,Ai 7 Olivi,Cimenti Annalisa,Salita di Contovello,74,+39 040 421086;+39 339 6054204,,annalisa.cimenti@email.it,http://www.bedandbreakfastai7olivitrieste.it,2,4,"Feb 06 - Feb 28, Mar 05 - Nov 16",45.6915881,13.7435781
37841,TRIESTE,Ai Moretti,Moretti Marcello,Piazza Venezia,1,+39 040 2602063;+39 328 7692696,,info@aimoretti.it,http://www.aimoretti.it,3,6,"Jan 01 - Jan 07, Jan 25 - Jan 31, Feb 08 - Dec 31",45.6468241,13.7619234
2399,TRIESTE,Al Ferdinandeo,Bon Marzia,Via dellEremo,231,+39 040 912547;+39 340 6437734  338 1333522,,info@alferdinandeo.it,http://www.alferdinandeo.it,3,6,"Jan 01 - Jan 03, Mar 04 - Aug 25, Sep 02 - Dec 12, Dec 27 - Dec 31",45.6441874,13.8107248
36060,TRIESTE,Al Ponterosso,Boschin Andrea,Piazza del Ponterosso,3,+39 040 2600312;+39 349 0925955,,alponterosso@hotmail.com,http://www.alponterosso.it,2,5,"Jan 01 - Jan 10, Jan 26 - Feb 15, Mar 10 - Mar 28, Apr 12 - Oct 14, Nov 01 - Nov 07, Nov 25 - Dec 31",45.6516102,13.7715839
39481,TRIESTE,Alla Scuderia,Schiavone Grazia,Via Monte San Gabriele,42,+39 040 568304;+39 334 7028973,,graziapaticchio@libero.it,,2,4,Apr 01 - Nov 15,45.6595354,13.7868225
45200,TRIESTE,Allo Scoglio,Grieco Ruggero,Via dello Scoglio,51,+39 040 2032367;+39 337 538750,+39 40575273,alloscoglio@libero.it,,3,6,"Jan 01 - Nov 06, Dec 05 - Dec 31",45.6575404,13.7960506
34640,TRIESTE,Battisti,Rizzitelli Andrea,Via Battistine,18,+39 040 3498350;+39 340 7069970,+39 040 9772039,info@bb-battisti.it,http://www.bb-battisti.it,3,6,"Jan 01 - Jan 04, Jan 11 - Feb 10, Feb 18 - Mar 15, Mar 20 - May 02, May 20 - Dec 31",,
43720,TRIESTE,Bbtrieste,Patrizia Garbassi,Via Gallerio,3,+39 347 0394312,,bedandbreakfasttrieste@gmail.com,http://www.bb-trieste.it,3,5,"Jan 01 - Jan 09, Jan 16 - Jan 31, Feb 06 - Dec 31",,
40241,TRIESTE,Bora di Trieste,Scherl Loredana,Via della Raffineria,8,+39 040 661988;+39 349 3511655,,boraditrieste@hotmail.com,http://www.boraditrieste.freshcreator.com,2,5,"Jan 01 - Jan 12, Jan 15 - Jan 25, Jan 29 - Feb 29, Mar 04 - Dec 31",45.6454713,13.7820734
3240,TRIESTE,Bramasole,Giacometti Chiara,Via dei Caldana,3,+39 338 3014621,,info@bramasoletrieste.it,http://www.bramasoletrieste.it,2,4,"Jan 01 - Jan 31, Feb 14 - Dec 31",45.6345353,13.7886691
2366,TRIESTE,Decò,Torregiani Davide,Scala al Belvedere,2,+39 040 411593;+39 329 2080021,,decobbtrieste@virgilio.it,http://www.decobbtrieste.tk,2,6,"Jan 01 - Jan 20, Feb 20 - Feb 27, Feb 28 - Dec 31",45.6593035,13.772193
44980,TRIESTE,Diana,Marchesich Diana,Via di Conconello,19,+39 040 211380;+39 349 5070323,,diana@bb-trieste.com,http://www.bb-trieste.com,2,3,"Jan 01 - Jan 09, Jan 16 - Nov 17, Nov 25 - Dec 31",45.6851998,13.7917372
40060,TRIESTE,Giulia,Gega Valentina,Via Giulia,53,+39 040 2413249;+39 339 2525103,,giuliabeb@gmail.com,http://www.bbgiulia.it,2,4,"Jan 01 - Feb 08, Feb 15 - Nov 07, Nov 14 - Dec 31",45.6548614,13.7913172
34220,TRIESTE,,Gallarati Fabio,Via del Ghirlandaio,13,+39 333 6268291   333 3592541,+39 040 393641,info@ilmelogranotrieste.it,http://www.ilmelogranotrieste.it,3,6,"Jan 01 - Jan 11, Jan 18 - Feb 10, Feb 12 - Feb 25, Mar 01 - Mar 09, Mar 14 - Jun 21, Jun 27 - Sep 21, Sep 26 - Dec 22",45.6418561,13.7869064
2601,TRIESTE,Katinando,Pugliatti Ferdinando,Via Como,14,+39 040 3220973;+39 338 9794455,+39 040 3220973,katinando@libero.it,,1,2,"Jan 01 - Jan 24, Feb 01 - Feb 23, Mar 01 - May 31, Jun 01 - Sep 30, Oct 01 - Dec 31",,
2582,TRIESTE,,,Località Cianal,100,+39 339 8464540,,info@lecasite.com,http://www.lecasite.com,4,8,"Jan 01 - Jan 25, Feb 05 - Nov 06, Nov 11 - Dec 31",,
42580,TRIESTE,Palazzo Panfilli,Lincetto Silvana,Via della Geppa,2,+39 335 434587,,info@palazzopanfilli.it,http://www.palazzopanfilli.it,3,8,"Jan 01 - Jan 10, Jan 29 - Feb 14, Mar 01 - Dec 31",45.655888,13.7717297
2440,TRIESTE,Panorama,Villa Liana,Via della Bellavista,77,+39 040 414956;+39 348 3800475,,bruno.cavicchioli@alice.it,http://www.bbpanorama.eu,2,4,"Jan 01 - Jan 17, Feb 22 - Nov 12, Nov 19 - Dec 31",45.6722343,13.7954939
2419,TRIESTE,Priscilla,Kravanja Maria,Via Pasquale Revoltella,6,+39 040 395941;+39 3497776298,,kravanja.maria@libero.it,,1,3,"Jan 01 - Jan 10, Jan 20 - Feb 20, Mar 01 - May 08, May 12 - Oct 18, Oct 23 - Dec 31",45.6425709,13.7887059
34940,TRIESTE,Santa Caterina,Vassilich Roberta,Via Santa Caterina,9,+39 335 6868099,,BBS.CATERINA@YAHOO.IT,,3,5,"Jan 01 - Jan 31, Feb 02 - Feb 22, Feb 26 - Dec 23, Dec 26 - Dec 31",45.6507903,13.7747769
47680,AQUILEIA,Casa di Giulia,Comelli Giuliamaria,Via Giulia Augusta,21,+39 0431 918742;+39 349 8429796,,info@casadigiulia.it,http://www.casadigiulia.it,3,8,"Mar 16 - Oct 31, Nov 01 - Nov 06, Nov 23 - Dec 31",45.7721882,13.3664542
2471,AQUILEIA,Casa Gioconda,Sfiligoi Rosanna,Via Bolivia,8,+39 0431 91208;+39 339 7868037  340 8541485,,info@casagioconda.it,http://www.casagioconda.it,1,2,"Mar 01 - Oct 31, Dec 01 - Dec 31",45.7767445,13.3674141
63520,AQUILEIA,,Altan Silvia,Località Beligna,38,+39 0431 919219,,staltan@teletu.it,,2,4,"Jan 01 - Jan 15, Mar 15 - Oct 15, Nov 15 - Dec 31",45.7603632,13.3730515
39320,AQUILEIA,Al Ramo Rosso,Dovier Gabriele,Via Livia,3,+39 338 9502215  380 5246103,+39 0431 917495,ramorosso@libero.it,,2,3,"Jan 01 - Jan 07, Feb 17 - Apr 11, Apr 24 - Nov 01, Dec 01 - Dec 31",45.76747,13.3650945
45280,AQUILEIA,Casa Disma,Mian Giovanni,Via Rosa Rosemberg,1,+39 0431 918659;+39 338 8270804,,,,3,6,"Mar 01 - May 20, May 25 - Jun 30, Jul 05 - Aug 20, Aug 25 - Oct 30",45.7774968,13.3734696
46940,AQUILEIA,Casa Maria,Bertogna Maria,Via Rosa Rosemberg,7,+39 0431 918659,,,,4,8,"Jan 10 - Jan 15, Feb 10 - Mar 15, Mar 28 - May 05, May 10 - Jun 30, Jul 05 - Aug 25, Aug 30 - Sep 30, Oct 10 - Nov 15",45.7773535,13.3734309
46941,AQUILEIA,Casa Norma,Lorenzut Norma,Via Rosa Rosemberg,19,+39 0431 918664,,,,4,8,"Mar 01 - Mar 28, Apr 01 - Apr 28, May 01 - Jun 28, Jul 01 - Aug 26, Sep 01 - Oct 30",45.7761835,13.3735171
40400,AQUILEIA,,Margaret Lee,Via Ruggero Grieco,5,+39 366 1431406,,lamagnoliabeb@libero.it,,1,2,"Jan 01 - Jan 15, Mar 15 - May 15, Jun 01 - Sep 30, Dec 01 - Dec 31",,
46942,AQUILEIA,,,Via Giulia Augusta,81,+39 0431 91452,,,,4,8,Mar 20 - Sep 20,45.7799838,13.3601966
49220,AQUILEIA,B&B Bassilla,Colpo Giuseppe,Via Virginia Tonelli,4,+39 0431 919101;+39 348 4056767,,bassilla@alice.it,http://bassilla.altervista.org,2,4,"Mar 05 - Oct 16, Dec 05 - Dec 31",,
63344,AQUILEIA,Fata Morgana,Polizzi Adele,Corso Antonio Gramsci,8,+39 333 3414018,,bbfatamorgana@gmail.com,,2,4,Apr 25 - Dec 31,45.7636936,13.3661935
56200,ARTA TERME,,Maria Cristina,Via Peressotti,56,+39 0433 92528,,cristina.pesamosca@gmail.com,,2,4,"Feb 08 - Feb 10, Feb 15 - Feb 17, Feb 22 - Feb 24, Mar 01 - Mar 17, Mar 29 - Oct 27, Nov 01 - Nov 03, Nov 29 - Dec 31",,
35500,ARTA TERME,,Ronco Daniela,Via Peressotti,36,+39 0433 928796;+39 348 0659019,+39 0433 468615,info@sotivolz.it,http://www.sotivolz.it,1,3,"Jan 01 - Jan 06, Jan 12 - Jan 14, Jan 19 - Jan 21, Jan 26 - Mar 03, Mar 09 - Mar 11, Mar 16 - Mar 18, Mar 23 - Apr 07",,
68300,ATTIMIS,Agane,Cericco Christian,Borgo Cancellier,25,+39 4321847986;+39 3388835582,,christian.cericco@hotmail.it,,3,5,"Mar 21 - May 22, Jun 03 - Jun 16, Jun 20 - Sep 11, Sep 26 - Oct 30",46.2033326,13.3438947
42440,ATTIMIS,Al Pettirosso,Martinuzzi Cristina,Piazza della Chiesa,1,+39 432789038,+39 432789757,,,3,5,"Jan 01 - Jan 31, Feb 16 - Dec 31",46.1668275,13.3254653
2511,ATTIMIS,Casa Giuly,Braidotti Giuliana,Via Canalutto,33,+39 0432 789294;+39 333 7245729,+39 0432 789294,,,2,3,Apr 01 - Oct 30,46.1703409,13.3299872
40040,ATTIMIS,Casa Tiziana,Longato Alessandro,Via Campolongo,30,+39 340 2415962,,,,2,3,"Apr 01 - Oct 01, Dec 01 - Dec 31",46.1921294,13.3156531
39400,BASILIANO,Villa Anita,Ferrazzutti Anita,Via Damiano Chiesa,107,+39 0432 848745;+39 320 0218972,+39 0432 848745,villanita.08@libero.it,http://www.villanita.com,3,6,Mar 01 - Nov 30,46.0424119,13.113758
48500,BERTIOLO,,Olivo Ermenegildo,Via Margherita,12,+39 339 4361865,,info@bebgildo.it,http://www.bebgildo.it,4,8,Jan 15 - Dec 15,45.9416407,13.0524057
44660,BERTIOLO,Salvia E Rosmarino,Brisotto Claudia,Piazza Mercato,7,+39 348 3042180,,snowleagle@yahoo.it,,3,7,"Jan 01 - Jan 09, Mar 01 - Nov 09, Dec 20 - Dec 31",45.9425688,13.0482058
36340,BUJA,Cip & Ciop,Calligaro Davide,Via Sopramonte,89,+39 0432 961351,,bedandbreakfastcipeciop@hotmail.it,http://www.bedandbreakfastcipeciop.it,2,6,"Jan 01 - Jan 15, Mar 01 - Nov 01, Dec 15 - Dec 31",46.2249859,13.1102766
62922,BUTTRIO,Antica Liscivaia,Todone Francesca,Via Tomasoni,3,+39 0432 674022,+39 0432 683270,francesca.todone@gmail.com,,1,3,Jan 01 - Dec 31,46.0170089,13.3362619
62923,BUTTRIO,,Todone Francesca,Via Tomasoni,3,+39 0432 674022,+39 0432 683270,francesca.todone@gmail.com,,2,5,Jan 01 - Dec 31,46.0170089,13.3362619
70500,BUTTRIO,B&B,Tondolo Raffaella,Via Rieppi, 29/3,+39 348 4402818,,raffy.sun@yahoo.it,,1,2,"Jan 01 - Oct 31, Dec 01 - Dec 31",46.0190134,13.3474579
2571,CAMINO AL TAGLIAMENTO,Diamante,Diamante Giuseppe,Via Caneva,1,+39 0432 919084;+39 338 1726193,,fam.diamante@libero.it,http://www.bedandbreakfastdiamante.it,2,4,"Mar 01 - Nov 05, Dec 03 - Dec 31",,
2517,CAMINO AL TAGLIAMENTO,Villa Francesca,Casaril Francesca,Via Tagliamento,34,+39 0432 919369;+39 339 1550310,+39 0432 919482,info@villafrancesca.org,,3,6,"Apr 05 - Apr 10, Apr 20 - Nov 05",45.9261922,12.9402534
52260,CAMPOFORMIDO,Benvenuti,Venuti Giancarlo,Via Cormor,81,+39 0432 237059,,ciaolaurav27@libero.it,,2,4,"Jan 01 - Jan 15, Mar 16 - Jun 16, Jul 01 - Aug 24, Sep 01 - Nov 20, Dec 01 - Dec 31",46.0371446,13.2187286
65381,CARLINO,B & B da Simon,Canciani Simonetta,Via Nimis,9,+39 0431 67607;+39 338 12340856,,simon.canciani@gmail.com,http://www.bb-dasimon.flazio.com,2,4,"Jan 01 - Jan 31, Apr 01 - Oct 31, Dec 01 - Dec 31",45.7758145,13.1684867
64140,CASSACCO,,Luisa Cristina,Via Palamazi,11,+39 340 3475828,,luisacris@virgilio.it,,2,5,"Jan 01 - Aug 10, Aug 20 - Oct 31, Dec 01 - Dec 31",46.1913626,13.1800036
35360,CASSACCO,Casa Gamberini Vista Castello,Gamberini Gilberto,Via Ellero,14,+39 0432 852273;+39 3479665627,+39 432881617,info@gilbertogamberini.it,,4,8,"Jan 21 - Jan 28, Mar 10 - Mar 20, May 06 - May 20, Jul 08 - Jul 19, Sep 09 - Sep 15, Nov 11 - Nov 28",,
42642,CASSACCO,Villa Gallici Deciani,Deciani Luigi,Via Gallici,27,+39 0432851487,+39 0432851487,info@deciani.it,http://www.deciani.it,3,6,Jan 15 - Dec 15,46.1825921,13.1962087
2377,CASTIONS DI STRADA,Bed&breakfast Basello,Basello Silviano,Vicolo Cornelio Gallo, 7/B,+39 0432 768743;+39 349 5643223,,basello.e@tiscali.it,http://www.basellosilviano.it,3,6,"Jan 01 - Sep 30, Oct 26 - Dec 31",45.9083235,13.1873041
50360,CAVAZZO CARNICO,A Li Dal Cuac,Rulli Mattia,Via San Rocco,30,+39 347 4327750     388 7623189,,rullimattia@libero.it,,4,5,"Jan 01 - Jan 15, Apr 01 - Nov 15, Dec 15 - Dec 31",46.3695238,13.043249
60540,CAVAZZO CARNICO,Cjase Me,Ceretti Barbara,Villaggio Navalascia,4,+39 3477726918,,bbcjaseme@gmail.com,,2,4,Aug 20 - Dec 31,46.3541,13.0520736
33760,CERCIVENTO,,Stales William,Via di Sot,51,+39 329 6636487  346 5982771,,inplait@yahoo.it,http://www.inplait.com,3,6,"Jan 01 - Mar 20, Apr 01 - Apr 25, May 01 - May 25, Jun 01 - Jun 30, Jul 08 - Sep 15, Oct 01 - Oct 20, Nov 01 - Nov 15",46.5275091,12.9918453
2413,CERVIGNANO DEL FRIULI,Casa Breta,Versolatto Rita,Via Carnia,15,+39 0431 31803;+39 347 3391362,+39 0431 382320,casabreta@tiscali.it,,4,8,Mar 01 - Dec 31,45.8308888,13.3317723
38720,CERVIGNANO DEL FRIULI,Villa Vitas,Vitas Elisabetta,Via San Marco,3,+39 0431 93083;+39 393 9254294,+39 0431 93101,elisabetta.vitas@libero.it,http://www.villavitas.it,2,6,"Jan 01 - Jan 15, Apr 01 - Oct 30, Dec 15 - Dec 31",45.8616712,13.3223604
35940,CERVIGNANO DEL FRIULI,A Casa Azzurra di Alice,Salvador Giuliana,Via Trieste,94,+39 0431 30552;+39 338 7469658,,salvador.giuliana@gmail.com,,2,3,"Jan 01 - Feb 15, Mar 01 - Oct 15, Nov 01 - Dec 31",45.820432,13.341931
34020,CERVIGNANO DEL FRIULI,A Casa di Rossana,Felicetti Rosanna,Via Dante Alighieri,13,+39 0431 32540;+39 329 2670741,,rosanna.felicetti@libero.it,http://www.bbfriuli.it,2,4,"May 10 - Sep 20, Oct 30 - Dec 10",45.8212112,13.3354511
50900,CERVIGNANO DEL FRIULI,,Buttignon Sandra,Via L. Chiozza,43,+39 0431 909983;+39 346 4310890,,sandrabuttignon@tiscali.it,,2,6,Mar 01 - Oct 10,45.8219549,13.3513387
72082,CERVIGNANO DEL FRIULI,Casa Giacinta,Zorzenon Alessandra,Via dei Campi,18,+39 349 2165695,,alessandrasorsenon@gmail.com,,1,2,Jan 01 - Dec 31,45.8158203,13.3380989
49221,CERVIGNANO DEL FRIULI,,Del Riso,Via dei Castelli,21,+39 388 9255212,+39 0431 19892056,info@castellodistrassoldo.it,http://www.castellodistrassoldo.it,4,4,Mar 15 - Nov 15,45.8608919,13.3233796
33881,CIVIDALE DEL FRIULI,Da Gilberto,Pavan Gilberto,Via Gagliano, 40/3,+39 0432 730107;+39 334 9158540,,info@locandadagilberto.it,http://www.locandadagilberto.it,3,8,"Jan 01 - Jan 08, Feb 15 - Dec 31",46.0742631,13.4354196
51540,CIVIDALE DEL FRIULI,Domus Iulii,Paiani Francesca,Borgo Poiana,8,+39 333 6737042  347 7776179 dopo ore 12.00,,domusiulii@alice.it,,4,8,"Jan 01 - Feb 03, Feb 09 - Nov 05, Nov 15 - Dec 31",,
2567,CIVIDALE DEL FRIULI,,Nadalut Claudia,Via Premariacco, 81/83,+39 0432 731605;+39 349 0980657,+39 0432 731605,lapiccolafattoria@alice.it,http://www.lapiccolafattoria.eu,2,4,"Jan 01 - Jan 31, Feb 10 - Dec 31",46.0873752,13.4166924
59880,CIVIDALE DEL FRIULI,,Anna Maria,Piazza San Giovanni, 22/3,+39 335 7071898,,Piccola.Corte.Cividale@gmail.com,,2,3,"Jul 07 - Nov 15, Dec 01 - Dec 31",46.095101,13.4317152
58020,CIVIDALE DEL FRIULI,Sot La Mont,Zanutto Valnea,Strada di Gradois,60,+39 328 7117259,,,,3,7,,46.110218,13.4578328
55720,CIVIDALE DEL FRIULI,Aurora,Scubla Elisa,Vicolo San Nicolò,11,+39 388 1272741,,info@bedandbreakfastcividale.it,http://www.bedandbreakfastcividale.it,2,4,Jan 01 - Dec 31,,
62160,CIVIDALE DEL FRIULI,,Fulvio Mario,Via Alcide de Gasperi,7,+39 0432 733459;+39 347 2313594,+39 0432 733459,marioavifu@libero.it,,3,5,Nov 21 - Dec 31,46.0915284,13.4278738
71524,CIVIDALE DEL FRIULI,Ca Neva,Armellini Gianna,Via San Giorgio, 21/1,+39 348 7145178   340 2614461,,gianna.armellini@gmail.com,,4,8,Apr 01 - Oct 31,46.0821598,13.4274625
2557,CIVIDALE DEL FRIULI,Casa Ivana,Maion Gino,Via Roncuz,6,+39 0432 730036,,,,2,4,Mar 01 - Nov 30,46.1018017,13.4757661
33421,CIVIDALE DEL FRIULI,Da Renza,Rossi Bruno,Via Antonio Mattioni,26,+39 0432 733203;+39 339 4206518,,renzabruno@libero.it,,2,5,"Apr 01 - May 30, Jul 01 - Jul 30, Aug 18 - Oct 30",46.0904221,13.4173376
2654,CIVIDALE DEL FRIULI,Il Gelsomino,Dominissini Francesca,Via Matteotti, 11/2,+39 0432 731962,,,,2,4,"Mar 01 - Jun 30, Jul 10 - Aug 25, Sep 15 - Dec 30",,
2503,CIVIDALE DEL FRIULI,Le Azalee,Pecorari Danilo,Via dei Miani,18,+39 347 5509280,,,,2,5,"Jan 01 - Jan 10, Mar 01 - Oct 31, Nov 30 - Dec 31",46.0850567,13.4294509
2634,CIVIDALE DEL FRIULI,Le Margherite,Vogrig Rosina,Via Michele Leicht,19,+39 0432 733172,+39 0432 733172,rosinavogrig@gmail.com,,2,4,"Mar 26 - Aug 12, Aug 26 - Dec 23",46.0969888,13.4405768
2415,CIVIDALE DEL FRIULI,Marisa,Canzutti Marisa,Via Purgessimo, 40/1,+39 348 9205741,+39 0432 700119,ccmarisa@libero.it,,3,6,Jan 07 - Dec 24,46.094849,13.4509975
33880,CIVIDALE DEL FRIULI,Villa Ester,Simonitti Dea,Via Anton Giulio Cavarzerani,39,+39 0432 733324;+39 333 9830787,,villa.ester@alice.it,,2,4,"Mar 15 - Oct 31, Dec 01 - Dec 31",46.0894383,13.4178916
2430,CIVIDALE DEL FRIULI,Al Nid,Boscutti Carlo,Via Premariacco, 89/4,+39 346 2363950,,al-nid@libero.it,,3,6,"Jan 01 - Feb 15, Mar 01 - Dec 31",46.0873752,13.4166924
71561,CIVIDALE DEL FRIULI,,Rucli Manuela,Via Gagliano, 30/B,+39 347 9972696,,bandbergira@gmail.com,,3,8,Jan 01 - Dec 31,46.0742631,13.4354196
34700,CIVIDALE DEL FRIULI,,Rafael Angel,Via Borgo San Domenico, 3/2,+39 0432 732594;+39 339 2181841,+39 0432 732594,casacarbonara@gmail.com,http://www.casacarbonara.com,2,6,"Jan 01 - Jan 03, Jan 05 - Dec 31",46.0977205,13.4285643
41740,CIVIDALE DEL FRIULI,Da Patty,Vogrig Silvana,Via Monte Matajur,8,+39 0432 701084;+39 340 9548411,+39 0432 701084,bebpatty@libero.it,,2,3,"Jan 01 - Jan 10, Apr 01 - Dec 31",46.0960881,13.4328919
62920,CODROIPO,,Maria Rosa,Via Roveredo,4,+39 0432 909713;+39 347 3105216,,beb.fioridimaggio@gmail.com,,3,6,"Apr 21 - Sep 27, Oct 29 - Nov 08, Dec 02 - Dec 31",45.908616,13.0042172
47821,CODROIPO,Abbastanza,Scanferlato Chiara,Vicolo Chiuso,23,+39 432900100;+39 3498197512,,c.scanferlato@gmail.com,,1,2,Sep 01 - Sep 30,45.995637,13.025972
63341,CODROIPO,Rossella,Tosatto Rossella,Via Ferrovia,6,+39 0432 907815;+39 338 6618732,,rossella.tosatto@gmail.com,,1,2,Jan 01 - Nov 30,45.9958446,13.0270636
41860,CODROIPO,,Picchio Rosso,Via Piave,38,+39 0432 904350;+39 348 8295875  348 4084016,+39 0432 904350,giuli.danieli@email.it,http://www.alpicchiorosso.it,2,4,"Jan 01 - Feb 01, Feb 20 - Dec 31",45.9624301,12.9717011
64680,COLLOREDO DI MONTE ALBANO,Casa E Natura,Mercogliano Gilda,Via E. Ellero,51,+39 0432 889783;+39 339 2496244,,amministrazione@praticabenessere.it,,1,4,"Mar 15 - Aug 16, Sep 01 - Dec 10",,
66080,COLLOREDO DI MONTE ALBANO,Nella Terra di Mezzo,Presello Marco,Via San Daniele,7,+39 335 6791572,,marco_pisi@pec.it,http://www.nellaterradimezzo.com,2,7,Mar 01 - Dec 31,46.1455251,13.0920519
57120,COLLOREDO DI MONTE ALBANO,B&B Dora,Lodolo Clara,Via Lauzzana,56,+39 339 3979449,,bedbreakfastdora@gmail.com,,3,5,"Jan 01 - Sep 20, Dec 20 - Dec 31",46.1603374,13.1331169
51360,CORNO DI ROSAZZO,,Arrigoni Laura,Località Gramogliano, 13/B,+39 333 9788898,,bblacasadelpozzo@gmail.com,,2,4,Apr 01 - Oct 15,46.0025593,13.446419
50481,CORNO DI ROSAZZO,,La Salette,Via Papa Giovanni XXIII°,12,+39 0432 759655;+39 348 7155211,,laura.crucil@libero.it,,2,4,Apr 01 - Oct 31,,
65901,CORNO DI ROSAZZO,Al Gjal,Pezzano Patrizia,Via Casali,3,+39 0432 753513,+39 0432 753513,,,3,6,Apr 01 - Oct 31,,
2424,CORNO DI ROSAZZO,Casa 2 Tigli,Carpenetti Umberto,Via San Martino,4,+39 0432 753263;+39 320 6314851,+39 0432 753263,casaduetigli@yahoo.it,http://www.casaduetigli.it,3,6,"Mar 20 - Jul 05, Jul 20 - Dec 31",45.9788265,13.4461503
34000,CORNO DI ROSAZZO,,,Via Judrio,14,+39 432759090;+39 3381503163,,,,3,6,Feb 01 - Dec 31,45.9879769,13.4485927
36380,COSEANO,,Anna Maria,Via del Varmo,54,+39 0432 862012;+39 340 8682502,+39 0432 862012,haiprofumidicampagna@alice.it,,2,4,Jan 01 - Oct 31,46.086037,12.9901716
39500,COSEANO,Borc di Sore,Baldassi Michela,Via Maggiore,28,+39 328 0275561,,kismo@tiscali.it,http://www.alcacciatore.it,3,5,"Jan 01 - Jan 31, Mar 01 - Sep 30, Dec 01 - Dec 31",46.0601327,13.0311537
2623,DIGNANO,Casa Pirona,Bortolan Maria,Via Garibaldi,25,+39 0432 951215;+39 339 6813452,+39 0432 200875,emanuelecojutti@libero.it,,3,6,Apr 15 - Oct 15,44.9598704,13.8495412
38980,DIGNANO,Casa Regina,Orlando Ludovico,Via Cavour,11,+39 0432 956478;+39 334 6844944,+39 0432 956478,or.amelio@alice.it,,2,4,"Jan 01 - Jan 15, Mar 01 - Nov 01, Dec 01 - Dec 31",,
2496,DRENCHIA,Arcobaleno,Cicigoi Diego,Località Drenchia Inferiore,14,+39 3928129640,,,,1,2,Jun 01 - Sep 30,46.1830893,13.6355921
2497,DRENCHIA,Le Ortensie,Tomasetig Luigia,Località Piuma,5,+39 0432 721055,+39 0432 721055,le_ortensie@libero.it,,3,6,Jun 01 - Sep 30,,
2465,FAEDIS,Ai Nove Castelli,Depetris Matteo,Via Udine,63,+39 0432 728959,+39 0432 718728,matteode@libero.it,,2,2,"Mar 01 - May 15, May 30 - Jul 10, Aug 01 - Oct 30, Nov 15 - Dec 31",46.1487209,13.3443785
34681,FAEDIS,Alla Corte Dei Molini,Ronchi Angela,Via dei Molini,59,+39 0432 728606;+39 338 3985059,+39 0432 728606,cortedeimolini@libero.it,http://www.cortedeimolini.it,2,5,"Apr 01 - May 25, Jun 15 - Sep 30, Dec 01 - Dec 31",46.152056,13.3485008
2382,FAEDIS,Uma,Tusini Luigina,Via Canaletto,36,+39 0432 711338;+39 349 2335831,,luiginatusini@yahoo.it,http://www.casauma.com,1,4,"Nov 03 - Nov 20, Dec 20 - Dec 31",,
59080,FAGAGNA,,Zanor Loris,Via Umberto I,74,+39 0432 800639;+39 338 3574328,,loriszanor@gmail.com,,2,4,Feb 01 - Dec 31,46.1164942,13.0834833
43800,FAGAGNA,,E Lino,Via Udine,63,+39 0432 800172,,zemiralino@yahoo.it,,3,5,Apr 01 - Oct 31,46.1094388,13.0903975
65701,FIUMICELLO,,Timpano Manuela,Via don Carmelo Weffort,10,+39 347 1062668 / 348 9202615,,madi2008@alice.it,http://www.villamadi.com,1,4,"Feb 01 - Feb 14, Mar 06 - Mar 13, Mar 19 - Oct 16, Oct 29 - Nov 06",45.7737327,13.410365
66861,FIUMICELLO,Tibu,Salvini Cristina,Via Giacomo Matteotti,36,+39 340 7756824,,alecrisara@gmail.com,http://bbtibu.it,3,6,"Jan 01 - Jan 10, Apr 01 - Jun 12, Jun 19 - Sep 04, Sep 11 - Nov 06, Dec 01 - Dec 31",45.7894016,13.3996993
55500,FLAIBANO,,Maria Luisa,Via divisione Julia,12,+39 0432 869269;+39 349 5407517,,massimiliano.fabbro@gmail.com,,1,3,Mar 01 - Dec 30,46.060477,12.9831507
55680,FORGARIA NEL FRIULI,Da Gi & Jo,Ortali Giovanni,Via Belvedere,1,+39 0427 808314;+39 339 2717999,+39 0427 808314,giuliamondolo@libero.it,,2,6,"Jan 01 - Jan 31, Jul 10 - Dec 31",46.2270565,12.9989711
70580,FORGARIA NEL FRIULI,La Casetta In Canadá,Coletti Bruno,Via Villaggio Canada,13,+39 329 7229228,,150366@gmail.com,http://www.dormireinfvg.it,2,4,"Jan 01 - Jan 08, Jan 21 - Nov 08, Nov 21 - Dec 31",46.2214398,12.9683425
36482,FORGARIA NEL FRIULI,Bundi E Buinanot,Zuliani Massimiliano,Via Coletti,7,+39 0427 808013;+39 347 0737298,,emax.em@libero.it,,2,3,"Jan 01 - Jan 15, Mar 15 - May 02, May 15 - Jun 10, Jun 15 - Aug 31, Sep 05 - Nov 05, Dec 05 - Dec 31",46.2255195,12.9755591
2481,FORNI AVOLTRI,,Fabbro Umberto,Corso Italia,35,+39 0433 727478;+39 331 1304537,,campodeifiori@bbcarnia.it,http://www.bbcarnia.it,2,6,"Jan 01 - Mar 15, Jun 01 - Aug 11, Dec 26 - Dec 31",46.5844446,12.7807281
71722,FORNI AVOLTRI,,Fabbro Maddalena,Via 4 novembre,2,+39 320 5638966,,,,2,4,Jan 01 - Dec 31,,
2363,FORNI AVOLTRI,La Casa Delle Streghe,Michel Annalisa,Via Tors,20,+39 349 2326637,,annalisa.michel@gmail.com,,3,6,"Jan 01 - Apr 01, May 01 - Sep 30, Dec 01 - Dec 31",46.5823632,12.8404283
2614,FORNI AVOLTRI,Le Genziane,Agostinis Felicita,Via Belluno,19,+39 0433 72195;+39 338 4945690,,legenziane@bbcarnia.it,http://www.bbcarnia.it,1,4,"Jan 01 - Mar 31, Jun 01 - Sep 01, Dec 01 - Dec 31",46.5853234,12.7713102
56380,GEMONA DEL FRIULI,Centro Storico,Gollino Magda,Via Fossalat,5,+39 0432983215;+39 3478266001,,magdagollino@gmail.com,,1,2,"Jan 01 - Jan 09, Feb 10 - Dec 31",,
47780,LATISANA,4 Chiacchiere,Pez Albina,Via Damiano Chiesa,46,+39 346 8724006,+39 0431 510622,dasabrina@hotmail.it,,2,3,Jun 01 - Aug 29,45.772908,13.0147866
46780,LATISANA,B&B Al Ponte,Grando Claudia,Via del Capricorno,6,+39 0431 096082;+39 348 8071643,,claudiagrando@libero.it,,3,6,"Jan 01 - Jan 10, Mar 01 - Oct 31, Dec 20 - Dec 31",45.6781446,13.0814784
63360,LATISANA,,D Angelo,Via Volton,13,+39 347 0164607;+39 347 0164607,,,,3,6,Apr 23 - Oct 30,45.6870999,13.0570761
53860,LATISANA,,,Via La Rotta,21,+39 328 3717927,,SIMONIN@ALICEPOSTA.IT,,2,6,May 18 - Nov 30,45.7669461,13.0103417
2631,LATISANA,Casa Adriana,Lazzarini Adriana,Via Lignano sud,72,+39 0431 53310;+39 335 5471265,+39 0431 53310,adriana.lazzarini@virgilio.it,,2,3,Mar 15 - Nov 15,45.6896177,13.067346
2387,LUSEVERA,Alloggio Luciana,Noacco Claudio,Via Pradiel,9,+39 0432 787342;+39 339 4676599,+39 0432 787342,info@alloggioluciana.it,http://www.alloggioluciana.it,1,4,"Jan 01 - Feb 28, Mar 15 - Apr 30, May 15 - Oct 15, Oct 31 - Dec 31",,
34945,LUSEVERA,Bruolen,Sgrazzutti Stefano,Frazione Piedim,136,+39 339 1870593,,info@bruolen.it,http://www.bruolen.it,3,5,"Mar 28 - May 05, Jun 01 - Sep 30",,
2594,MAJANO,,Paulis Daniela,Via Mondovì,11,+39 0432 958119;+39 340 7141290,,b.b_lui@libero.it,http://www.bed-and-breakfast.it,2,3,"Jan 01 - Jan 31, Mar 01 - Oct 31, Dec 01 - Dec 31",,
42800,MALBORGHETTO VALBRUNA,Le Genziane,Errath Natascia,Via dei Campi,9,+39 333 7700365,,emyfive@live.it,,3,6,"Jan 01 - Mar 15, Jul 01 - Sep 30, Dec 15 - Dec 31",46.5113495,13.4735346
70240,MALBORGHETTO VALBRUNA,A Casa di Fuchs,Giovanna Liuzzo,Via Alpi Giulie,4,+39 338 8424756;+39 338 8424756,,edel.b@libero.it,,4,7,Jan 01 - Dec 31,46.4907915,13.4916288
2437,MALBORGHETTO VALBRUNA,Casa Al Salice,Gelbmann Geltrude,via Nazionale,5,+39 0428 60079;+39 338 3051858,+39 0428 60079,,,2,4,"Jan 01 - Apr 30, Jun 01 - Sep 30, Dec 01 - Dec 31",46.5050508,13.4194827
58440,MALBORGHETTO VALBRUNA,La Casetta Rosa,Buzzi August,Via Sorgenti Solforose,4,,,miro62@live.it,,3,5,Jan 01 - Dec 31,46.5020302,13.3785479
39001,MALBORGHETTO VALBRUNA,All Ombra Delle Alpi Giulie,Zanon Serena,Via Romana,15,+39 0428 60323;+39 347 0701105,,robycecon@tiscali.it,,2,4,"Jan 01 - Mar 31, May 01 - Sep 30, Nov 01 - Dec 31",46.506563,13.4220868
35980,MALBORGHETTO VALBRUNA,Da Julia,Zelloth Riccardo,Via Oisternig,1,+39 334 3212318,,rickyzelloth@libero.it,,3,6,"Jan 01 - Jan 31, Jul 15 - Aug 31, Dec 01 - Dec 31",46.5113207,13.4730622
54120,MANZANO,,,Via dei Ronchi,12,+39 0432 751061,,,,4,8,Jan 01 - Dec 31,45.9988723,13.3961159
42700,MANZANO,,Del Sole,Via San Tommaso,21,+39 0432 740657;+39 347 7940318,,francesco.sapia@alice.it,,4,8,"Jan 10 - Mar 20, Apr 21 - Jun 20, Jul 18 - Jul 31, Sep 01 - Dec 15",45.9976847,13.3947944
33482,MANZANO,Centro,Cencig Luigi,Via della Stazione, 9/a,+39 328 8234841;+39 328 8234841,+39 178 2204233,badandbreakfast.ctr@libero.it,,3,6,"Jan 10 - Jul 31, Aug 25 - Dec 15",,
69200,MARTIGNACCO,Brunives,Pittolo Dolores,Via Plaino,13,+39 348 3704725,,,,3,5,Sep 20 - Nov 30,46.1048041,13.1664545
4120,MARTIGNACCO,,,Via Cividina,14,+39 0432 677820;+39 348 7561976,,,,3,6,"Jan 01 - Jul 31, Sep 01 - Dec 31",46.0977306,13.1342165
56126,MARTIGNACCO,Villa Cantarutti,Bettio Manuela,Piazza San Tommaso,2,+39 0432 678155,,lino@villacantarutti.it,,3,6,"Jan 01 - Jul 31, Sep 01 - Dec 31",46.1052647,13.1624372
38920,MARTIGNACCO,Vivere In Campagna,Passarino Gabriella,Via Alnicco,4,+39 0432 678919;+39 329 2117711,,,,1,4,"Jan 10 - Jul 31, Aug 17 - Dec 19",46.1070647,13.1625288
52900,MONTENARS,Oriza,Hrast Martha,Via Flaibano,37,+39 0432 972943;+39 368 3914511,,,,3,5,Apr 01 - Dec 31,,
36521,MORTEGLIANO,Alfier Andrea,Bernardis Andrea,Via Mortegliano, 20/2,+39 0432 767028;+39 349 7585900,+39 0432 767028,INFO@CORTEALFIER.COM,http://WWW.CORTEALFIER.COM,3,8,"Jan 01 - Jan 16, Jan 31 - Mar 15, Apr 01 - Oct 31, Dec 01 - Dec 31",45.950117,13.2057358
36520,MORTEGLIANO,Alfier Francesco,Bernardis Francesco,Via Mortegliano, 20/4,+39 348 4078364,+39 0432 767028,INFO@CORTEALFIER.COM,http://www.cortealfier.com,3,8,"Jan 01 - Jan 31, Feb 28 - Apr 17, May 01 - Oct 16, Nov 01 - Dec 31",45.950117,13.2057358
37380,MORTEGLIANO,Garbin,Desinano Vinicio,Via Pozzuolo,22,+39 0432 767326;+39 347 1237329,,vinicio.desinano@alice.it,http://www.casagarbin.com,3,6,Mar 01 - Dec 31,,
36560,MORTEGLIANO,Al Batifiar,Sbuelz Filippo,Via Battiferro, 41 int.1,+39 339 3795339,+39 0432 510876,filippo.sbuelz@gmail.com,,3,6,"Jan 16 - May 27, Jul 02 - Dec 16",45.9560793,13.2310949
70053,MORUZZO,A Cjase di Sandra,Canciani Lisa,Via del Cristo,1,+39 329 3566897,+39 0432 672799,,,2,4,Jan 01 - Dec 31,46.1213151,13.1326462
2626,NIMIS,Casa Nongruella,Barbei Ornella,Via Nongruella,7,+39 0432 797194;+39 333 2668108,+39 0432 400950,,http://www.nongruella.com,3,6,"Apr 01 - Jun 20, Jul 01 - Sep 30",46.2254328,13.3328241
67180,OSOPPO,Al Vecchio Glicine,Pittino Nadja,Via Gravate,2,+39 0432 986224;+39 347 9392136,,nadja.pittino@pec.it,,2,5,Jun 01 - Oct 01,46.2216901,13.0671008
40180,OSOPPO,Da Rita,Buiatti Enzo,via Buia,16,+39 0432 975428;+39 347 5638054,,,,2,4,Apr 01 - Oct 31,46.2524627,13.0864811
43740,OVARO,Mandi Mandi,Maria Nagostinis,Via Otto Ottobre di Mione,43,+39 0433 747650;+39 338 4005934,,,http://www.mandimandi.it,3,6,"Jan 01 - Nov 04, Dec 05 - Dec 31",46.4776266,12.8532137
49641,PAGNACCO,Green Time,Ganzini Mauro,Via Plaino, 17/4,+39 0432 661194;+39 339 4188098,,mauro.ganzini@gmail.com,,1,2,Mar 01 - Oct 31,46.1187583,13.1835234
45960,PALMANOVA,,,Piazza Grande,14,+39 0432 923774,,LUCIA@CREDRA.COM,,1,4,"Feb 01 - Feb 28, Apr 01 - Jun 30, Aug 01 - Aug 30, Sep 15 - Sep 30",45.9060334,13.3103479
38000,PALMANOVA,Casa Dei Tori,Gori Elena,Via Oberdan, 12/A,+39 0432 928100;+39 338 5336396,+39 0432 920789,silvia.savi@tiscali.it,http://www.casadeitori.it,3,6,Apr 01 - Dec 31,,
55160,PALUZZA,,Centa Manuela,Via Principale,12,+39 335 5495289,,casadicenta@manueladicenta.it,http://www.casadicenta.it,1,5,"Jan 01 - Mar 15, Mar 25 - May 15, Jun 01 - Sep 25, Oct 29 - Nov 15, Dec 01 - Dec 31",46.5221099,13.0091744
36960,PALUZZA,Da Carletto,Bellina Carlo,Via Vittorio Veneto,10,+39 0433 779151,,,,3,6,Jul 15 - Sep 15,46.5638694,13.0042656
57500,PASIAN DI PRATO,,Blasutig Gianalberto,Via dei Faggi,5,+39 3336457528,,nuovosanpaolo@yahoo.it,,1,2,Jan 01 - Dec 31,46.0655388,13.1699073
2395,PAULARO,Ravinis,Maion Endrio,Via Monte Pizzul,17,+39 0433 70643;+39 333 5207000,,ileniafabiani@libero.it,http://www.bedandbreakfastravinis.it,3,6,"Jan 01 - Jan 15, Mar 20 - Apr 20, Jun 15 - Sep 15, Dec 15 - Dec 31",46.5394207,13.1268078
51820,PAVIA DI UDINE,B.& B. Il Borghetto,Grinovero Elena,Via Pre Zaneto,34,+39 0432676386;+39 0432676340,+39 0432 676240,elena@lapein.it,,1,3,"Mar 01 - May 15, Jun 01 - Aug 15, Sep 01 - Dec 30",45.9734684,13.3186063
53481,POCENIA,,di Paradiso,Via Crosaris,2,+39 346 8660347,+39 0432 777299,f.tonizzo@gmail.com,http://www.facebook.com/pages/BB-Angolo-di-Paradiso,2,3,Apr 01 - Oct 31,45.867626,13.1454298
2529,PONTEBBA,Alte Schule,Fortin Luciano,Via della Chiesa,7,+39 0428 90483;+39 347 1662012,+39 0428 90483,,,2,6,"Jan 01 - Apr 15, Jul 01 - Aug 31, Dec 15 - Dec 31",46.507505,13.3074466
2364,PONTEBBA,Ta Famée,Buzzi Fulvia,Via della Chiesa,22,+39 340 5621350,+39 0428 991307,tafamee@libero.it,http://www.tafamee.it,3,6,"Jan 01 - Apr 02, Apr 29 - Aug 18, Sep 18 - Dec 05, Dec 24 - Dec 31",46.5079995,13.3086305
2535,PONTEBBA,Al Ghiro,Buzzi Luisa,Via Zardini,32,+39 0428 90727;+39 335 7020598,,marziadigas@libero.it,,2,4,"Jan 01 - Mar 15, Jul 01 - Sep 15, Dec 01 - Dec 31",,
2534,PONTEBBA,,Maria Elisabetta,Via Mazzini,46,+39 0428 90626,,b.b.pontafel@tiscali.it,,2,6,"Jan 01 - Mar 10, Mar 20 - Apr 02, Apr 20 - May 20, May 24 - Jun 03, Jun 14 - Sep 15, Sep 28 - Oct 15, Nov 23 - Dec 31",46.5066268,13.3064556
2426,PONTEBBA,B&B di Monica E Mauro,Festari Monica,Via Paceida,3,+39 0428 90960,,monicaf65@aliceposta.it,,3,6,"Jan 15 - Mar 15, Oct 01 - Dec 15",,
42140,PORPETTO,,Del Lauro,Via Verdi,8,+39 3389377736,,casadellauroporpetto@gmail.com,http://www.casadellauro.com,4,8,"Jan 01 - Nov 15, Dec 01 - Dec 31",,
65080,POVOLETTO,Cjampa,Brezzi Francesco,Via dei Monti,4,+39 3484761045  3342813680,,brezzi.francesco@gmail.com,,3,5,"Jan 01 - Jan 31, Mar 01 - Oct 30, Dec 01 - Dec 31",46.1674796,13.2649177
41005,POVOLETTO,Le Rondini,Salvador Edi,Via Monte Canin,1,+39 0432 664485;+39 347 3216207,,prenotazioni@allerondini.it,http://www.allerondini.it,2,4,Mar 01 - Nov 30,46.1052035,13.3046959
56880,POZZUOLO DEL FRIULI,Apricot,Migliore Annunziata,Via XXV aprile, 7/b,+39 0432 690965;+39 392 8800503,+39 0432 690965,b.e.b.a@live.it,,2,4,Jan 01 - Dec 31,,
44160,POZZUOLO DEL FRIULI,Alla Luna,Gori Nadia,Via San Giorgio,27,+39 0432 560205;+39 3313813506,+39 0432 3061279,bebluna@alice.it,,3,6,"Jan 01 - Apr 30, May 16 - Jul 31, Sep 01 - Oct 31, Dec 01 - Dec 15",46.0059191,13.2280892
2361,PRADAMANO,B&B di Villa Ottelio,Miani Mercede,Via Torricelle,20,+39 0432 670459,,bbottelio@libero.it,http://www.bbottelio.eu,3,8,"Jan 01 - Jan 20, Feb 22 - Dec 31",46.0297071,13.2964401
44440,PRADAMANO,Italia,Tami Roberto,Via Lovaria,26,+39 0432 670174;+39 339 7612524,+39 0432 670174,vinitami@libero.it,http://www.vinitami.it,3,6,Jan 15 - Dec 15,46.0298699,13.3075616
48560,PRATO CARNICO,,,Frazione Pesariis,117,+39 348 5431964,,teresadalnuf@yahoo.it,,2,3,Mar 20 - Oct 25,46.5222445,12.7715215
65940,PRECENICCO,,Virginia Ranch,Via Canedo,2,+39 3484441464;+39 3484441464,,virginiaranch@yahoo.it,,3,6,Feb 01 - Nov 30,45.7413874,13.0628437
40760,PRECENICCO,,Minicis Giovanni,Via Pra della Narda,2,+39 0431 589781;+39 335 5426838,,g.deminicis@cheapnet.it,http://www.villapinella.it,3,6,Mar 01 - Nov 30,45.7833412,13.0758643
52780,PREMARIACCO,,Maria Flavia,Via Buttrio,8,+39 0432 720563;+39 340 9368222,+39 0432 720563,info@dorsaria.it,http://www.dorsariabedandbreakfast.it,2,6,Mar 01 - Nov 30,46.0364289,13.3784494
2617,PREPOTTO,,da Centa,Via Centa,76,+39 0432 713237;+39 347 7056472,,caterinadacenta@yahoo.it,,3,6,Mar 01 - Dec 30,,
2485,PREPOTTO,,Pasquale Giuseppina,Località Franz,131,+39 0432 713252;+39 3487080550,+39 432737723,info@casaledongiovanni.it,http://www.casaledongiovanni.it,3,3,Jan 01 - Dec 31,,
2373,PULFERO,Chiabudini,Chiabudini Tullio,Frazione Ronchis,106,+39 0432 726245,,,,2,4,Mar 01 - Sep 30,,
67900,RAGOGNA,Armonie,Sivilotti Micaela,Via Muris,37,+39 334 7028983,,micaela.sivi@gmail.com,,1,3,"Jan 01 - Jan 31, Apr 01 - Oct 30, Dec 01 - Dec 31",46.1824558,12.9787438
49640,RAGOGNA,B&B Marina,Marini Marina,Via Osoppo,41,,+39 0432 955333,info@bebmarina.com,http://www.bebmarina.com,2,6,Mar 01 - Nov 30,46.1903327,13.0005125
2515,RAGOGNA,,Maria Assunta,Via 2 giugno,17,+39 0432 954213,+39 0432 954213,info@alvecjotraghet.it,http://www.alvecjotraghet.it,3,6,"Jan 01 - Jan 31, Mar 15 - Oct 30, Dec 01 - Dec 31",,
36040,RAVASCLETTO,,Crignis Flavia,Via Valcalda,10,+39 338 1689291,,ilranuncolo@bbcarnia.it,http://www.bbcarnia.it,2,7,"Jan 01 - May 20, Jun 01 - Sep 30, Dec 20 - Dec 31",46.5221833,12.9220969
42380,RAVASCLETTO,Infiore,Ramon Ines,Via Stalivieri, 24/BIS,+39 0433 66371;+39 335 441300,+39 0433 66371,inesramon@libero.it,,3,5,"Jan 01 - Jan 06, Feb 01 - Mar 31, Jun 15 - Sep 15, Dec 27 - Dec 31",46.5317767,12.9517311
50161,RAVEO,Fra Luci E Misteli,Cordovado Stefano,Via Macilles,13,+39 0433 746212;+39 347 0573046,,stefanocordovado@alice.it,http://www.fraluciemisteli.it,3,6,"Jun 01 - Jul 02, Jul 03 - Jul 31, Aug 01 - Aug 31, Sep 01 - Sep 30",46.4373446,12.8705281
2547,REANA DEL ROJALE,I Fruz,Caporale Monica,Via Carbonaria,5,+39 0432 857767;+39 333 4486073,,bb.ifruz@libero.it,,3,5,"Jan 06 - Feb 18, Mar 02 - Apr 30, May 13 - Aug 19, Sep 02 - Oct 07, Oct 12 - Nov 18, Nov 25 - Dec 31",46.1357086,13.2514354
57820,RIVIGNANO TEOR,,Pitton Piera,Via Paolo Solimbergo,19,+39 340 5039329,,beb.casamia@libero.it,http://www.bebcasamia.it,4,8,Jan 03 - Nov 03,45.8678864,13.0421976
62480,RIVIGNANO TEOR,Casa Filaferro,Feruglio Anna,Vicolo Molino,3,+39 349 3699536,,anna.feruglio@casafilaferro.it,,2,5,Apr 05 - Oct 31,45.8209782,13.0836089
42021,RIVIGNANO TEOR,,Mestre Renzo,Via San Marco,3,+39 0432 771039;+39 348 1619337,,redeme@hotmail.com,,2,8,Feb 01 - Nov 30,45.8486546,13.069505
41500,RIVIGNANO TEOR,,Maria Laura,Via Umberto I, 2/A,+39 327 7470194,,info@iltempodelgiardino.it,http://www.iltempodelgiardino.it,4,7,Mar 10 - Nov 08,,
50083,RUDA,Villa Rita,Marconato Patrizia,Via Cortona,21,+39 338 9536765,+39 0432 524173,bbvillaritaruda@gmail.com,,3,6,Apr 01 - Sep 30,45.8140504,13.4100447
54360,SAN DANIELE DEL FRIULI,Bed And Breakfast Antico Borgo,Clarini Elvia,Località Aonedis,20,+39 334 7164203,,a.lenarduzzi@hotmail.it,,2,3,"Jan 01 - Jan 12, Feb 24 - Mar 02, Apr 03 - Sep 14, Oct 01 - Oct 19, Oct 31 - Dec 31",46.148871,12.9648194
71740,SAN DANIELE DEL FRIULI,B & B Cuore,Pigat Fabiola,Via monsignor Egidio Fant,44,+39 0427 808873,+39 0427 808874,fabi.pigat@gmail.com,,2,4,Jan 01 - Dec 31,46.1534506,13.0010281
68660,SAN DANIELE DEL FRIULI,,Cecco Monica,via Nazionale, 37-39,+39 0432 956262,,monica.dececco@tiscali.it,,3,6,Jan 01 - Dec 31,46.1311386,12.9695321
54460,SAN DANIELE DEL FRIULI,The Green Corner S Hangout,Bulligan Mariano,Via Alessandro Manzoni,18,+39 328 9626086,,hangout.thegreencorners@gmail.com,,2,6,May 16 - Dec 31,46.1606969,13.0128322
2598,SAN DANIELE DEL FRIULI,,,Via Osoppo,44,+39 0432 955397;+39 348 0008647   334 3209205,,jolli@email.it,,2,5,"Jan 01 - Feb 15, Feb 16 - Sep 01, Sep 02 - Oct 15, Nov 16 - Dec 31",46.1659054,13.0190026
2418,SAN DANIELE DEL FRIULI,,,Via Osoppo,111,+39 0432 941044,+39 0432 941044,,,2,5,Mar 01 - Oct 31,46.1704144,13.0241255
2632,SAN DANIELE DEL FRIULI,,,Via delle Querce,28,+39 0432 955879,,rossi-bellomo@alice.it,,1,3,"Mar 01 - May 15, Jul 01 - Sep 15, Dec 01 - Dec 31",46.1598385,12.9949738
40420,SAN DANIELE DEL FRIULI,Sottocolle Fontana,Ursella Ivan,Via Soprapaludo,4,,,federica.nonino@gmail.com,http://www.sottocollefontana.it,3,6,Jan 01 - Dec 31,46.1699665,13.0359516
2633,SAN DANIELE DEL FRIULI,Villa Jasmin,Pischiutta Alba,via Nazionale,76,+39 0432 956013;+39 338 9938105,+39 0432 956013,,,3,6,Mar 01 - Dec 31,46.130345,12.9684239
52880,SAN GIOVANNI AL NATISONE,,Marco Franca,Via Ronchi,13,+39 0432 756691;+39 340 3997346,,casa-demarco@virgilio.it,,4,8,Mar 01 - Nov 30,45.9914874,13.4120866
4100,SAN LEONARDO,Ada,Sibau Ada,Via Merso di Sopra,15,+39 0432 723457;+39 340 2968519,,,,2,5,May 01 - Aug 31,46.12146,13.5256356
2429,SAN LEONARDO,Casa Emilia,Sibau Giuseppina,Via Cravest,80,+39 0432 723148,+39 0432 723148,,,2,3,Jun 01 - Sep 30,,
2520,SAN LEONARDO,Casa Qualizza,Coceani Giulia,Via Merso di Sopra,44,+39 0432 723212,,giuliacoceani@gmail.com,,3,6,Jun 01 - Aug 31,46.1218367,13.5276168
2427,SAN LEONARDO,La Casa Sul Fiume,Chiabai Paola,Frazione Costa,22,+39 0432 723068;+39 380/2980970,,p.tomasetig@libero.it,,2,3,May 01 - Sep 30,,
49680,SAN PIETRO AL NATISONE,Casa Rosalba,Cedarmas Marco,Frazione Melina,8,+39 0432 727258;+39 349 1646711,+39 0432 727258,bbcasarosalba@yahoo.it,,2,6,May 15 - Dec 31,,
2490,SAN PIETRO AL NATISONE,Corte Dei Suanovi,Spagnut Ave,Frazione Seuza,21,+39 0432 727384;+39 335 7050955  334 3185668,+39 0432 727556,,,1,2,Apr 01 - Dec 31,,
53900,SAN VITO AL TORRE,Casa Della Fornace,Qualizza Eleonora,Via Venezia,7,+39 333 7772770,+39 0432 1632018,info@casadellafornace.it,http://www.casadellafornace.it,4,8,"Jan 01 - Jan 31, Mar 01 - Oct 31, Dec 01 - Dec 31",45.8809042,13.3800983
54740,SAN VITO AL TORRE,B & B 23,Rossi Paola,Via Julia,23,+39 349 1435331,,bedandbreakfast23@libero.it,,3,6,Apr 01 - Dec 31,45.9147009,13.3795316
57420,SAN VITO AL TORRE,Il Cammino,Simeon Daniele,Via Julia,19,+39 340 1095416,,marinella.cordiglia@alice.it,,2,4,Jan 15 - Jul 31,45.9144566,13.3791392
57580,SAN VITO AL TORRE,Palazzo Roncato,Rossana Roncato,Via Venezia, 1/a,+39 333 5278542,,,,2,6,"Jan 01 - Jan 07, Mar 01 - Oct 30, Dec 12 - Dec 31",45.880947,13.3799438
41741,SAN VITO AL TORRE,Villa Steffaneo,Roncato Roberto,Via Aquileia,36,+39 0432 999528;+39 339 6273057,+39 0432 998021,villa.steffaneo@virgilio.it,,3,6,Apr 01 - Oct 31,45.8819203,13.3807478
2414,SAURIS,Sant Antonio di Modepoudn,Marzari Laura,Via Ariis di Sotto, 85/A,+39 339 8582777,,laura.marzari52@gmail.com,,3,6,"Jan 01 - Feb 28, Apr 01 - May 02, Jun 01 - Sep 30, Dec 01 - Dec 31",,
2565,SAURIS,Pa Mairlan,Plozzer Armida,Frazione Pesariis,42,+39 0433 86009,+39 0433 86009,pamairlan@bbcarnia.it,http://www.pamairlan-sauris.it,3,6,"Jan 01 - Mar 01, Apr 01 - May 01, Jun 01 - Sep 30, Dec 01 - Dec 31",,
2561,SEDEGLIANO,Il Mulino Sul Ledra,Vidotto Tiziana,Via Martiri della Libertà,23,+39 0432 916836;+39 333 9076886,+39 0432 916836,mulinoledra@gmail.com,,1,2,"Feb 01 - Apr 21, May 06 - Jul 26, Sep 02 - Oct 31, Nov 04 - Dec 19",46.019164,12.9807525
2384,STREGNA,Rosa Dei Venti,Stulin Alessandro,Via Superiore,50,+39 0432 724116,,,,3,6,"Mar 15 - Apr 15, Jun 15 - Aug 30, Dec 15 - Dec 31",,
2574,TAIPANA,Casa Svetlana,Malkina Svetlana,Via Monte Maggiore,22,+39 0432 788013,,,,3,5,Mar 01 - Dec 31,,
71704,TALMASSONS,"Bed & Breakast ""nikita""",Deana Gilberto,Via Isonzo, 17/1,+39 338 6327844,,,,2,3,Jan 01 - Dec 31,45.9230819,13.1358663
2381,TARCENTO,Li Dai Tos,Pividori Paolo,Via Natisone,3,+39 0432 783535;+39 347 4610812,+39 0432 783535,inesbujan@yahoo.it,http://www.lidaitos.it,2,6,"Jan 01 - Jan 07, Apr 06 - Dec 08, Dec 27 - Dec 31",46.1934057,13.2290272
3061,TARCENTO,,,Via Natisone,10,+39 0432 783843;+39 393 9722412,+39 0432 783843,capinerafvg@alice.it,http://www.beb-italia.it,2,4,Apr 01 - Sep 30,46.1935925,13.2297009
2527,TARCENTO,Casa Ongjarut,Biasizzo Diego,Via Bernadia,18,+39 0432 791850;+39 335 6861760,+39 0432 791850,diego.biasizzo@libero.it,http://www.ongjarut.it,2,5,Apr 01 - Sep 30,46.218416,13.2358673
2367,TARCENTO,Da Lisute,Jannis Adriano,Via Bernadia,98,+39 0432 785105;+39 328 1118359,,,,2,5,Apr 01 - Dec 31,46.2200371,13.2426603
47840,TARCENTO,Da Silver,Jenny Silveris,Via Olivo Alfieri,11,+39 333 6379638,+39 432793068,bandbdasilver@hotmail.it,,2,4,Mar 15 - Nov 30,,
2619,TARCENTO,Les Bouganvilles,Papinutti Donata,Via delle Viole,1,+39 0432 791908;+39 333 8673451,+39 0432 791908,lesbouganvilles@libero.it,,1,3,Mar 15 - Nov 30,46.2090943,13.2230363
67280,TARVISIO,,Cillia Loredana,Via Lussari, 18/D,+39 348 2564748;+39 348 2564748,,info@albuonditarvisio.com,http://www.albuonditarvisio.com,4,8,Jan 01 - Dec 31,46.5086559,13.5343301
35180,TARVISIO,Al Sentiero,Comelli Giulia,Via Lussari, 18/B,+39 0428 40457;+39 3343857292,,,,3,6,Jan 01 - Dec 31,46.5071219,13.5395191
2543,TARVISIO,,Danica Pivk,Via Molino,7,+39 0428 63188;+39 329 1321715,,,,1,2,Jan 01 - Dec 31,46.5092726,13.5227319
2432,TARVISIO,Casa Corte Lara,Bortot Maria,Via Alpi Giulie,39,+39 0428 40248;+39 333 5794844,+39 0428 40248,laracorte@virgilio.it,,2,6,"Jan 01 - May 30, Jun 30 - Sep 30, Oct 30 - Dec 31",46.507986,13.5433225
60060,TARVISIO,B&B Boscoverde,Filaferro Nives,Via Cadorna,18,+39 0428 3038;+39 333 1590124,,anfrea.tomasi67@gmail.com,,2,5,"Mar 15 - Apr 15, Jun 01 - Sep 30, Dec 01 - Dec 31",46.4949926,13.6548014
67801,TARVISIO,B&B da Dante,Tosoni Dante,Via Armando Diaz,18,+39 331 5855856;+39 331 5855856,,dante.tosoni@alice.it,,1,2,"Jan 01 - Apr 30, Jun 01 - Sep 30, Dec 01 - Dec 31",46.5058391,13.5663975
2434,TARVISIO,Cristal,Liva Cristina,Via Ferrovia,7,+39 0428 2884;+39 338 2759537,+39 0428 2884,cristina.liva@virgilio.it,http://www.babcristaltarvisio.it,2,5,"Jan 01 - Mar 30, Jun 01 - Sep 30, Dec 01 - Dec 31",46.5072408,13.5985547
2435,TARVISIO,Da Carla,Svetina Carla,Via Gorizia,20,+39 0428 40136;+39 329 1531033,+39 0428 2004,misscharly2002@libero.it,,2,6,"Jan 01 - Apr 30, Jun 01 - Dec 31",46.5018815,13.5885899
2607,TARVISIO,,Ross Selene,Via Friuli,71,+39 347 0366764,+39 0428 2364,delrossselene@googlemail.com,,3,6,"Jan 01 - Apr 30, Jun 01 - Oct 31, Dec 01 - Dec 31",46.5346598,13.6392514
66402,TAVAGNACCO,,,Via Chiavris,12,+39 393 9092799,,chevanton7@gmail.com,,2,6,"Jan 01 - Jan 17, Feb 01 - Feb 28, Mar 15 - Jul 31, Sep 01 - Dec 31",46.09079,13.2026948
54540,TERZO DAQUILEIA,B&B Al Pic De Corone,Lotti Daniele,Via della Fontana,16,+39 0431 30176;+39 349 5840450,,info@alpicdecorone.it,http://www.alpicdecorone.it,3,6,"Mar 01 - Oct 11, Oct 14 - Nov 08, Nov 12 - Nov 15, Nov 19 - Nov 22, Nov 26 - Nov 30, Dec 03 - Dec 13",45.8014457,13.3428813
63680,TERZO DAQUILEIA,Balzano da 4,Ricamo Susanna,Via Ronchi,16,+39 0431 30177;+39 339 6383641,,balzanox4@gmail.com,https://sites.google.com/site/balzanox4,2,5,May 01 - Nov 30,45.7963742,13.3630222
43881,TOLMEZZO,,Orlando Caterina,Via monte Grappa, 74/C,+39 340 7467689,,,,3,4,"Jan 01 - Feb 28, May 01 - Sep 30, Nov 01 - Dec 31",46.4083764,12.9997511
45421,TOLMEZZO,Nel Verde,Marcolini Daniela,Via Romana,20,+39 347 7206352,,scriviadaniela@yahoo.it,,2,4,"Jan 01 - Apr 15, May 01 - Sep 15, Nov 01 - Nov 30, Dec 15 - Dec 31",46.4320453,13.0190003
52280,TOLMEZZO,Da Mamma Lo,Bertuzzi Loretta,Via Monte Sernio,13,+39 0433 2604;+39 338 4737683,,l.bertu@libero.it,,2,4,"Feb 22 - Apr 07, Apr 19 - May 05, May 10 - Sep 29, Oct 25 - Nov 03, Nov 29 - Dec 31",46.4312156,13.0188013
67620,TOLMEZZO,La Mansarda di Gabri,Cosetti Gabriella,Via della Vittoria,19,+39 3498249255,,cosetti@alice.it,,1,2,Jan 01 - Dec 31,46.4100594,13.0129878
65120,TOLMEZZO,,Orlando Daniela,Via Monte Sernio,3,+39 043340971;+39 3349970679,,,,1,2,Jan 01 - Dec 31,46.4312156,13.0188013
2580,TOLMEZZO,Il Cardo,Straulino Elvira,Via Somalia,5,+39 0433 43902;+39 347 3912175,+39 0433 43902,ilcardo@bbcarnia.it,http://www.bbcarnia.it,6,10,"Jan 01 - Jan 07, Feb 02 - Feb 04, Feb 16 - Feb 18, Feb 23 - Feb 25, Mar 09 - Mar 11, Mar 16 - Mar 18, Mar 23 - Nov 02",,
2538,TORREANO,Al Cocolar,Montanino Roberto,Via Kennedy,17,+39 339 8430076,,aritacocolar@libero.it,,1,3,Apr 01 - Oct 31,,
2477,TORREANO,Da Ilva,Iacuzzi Ilva,Via Principale,52,+39 0432 712106,,,,2,4,Apr 01 - Sep 30,46.1267449,13.4296574
2475,TORREANO,,Guerra Luigi,Via Kennedy,41,+39 0432 715384;+39 380  4186002,+39 0432 715248,aziendaagricola@guerraluigi.it,http://www.guerraluigi.it,3,8,Apr 01 - Dec 31,,
2627,TORREANO,Friendship,Wangler Bernadette,Via del Mulino, 25/1,+39 0432 712302,+39 0432 712302,friendship25@alice.it,,2,5,Apr 03 - Jun 06,46.1255068,13.4311863
2539,TORREANO,Marie-therese,Roiatti Walter,Via Zorutti,19,+39 0432 715106;+39 339 4420813,+39 0432 715106,info@marietherese.it,http://www.marietherese.it,3,6,Mar 15 - Oct 30,,
68460,TRASAGHIS,Palar,Latino Adele,Via Napoleonica,7,+39 3401001009;+39 348 5524028,,bebpalar@gmail.com,,3,5,Mar 01 - Oct 31,46.3118258,13.0496497
60681,TRICESIMO,B & B Cuei di Baret,Artico Virgilio,Via Cuol Barbar,9,+39 0432 854533;+39 333 6421817,,tubetti@gmail.com,,2,4,Apr 01 - Oct 15,,
70860,TRICESIMO,,Caselli Federica,Via monte Grappa,15,+39 348 4480742,,fede_caselli@yahoo.it,,2,6,Jan 01 - Dec 31,46.1851804,13.212846
72160,TRICESIMO,La Casa Blu di Monasteto,Agosto Francesca,Via Belvedere,17,+39 0432 854788,,info@francesca-agosto.it,,3,6,Mar 15 - Nov 15,46.1558888,13.2065085
35321,TRICESIMO,Colline Moreniche,Tami Moreno,Via San Giovanni,29,+39 0432 853930;+39 340 6289730,,,,2,5,"Mar 15 - Apr 30, May 15 - May 31, Jun 15 - Jun 30, Jul 05 - Aug 15, Sep 01 - Sep 15, Oct 01 - Oct 31",46.1590259,13.1884284
59700,TRICESIMO,Villa Miotti De Braida,Miotti Giovanni,Via Borgobello,4,+39 0432 883590,,miotti@villamiotti.it,,3,6,Jun 06 - Oct 30,46.1623683,13.2156386
60080,TRIVIGNANO UDINESE,Alla Piazzetta,Cleri Laura,Via Aquileia,1,+39 0432 999262;+39 333 7864412,,laura.paviotti@gmail.com,,3,5,"Jan 01 - Jan 31, Mar 01 - Dec 31",45.9441635,13.3413583
3480,TRIVIGNANO UDINESE,Casa Barnaba - Manin,Komauli Valentina,Via Stretta,1,+39 0432 999528;+39 339 6273057,+39 0432 999528,valentina.komauli@alice.it,http://www.casabarnaba-manin.it,2,6,"Jan 01 - Jan 08, Mar 01 - Nov 30, Dec 16 - Dec 31",45.9288957,13.3325097
51240,UDINE,B & B Al Meriggio,Pitis Giovanni,Via Latisana,41,+39 392 8812742;+39 392 8812742,,bbmeriggio@gmail.com,http://www.bbmeriggio.com,3,6,"Jan 15 - Jul 20, Sep 01 - Dec 15",46.0749419,13.2289171
45841,UDINE,B & B Erica,Pessotto Erica,Via Paolo Fistulario,42,+39 0432 234077,,maxbighammers@libero.it,,2,5,"Mar 01 - Jul 31, Sep 16 - Dec 31",46.0475789,13.2254619
51680,UDINE,C Era Una Volta,Vidoni Ludovica,Via Veneto, 177/11,+39 346 3748706;+39 349 4440480,,ceraunavolta_bb@libero.it,,2,4,"Jan 01 - Oct 31, Nov 12 - Dec 31",46.036476,13.2498685
2649,UDINE,Casa Renata,Beltramini Renata,Via Tissano,8,+39 0432 600232;+39 333 2834928,+39 0432 600232,casarenata@libero.it,http://www.bbcasarenata.it,3,5,"Feb 10 - Oct 30, Dec 05 - Dec 31",46.0220407,13.2669965
61080,UDINE,Friul,Venuti Riccardo,Via San Rocco,368,+39 338 9992725;+39 0432 232355,+39 0432 232355,rickonline@tin.it,,1,3,Jan 01 - Dec 31,46.0506433,13.209216
54240,UDINE,La Luna E Le Stelle,Rizzi Amalfia,Via Brescia, 11/1,+39 0432 403428;+39 340 8360851,+39 0432 403428,amalfia@virgilio.it,http://www.lunastelle.it,1,2,"Jan 01 - Mar 24, Apr 07 - Jul 15, Aug 16 - Sep 04, Sep 15 - Dec 10",46.0876518,13.1985085
61120,UDINE,,Scala Carlo,Via Monte Hermada,1,+39 335 7559957;+39 393 9303643,,info.pianobb@gmail.com,,2,6,Jan 01 - Dec 31,46.071527,13.2387049
35341,UDINE,Scenarium,Bielcikova Slava,Viale Venezia,184,+39 329 4946124;+39 329 4946124,,scenarium@alice.it,http://www.scenariumudine.com,3,8,Jan 01 - Dec 31,46.0563412,13.2198313
62620,UDINE,,Ana Mercedes,Via Adige,45,+39 340 3930870;+39 0432 1744343,,,,1,2,Jan 01 - Dec 31,46.1610528,13.1750234
33180,UDINE,Al Gatto Rosso,Contardo Fabio,Via Baldasseria Media,129,+39 328 2660808,,info@algattorosso.com,http://www.algattorosso.com,4,8,"Jan 01 - Jan 06, Jan 18 - Feb 17, Mar 01 - Dec 31",46.04413865,13.2584328748223
46240,UDINE,Al Giglio Bianco,Levi Gigliola,Via Campagnola,60,+39 349 2228475,+39 0432 480725,gigliobiancoud@yahoo.it,,2,4,"Jan 01 - Jan 14, Feb 15 - Mar 14, Apr 15 - Sep 30, Nov 01 - Dec 31",46.0437614,13.2371649
61860,UDINE,Cinqueminutidacentroestazione,Lunazzi Melania,Via Teobaldo Ciconi,18,+39 349 5208243,,l_melania@hotmail.com,,1,2,Jan 01 - Dec 31,46.0570391,13.2369921
56960,UDINE,Il Posto di Zaffira,Secchi Maria,Via Monzambano,138,+39 338 3000414;+39 0432 582254,,mzaffira@gmail.com,,2,4,Jan 01 - Dec 31,46.0609372,13.2559767
54840,UDINE,La 12° Notte,Linda Alessandra,Via Cormons,25,+39 0432 482562;+39 393 1474922,,alessandralinda@aruba.it,,2,3,Apr 15 - Dec 31,46.0752919,13.232562
55560,UDINE,Madonnetta,Mazzucchelli Andrea,Via della Madonnetta,51,+39 0432 524201;+39 338 2165433,,andmazud@hotmail.it,,4,7,Jan 01 - Dec 31,46.0495434,13.2447027
56440,UDINE,Marameo,Carnevali Mauro,Via Tavagnacco, 64/12,+39 335 6399172;+39 340 6161708,+39 0432 644007,bedbreakfastmarameo@gmail.com,,3,5,Apr 16 - Dec 31,46.0867857,13.2306058
68242,UDINE,Accanto Al Focolare 2,Lazzati Fabrizio,Via Baldasseria Bassa,237,+39 348 7210734,,lazzatifabrizio@gmail.com,,1,2,May 01 - Dec 31,46.0398986,13.2553555
65201,UDINE,Civico 51,Merlo Angela,Via Gorizia,51,+39 347 7770474,,info@civico51.it,,3,7,Jan 01 - Dec 31,46.075645,13.2392088
62220,UDINE,Plume,Fattori Daniela,Via Pinerolo,9,+39 329 7447225,,fattoridaniela@gmail.com,,2,6,Jan 01 - Dec 31,46.0883808,13.231716
37720,UDINE,Agli Schnauzer,Cappelletti Fiammetta,Via Capodistria,57,+39 0432 481211;+39 339 7687112,,fiammettacap@yahoo.it,,2,5,"Jan 01 - Jan 20, Feb 01 - Nov 17, Nov 29 - Dec 31",46.074676,13.2481886
37000,UDINE,Ai Tigli,Stefini Emanuela,Via Monzambano, 54/2,+39 0432 283198;+39 330 714853,,emanuela.stefini@gmail.com,http://www.dormireaudine.it,3,6,"Jan 15 - Aug 04, Aug 19 - Nov 03, Nov 18 - Dec 31",46.0609372,13.2559767
2645,UDINE,Al Borgo Vecchio,Pigani Sandra,Via Cussignacco, 48/4,+39 0432 25091;+39 339 6242164,,sandra.pigani@gmail.com,,3,5,"Jan 01 - Aug 10, Aug 26 - Dec 31",46.0290371,13.2212863
33344,UDINE,,Pintor Andrea,Viale Trieste,18,+39 0432 510468;+39 335 5455330,+39 0432 510468,linozp@gmail.com,,2,5,"Jan 01 - Jul 28, Aug 26 - Dec 31",46.0677691,13.2451637
2566,UDINE,,,Via del Bon,548,+39 0432 581172;+39 329 9827582,,alvecchionoce@libero.it,http://www.alvecchionoce.com,3,6,Jan 05 - Dec 24,46.0694763,13.2795508
33342,UDINE,Alla Gledizia,Lestani Lorenzo,Viale Cadore, 2/A,+39 334 3653046,,allagledizia@alice.it,,3,6,"Jan 02 - Aug 01, Aug 16 - Dec 23",46.0685371,13.2182292
42080,UDINE,B & B Dei Musicanti,Biondi Roberto,Via Gorizia,18,+39 0432 470421;+39 320 0439320,,bbdeimusicanti@email.it,http://www.bbmusicanti.it,1,2,"Jan 10 - Jul 31, Aug 10 - Dec 20",46.072367,13.2391468
43680,UDINE,Borgo Nuvola,Calligaris Pamela,Via Risano, 19/4,+39 338 6045489;+39 338 6045489,,bb.borgonuvola@gmail.com,http://www.borgonuvola.it,2,3,"Jan 06 - Feb 10, Mar 20 - May 30, Jun 10 - Jun 30, Jul 15 - Aug 20, Sep 01 - Dec 31",46.0429685,13.2567667
2392,UDINE,Camera Con Vista,Asquini Fabiola,Via Daniele Manin,16,+39 0432 501174;+39 338 5675241,+39 0432 501174,fabiola.asquini@libero.it,http://www.manin16.it,1,3,"Jan 01 - Jan 15, Feb 01 - Dec 31",46.0639,13.2375008
2551,UDINE,,,Via della Madonnetta,44,+39 0432 602723,,annabo.chi@libero.it,,3,6,"Jan 15 - Aug 15, Sep 01 - Dec 15",46.0493084,13.2433717
2501,UDINE,Casa Daniela,Zoratti Franco,Via Pradamano,88,+39 0432 522992;+39 338 1032219,,info@casadaniela.com,http://www.casadaniela.com,2,4,"Jan 01 - May 30, Jun 16 - Dec 31",46.0527544,13.2571224
37721,UDINE,,Gobbo Franca,Via Fruch,37,+39 0432 281028;+39 339 5037566,+39 0432 281028,,,3,6,"Jan 01 - Jan 31, Mar 16 - Dec 31",46.1232027,13.1799691
32379,UDINE,Da Cathy,Galliussi Gabriella,Via Francesco di Toppo, 19/3,+39 0432 1790713;+39 347 5146435,,cathybb07@yahoo.it,,2,3,"Jan 02 - Aug 14, Aug 17 - Dec 22",46.0706183,13.2319056
2646,UDINE,Dimora Montegnacco,Trombetta Vittorio,Via Cussignacco, 48/3,+39 0432 204698;+39 333 3357540,+39 0432 204698,info@dimoramontegnacco.it,http://www.dimoramontegnacco.it,3,6,"Jan 01 - Jan 05, Mar 02 - Jul 05, Jul 20 - Jul 31, Aug 10 - Nov 09, Nov 13 - Nov 23, Nov 27 - Dec 09, Dec 21 - Dec 31",46.0290371,13.2212863
2625,UDINE,,Mary Ann,Via Cividale,290,+39 0432 281863;+39 349 2640481  327 7471874,,maryann.mccoy@gmail.com,http://www.bbjennysgarden.com,3,5,"Jan 01 - Aug 01, Aug 15 - Aug 20",46.0722371,13.2559334
35340,UDINE,Jenny S Garden,Moreale Jennifer,Via Cividale, 290/1,+39 0432 281863;+39 327 7471874,,bbjennysgarden@gmail.com,http://www.bbjennysgarden.com,2,4,"Jan 01 - Aug 01, Aug 15 - Dec 20",46.0716253,13.2530047
2533,UDINE,La Calesita,Cozzolino Elisa,Via Ermes di Colloredo, 11/6,+39 339 4356095;+39 0432 204108,,siame@libero.it,,3,5,"Jan 15 - Mar 29, Apr 02 - Jun 30, Sep 15 - Oct 15, Nov 01 - Dec 15",46.0717383,13.2340117
2643,UDINE,,Maria Teresa,Via Ermes di Colloredo, 11/6,+39 0432 45138;+39 347 8357639;+39 347 8357639,+39 0432 45138,bbmariateresa@libero.it,,2,5,"Jan 01 - May 15, Jun 15 - Dec 31",46.0717383,13.2340117
35481,UDINE,Tre Cuori,Ardoino Cristiana,Via Capodistria, 43/1,+39 0432 481211;+39 347 4946141,,3cuori@gmail.com,,2,5,"Jan 01 - Feb 01, Feb 15 - Jun 15, Jul 05 - Dec 31",46.0742567,13.2484804
65160,VARMO,Villa Bartolini,Tammaro Massimo,Via Due Platani,15,+39 392 8268213,,,,3,8,Mar 01 - Nov 15,45.9008472,12.9789134
62562,VARMO,Ai Prati,Guatelli Dante,Via dei prati,17,+39 338 2048548,,,,4,8,"Jan 01 - Jan 08, Jan 28 - Oct 13, Oct 23 - Dec 31",45.8939446,13.0203539
41600,VENZONE,Capelli D Angelo,Cancellieri Elisa,Via Alberton del Colle,1,+39 3493661292,,elisacancellieri81@gmail.com,,2,5,"Jan 01 - Feb 15, Apr 15 - Oct 31, Dec 15 - Dec 31",46.3338996,13.1384768
71140,VENZONE,,,Via degli Alpini,21,+39 346 7333960;+39 346 7333960,,info@jasminavenzone.it,http://www.jasminavenzone.it,3,6,Jan 01 - Dec 31,46.3300649,13.138765
54367,VERZEGNIS,La Gerla Blu,Paschini Pietro,Via Vittorio Cella,7,+39 0433 44646;+39 333 3375166,,lagerlablu@virgilio.it,,4,8,"Jan 01 - Jan 15, Mar 16 - Oct 31, Dec 01 - Dec 31",46.3883685,12.9923644
46161,VILLA VICENTINA,B&B Casa Perini,Perini Ludovica,Via Giuseppe Garibaldi, 52/A,+39 335 5919471,,info@casaperini.it,http://www.casaperini.it/,3,6,"Mar 15 - Oct 31, Nov 20 - Dec 31",45.8216739,13.3844589